{"type":"FeatureCollection","features":[{"type":"Feature","properties":{"kind":"water"},"geometry":{"type":"Polygon","coordinates":[[[63.57704,53.10382],[63.57709,53.10276],[63.57636,53.10163],[63.5734,53.09938],[63.57295,53.09871],[63.57258,53.09766],[63.57181,53.09683],[63.5706,53.09616],[63.56906,53.09559],[63.56816,53.095],[63.56681,53.09453],[63.56475,53.09388],[63.5641,53.09388],[63.55999,53.09213],[63.55741,53.09131],[63.5565,53.09111],[63.56027,53.09111],[63.56093,53.09151],[63.56696,53.09348],[63.56775,53.0936],[63.5705,53.09484],[63.57331,53.09663],[63.57619,53.10018],[63.57743,53.10075],[63.57844,53.10166],[63.57887,53.10182],[63.57919,53.1017],[63.57833,53.10121],[63.57857,53.10094],[63.57958,53.1015],[63.57953,53.10183],[63.58022,53.10206],[63.58043,53.10333],[63.58009,53.10363],[63.58005,53.10375],[63.57958,53.10427],[63.57894,53.10469],[63.57876,53.10477],[63.5774,53.10509],[63.57672,53.10532],[63.57419,53.10553],[63.57359,53.10566],[63.57346,53.10589],[63.57303,53.10586],[63.57134,53.10698],[63.57116,53.10776],[63.57177,53.10943],[63.57423,53.11001],[63.57434,53.10979],[63.57387,53.10964],[63.57378,53.10884],[63.57404,53.10894],[63.57709,53.11237],[63.57928,53.11391],[63.58056,53.11538],[63.58116,53.1168],[63.58022,53.11981],[63.58009,53.12102],[63.58048,53.12185],[63.58138,53.12275],[63.58269,53.1233],[63.58466,53.12374],[63.586,53.12379],[63.58684,53.1236],[63.5868,53.12314],[63.58644,53.12308],[63.5843,53.12213],[63.58563,53.12231],[63.58553,53.12158],[63.58537,53.1212],[63.58556,53.12093],[63.58556,53.12066],[63.5858,53.12058],[63.58613,53.12062],[63.58664,53.12057],[63.58661,53.12033],[63.58706,53.12026],[63.5876,53.12043],[63.58782,53.12167],[63.58857,53.12258],[63.58962,53.12259],[63.58968,53.12239],[63.58945,53.12167],[63.58959,53.12157],[63.59047,53.12157],[63.59072,53.12168],[63.59137,53.12228],[63.59151,53.12257],[63.59125,53.12262],[63.59151,53.12316],[63.59103,53.12378],[63.59215,53.12494],[63.59267,53.12623],[63.59245,53.12808],[63.59172,53.12986],[63.58902,53.13287],[63.58601,53.13524],[63.58507,53.1366],[63.58508,53.137],[63.58537,53.13787],[63.58585,53.13861],[63.58627,53.13911],[63.58694,53.13967],[63.58658,53.13982],[63.5867,53.13994],[63.58694,53.13984],[63.58746,53.14013],[63.58738,53.14024],[63.58753,53.14041],[63.58785,53.14044],[63.58811,53.14077],[63.58856,53.14104],[63.58886,53.14171],[63.59023,53.14283],[63.59028,53.14313],[63.59059,53.14341],[63.59126,53.1438],[63.59135,53.14402],[63.59201,53.14443],[63.59216,53.1448],[63.59369,53.14558],[63.59444,53.14578],[63.59494,53.14573],[63.59508,53.14557],[63.59493,53.14546],[63.59528,53.14531],[63.59551,53.14538],[63.59538,53.14543],[63.59548,53.14548],[63.59614,53.14548],[63.59641,53.14559],[63.59615,53.14564],[63.59631,53.14571],[63.59691,53.14572],[63.59717,53.14562],[63.59952,53.14567],[63.59975,53.14562],[63.60022,53.14539],[63.6006,53.14534],[63.60161,53.1454],[63.60435,53.14594],[63.60462,53.14606],[63.60467,53.14592],[63.60442,53.14572],[63.60365,53.14531],[63.60331,53.14528],[63.60193,53.14483],[63.60183,53.1447],[63.60185,53.14465],[63.60316,53.14498],[63.60428,53.14541],[63.60476,53.14575],[63.60489,53.14605],[63.6049,53.14623],[63.60503,53.14635],[63.60583,53.14759],[63.60583,53.14801],[63.60575,53.14806],[63.6058,53.14823],[63.60582,53.14901],[63.60588,53.14917],[63.60597,53.14913],[63.60623,53.14931],[63.60605,53.1495],[63.60654,53.15001],[63.60661,53.14998],[63.60667,53.15015],[63.60673,53.15018],[63.60711,53.15019],[63.60783,53.15064],[63.60794,53.15084],[63.60832,53.15106],[63.60869,53.15153],[63.60914,53.15253],[63.60961,53.15293],[63.6097,53.15317],[63.61006,53.15333],[63.61023,53.15362],[63.61072,53.15376],[63.61076,53.15391],[63.61063,53.15385],[63.61055,53.15393],[63.61079,53.15422],[63.61152,53.15453],[63.61188,53.15493],[63.61226,53.15555],[63.61222,53.15562],[63.61345,53.15617],[63.61359,53.15617],[63.61349,53.15589],[63.61365,53.15587],[63.61432,53.15625],[63.61492,53.15643],[63.61592,53.15696],[63.61606,53.15694],[63.61623,53.15696],[63.61622,53.15707],[63.61634,53.15716],[63.61655,53.15717],[63.61659,53.15705],[63.61672,53.15699],[63.61698,53.15711],[63.61698,53.15718],[63.617,53.15701],[63.61738,53.15734],[63.6176,53.15721],[63.61772,53.15727],[63.61776,53.15776],[63.61745,53.158],[63.61699,53.15734],[63.61729,53.15813],[63.61671,53.15993],[63.61641,53.16036],[63.61601,53.16077],[63.61484,53.16154],[63.61413,53.16178],[63.61406,53.16177],[63.61346,53.16193],[63.61301,53.16232],[63.61305,53.16234],[63.61347,53.16204],[63.61371,53.16199],[63.61373,53.16218],[63.61362,53.1622],[63.61288,53.16275],[63.61287,53.16293],[63.61276,53.16299],[63.61268,53.1632],[63.61277,53.16347],[63.61291,53.16356],[63.61331,53.16361],[63.61344,53.16359],[63.61353,53.1635],[63.61348,53.16342],[63.61371,53.1632],[63.61355,53.16299],[63.61364,53.16278],[63.61425,53.16254],[63.61497,53.16266],[63.61519,53.16284],[63.61578,53.1637],[63.61355,53.16438],[63.61405,53.16472],[63.61592,53.16414],[63.61605,53.16418],[63.61652,53.16385],[63.61743,53.16343],[63.6188,53.16317],[63.61932,53.16291],[63.61985,53.16253],[63.62,53.16247],[63.62089,53.16231],[63.62109,53.16232],[63.62198,53.16203],[63.62238,53.16208],[63.62254,53.16225],[63.62242,53.16245],[63.62206,53.16263],[63.62156,53.16265],[63.62162,53.16272],[63.62209,53.16286],[63.62232,53.16287],[63.62251,53.1628],[63.62253,53.16269],[63.62272,53.16262],[63.62295,53.16272],[63.62323,53.16268],[63.62356,53.16233],[63.62382,53.16232],[63.62386,53.16224],[63.62428,53.16203],[63.62443,53.16181],[63.62469,53.16178],[63.62484,53.16158],[63.62535,53.16151],[63.62584,53.1614],[63.62713,53.16129],[63.62732,53.16135],[63.62736,53.16146],[63.62715,53.1616],[63.62691,53.16163],[63.62649,53.16195],[63.62628,53.16196],[63.62582,53.1617],[63.62557,53.16171],[63.62526,53.16185],[63.62507,53.16187],[63.62495,53.16179],[63.6248,53.16179],[63.62474,53.16188],[63.62484,53.16192],[63.62481,53.16201],[63.62463,53.16209],[63.62441,53.16235],[63.62347,53.1627],[63.62308,53.16302],[63.62275,53.16308],[63.62261,53.16335],[63.62268,53.16357],[63.62269,53.16433],[63.62368,53.16502],[63.62342,53.16516],[63.62352,53.16522],[63.6238,53.16523],[63.62378,53.16538],[63.62418,53.16603],[63.62447,53.16622],[63.62426,53.16623],[63.6241,53.16633],[63.62413,53.16651],[63.62394,53.16664],[63.62345,53.16669],[63.62332,53.16675],[63.62333,53.1669],[63.62365,53.16739],[63.62385,53.16733],[63.6241,53.16742],[63.62447,53.16737],[63.62486,53.16706],[63.62521,53.1669],[63.62536,53.16692],[63.62554,53.16718],[63.62553,53.16752],[63.62512,53.16848],[63.62529,53.16878],[63.62521,53.16891],[63.62498,53.16902],[63.62489,53.16924],[63.62462,53.16935],[63.624,53.16928],[63.62375,53.1694],[63.62379,53.16957],[63.62403,53.16959],[63.6242,53.16968],[63.62413,53.16987],[63.62341,53.17035],[63.62248,53.17049],[63.62201,53.17031],[63.62113,53.17053],[63.62078,53.17053],[63.62065,53.17001],[63.62087,53.16983],[63.62125,53.16981],[63.62155,53.16969],[63.62129,53.16967],[63.62111,53.16954],[63.6208,53.16957],[63.62078,53.16953],[63.62098,53.16948],[63.62068,53.16907],[63.62025,53.16933],[63.61987,53.17],[63.61997,53.17032],[63.61958,53.17037],[63.61997,53.17032],[63.62012,53.17078],[63.62115,53.17272],[63.62169,53.17314],[63.62279,53.17452],[63.62325,53.17587],[63.62316,53.17706],[63.62327,53.17761],[63.62267,53.17815],[63.62206,53.17859],[63.62197,53.17899],[63.62229,53.17953],[63.62271,53.18004],[63.62395,53.18089],[63.62618,53.18207],[63.62676,53.18245],[63.62695,53.18248],[63.62701,53.18255],[63.62698,53.1826],[63.62738,53.18289],[63.62765,53.18356],[63.62773,53.18355],[63.62769,53.18341],[63.62781,53.18344],[63.62804,53.18355],[63.62832,53.18384],[63.62827,53.18394],[63.62832,53.18406],[63.62817,53.18396],[63.62801,53.18394],[63.62822,53.18413],[63.62936,53.18433],[63.63213,53.18513],[63.63393,53.18513],[63.63605,53.18466],[63.63858,53.18376],[63.63903,53.18364],[63.63966,53.18357],[63.6406,53.18374],[63.64279,53.18428],[63.64376,53.18495],[63.64556,53.18762],[63.64532,53.18929],[63.64399,53.19046],[63.64318,53.19167],[63.64334,53.19285],[63.6437,53.19321],[63.64534,53.19417],[63.64771,53.19541],[63.64925,53.19641],[63.65109,53.19857],[63.65168,53.19939],[63.65197,53.19952],[63.65196,53.19958],[63.65221,53.19974],[63.65196,53.2001],[63.65202,53.20065],[63.65198,53.20138],[63.65182,53.20221],[63.65201,53.20259],[63.65209,53.20328],[63.65193,53.2038],[63.65128,53.2042],[63.65115,53.20419],[63.65099,53.20426],[63.65101,53.2045],[63.65155,53.20464],[63.65172,53.20476],[63.65177,53.2051],[63.65171,53.20521],[63.65142,53.20538],[63.65019,53.2059],[63.65019,53.20609],[63.65025,53.20617],[63.6504,53.2062],[63.65138,53.20585],[63.65222,53.20542],[63.65234,53.20544],[63.65197,53.206],[63.65195,53.207],[63.65284,53.20793],[63.65309,53.20827],[63.65306,53.2085],[63.65311,53.20867],[63.65326,53.20886],[63.6546,53.20974],[63.65547,53.21013],[63.65741,53.21064],[63.65805,53.21086],[63.65921,53.21138],[63.66012,53.21156],[63.66092,53.21152],[63.66124,53.21159],[63.6615,53.21183],[63.66156,53.21198],[63.662,53.21201],[63.66223,53.21194],[63.66264,53.21191],[63.66264,53.21172],[63.6628,53.21172],[63.66274,53.21197],[63.66383,53.21155],[63.66393,53.21145],[63.66391,53.21134],[63.66362,53.21107],[63.66363,53.21087],[63.66421,53.21031],[63.66473,53.21009],[63.66565,53.20991],[63.66661,53.20965],[63.66826,53.20951],[63.6688,53.20949],[63.66883,53.20973],[63.66886,53.20949],[63.67,53.20953],[63.67038,53.20958],[63.6709,53.20958],[63.67122,53.20968],[63.67179,53.21025],[63.67233,53.21055],[63.67279,53.21089],[63.67286,53.21103],[63.67282,53.21128],[63.67326,53.21164],[63.67339,53.21213],[63.67339,53.21242],[63.67311,53.21291],[63.67317,53.21309],[63.67356,53.21358],[63.67383,53.21379],[63.67478,53.21415],[63.6752,53.21456],[63.67519,53.21508],[63.675,53.21521],[63.67456,53.21532],[63.67455,53.21539],[63.67475,53.21565],[63.67534,53.21608],[63.67541,53.21619],[63.67547,53.21681],[63.67505,53.21727],[63.6753,53.21825],[63.67647,53.21908],[63.67662,53.21951],[63.67661,53.21962],[63.67632,53.22016],[63.67664,53.22101],[63.67643,53.22147],[63.67631,53.22159],[63.67514,53.22218],[63.67479,53.22254],[63.67472,53.22269],[63.67473,53.22297],[63.67615,53.22411],[63.67659,53.2242],[63.67742,53.22406],[63.67833,53.22408],[63.67841,53.22405],[63.67879,53.22369],[63.67913,53.22353],[63.67936,53.2235],[63.6804,53.22359],[63.68155,53.22406],[63.6819,53.22425],[63.68263,53.22502],[63.68306,53.22611],[63.68339,53.22654],[63.6835,53.22699],[63.68351,53.22735],[63.68364,53.22755],[63.68406,53.2277],[63.68502,53.22814],[63.68559,53.22853],[63.6861,53.22906],[63.68683,53.23014],[63.68714,53.23047],[63.68719,53.2306],[63.68713,53.23086],[63.68672,53.23121],[63.6867,53.23157],[63.68661,53.23177],[63.6867,53.2319],[63.6874,53.23226],[63.68764,53.2323],[63.68835,53.23229],[63.68909,53.23239],[63.69107,53.23298],[63.69135,53.23298],[63.69164,53.23265],[63.69218,53.23241],[63.69296,53.23233],[63.69375,53.23242],[63.69434,53.23268],[63.69568,53.233],[63.69675,53.23304],[63.69709,53.23295],[63.69724,53.23288],[63.69726,53.23282],[63.69713,53.23255],[63.6971,53.23225],[63.69736,53.23179],[63.69733,53.23113],[63.69703,53.23074],[63.69644,53.22948],[63.69654,53.22856],[63.69679,53.22815],[63.6978,53.22758],[63.69805,53.22751],[63.69853,53.2275],[63.69917,53.22758],[63.69934,53.22764],[63.69976,53.22812],[63.7005,53.2284],[63.70113,53.22878],[63.7013,53.22931],[63.7011,53.22962],[63.70075,53.22979],[63.70069,53.22992],[63.70073,53.23],[63.70197,53.23057],[63.70221,53.23074],[63.70289,53.2309],[63.70351,53.23111],[63.704,53.23144],[63.70432,53.23159],[63.70591,53.23188],[63.70644,53.2322],[63.7067,53.23251],[63.70682,53.23282],[63.7068,53.23317],[63.70674,53.23329],[63.70655,53.23343],[63.70616,53.23406],[63.70608,53.23467],[63.70585,53.23504],[63.70544,53.23539],[63.70507,53.23586],[63.70425,53.23632],[63.7034,53.23664],[63.70302,53.23686],[63.70286,53.23707],[63.70285,53.23734],[63.7029,53.23747],[63.70329,53.23771],[63.7036,53.23803],[63.70378,53.23847],[63.70357,53.23915],[63.70324,53.2396],[63.70389,53.24008],[63.70394,53.24019],[63.70394,53.24057],[63.70415,53.24085],[63.70475,53.24132],[63.70564,53.24243],[63.70597,53.24305],[63.70619,53.24307],[63.70662,53.24303],[63.70684,53.24307],[63.70722,53.24325],[63.70744,53.24355],[63.70772,53.24366],[63.70884,53.24362],[63.71002,53.24381],[63.71026,53.24393],[63.71044,53.24411],[63.71047,53.24422],[63.71033,53.24445],[63.7104,53.24484],[63.71009,53.24554],[63.71009,53.24572],[63.71013,53.24588],[63.71067,53.24643],[63.71084,53.24678],[63.71114,53.24713],[63.71214,53.24728],[63.71257,53.24744],[63.71298,53.24786],[63.71303,53.24811],[63.71313,53.2482],[63.71338,53.24827],[63.71371,53.24832],[63.71432,53.24831],[63.71491,53.24812],[63.71559,53.24802],[63.71587,53.24806],[63.71615,53.24821],[63.71582,53.24842],[63.7163,53.24842],[63.71628,53.2487],[63.716,53.24894],[63.71574,53.24902],[63.71676,53.24932],[63.71703,53.24945],[63.71735,53.24982],[63.71742,53.25005],[63.71733,53.25039],[63.71711,53.25059],[63.71679,53.25073],[63.71667,53.25085],[63.71662,53.25101],[63.71678,53.25126],[63.71699,53.2514],[63.71745,53.25158],[63.71794,53.25216],[63.71791,53.25248],[63.71763,53.2528],[63.71752,53.25321],[63.71726,53.25356],[63.71722,53.2541],[63.71765,53.25489],[63.71854,53.25555],[63.71955,53.25639],[63.71981,53.2568],[63.71995,53.25717],[63.71992,53.2577],[63.71982,53.25804],[63.71947,53.25837],[63.71932,53.25869],[63.71903,53.25902],[63.71861,53.25888],[63.71878,53.25915],[63.71833,53.25924],[63.7178,53.25918],[63.71811,53.25956],[63.71822,53.25982],[63.71836,53.26049],[63.71828,53.26085],[63.71838,53.261],[63.71863,53.26114],[63.71909,53.26126],[63.71955,53.26147],[63.71996,53.26176],[63.72026,53.26211],[63.72088,53.26329],[63.72095,53.26372],[63.72088,53.26405],[63.72054,53.26453],[63.72019,53.26469],[63.71974,53.2648],[63.71924,53.26502],[63.71882,53.26524],[63.71857,53.26546],[63.71837,53.26606],[63.71827,53.26676],[63.71794,53.26719],[63.71745,53.26753],[63.71746,53.26762],[63.71857,53.26877],[63.71899,53.26897],[63.71961,53.26914],[63.72005,53.2692],[63.72126,53.269],[63.72181,53.26905],[63.72207,53.26913],[63.72239,53.26938],[63.72254,53.26982],[63.72224,53.2703],[63.72191,53.27049],[63.72174,53.27055],[63.72131,53.27061],[63.72091,53.27052],[63.72074,53.2706],[63.72071,53.2712],[63.72166,53.2717],[63.72194,53.27192],[63.72208,53.27195],[63.72219,53.27178],[63.72291,53.27113],[63.72296,53.27101],[63.72283,53.27064],[63.72315,53.27024],[63.72361,53.27001],[63.72382,53.26995],[63.72448,53.26995],[63.72509,53.27015],[63.72547,53.27039],[63.72596,53.27106],[63.72618,53.27115],[63.72661,53.27117],[63.7278,53.27112],[63.72799,53.27116],[63.7283,53.2713],[63.72801,53.27153],[63.72846,53.27143],[63.72865,53.27178],[63.7285,53.27215],[63.72834,53.27226],[63.72713,53.27264],[63.72752,53.27285],[63.72784,53.27308],[63.72792,53.2732],[63.72799,53.27355],[63.72763,53.27422],[63.72765,53.27454],[63.72793,53.2747],[63.7283,53.27477],[63.7312,53.27497],[63.73178,53.27516],[63.73239,53.27562],[63.73261,53.27597],[63.73273,53.27629],[63.73288,53.2764],[63.73318,53.27653],[63.73407,53.27665],[63.73396,53.27693],[63.7342,53.27668],[63.73447,53.27678],[63.73476,53.27698],[63.73563,53.2774],[63.73585,53.27774],[63.73578,53.27798],[63.73635,53.27829],[63.73692,53.27895],[63.73679,53.27935],[63.73658,53.27956],[63.73631,53.27966],[63.73684,53.28017],[63.73785,53.28046],[63.738,53.28056],[63.73812,53.28075],[63.73818,53.28095],[63.73814,53.2813],[63.73765,53.28202],[63.73764,53.28212],[63.73785,53.28238],[63.73817,53.28263],[63.73838,53.28271],[63.7386,53.28273],[63.73919,53.28256],[63.73957,53.28259],[63.74192,53.28331],[63.74229,53.28359],[63.74247,53.28389],[63.74247,53.28423],[63.74235,53.28454],[63.74179,53.2854],[63.74171,53.28642],[63.74137,53.28691],[63.7414,53.28698],[63.74218,53.28732],[63.74428,53.28785],[63.7466,53.28827],[63.74749,53.28862],[63.74834,53.28902],[63.74971,53.28986],[63.7506,53.2905],[63.75113,53.29119],[63.75158,53.29126],[63.75235,53.29176],[63.75247,53.2921],[63.75241,53.29239],[63.7518,53.29292],[63.75163,53.29299],[63.75102,53.29312],[63.75053,53.2931],[63.75017,53.29296],[63.74986,53.29322],[63.7495,53.29399],[63.74937,53.29411],[63.74894,53.29428],[63.74863,53.29434],[63.74844,53.29435],[63.74817,53.2943],[63.7479,53.29432],[63.74776,53.2944],[63.74733,53.29526],[63.74735,53.29551],[63.74764,53.29578],[63.74777,53.29654],[63.74769,53.29752],[63.74734,53.29811],[63.74824,53.29891],[63.75078,53.30194],[63.75186,53.30285],[63.75297,53.30336],[63.75336,53.30338],[63.75373,53.30331],[63.75533,53.30285],[63.7559,53.30273],[63.75743,53.30273],[63.75891,53.30289],[63.75932,53.30312],[63.75898,53.30333],[63.75932,53.30312],[63.76,53.30354],[63.76024,53.30411],[63.76022,53.3044],[63.7603,53.30453],[63.76186,53.30618],[63.76277,53.30683],[63.76344,53.30707],[63.76399,53.30712],[63.76454,53.30681],[63.76605,53.30644],[63.76684,53.30563],[63.77089,53.30355],[63.77316,53.3028],[63.77501,53.30207],[63.77619,53.30217],[63.77633,53.30224],[63.77685,53.30268],[63.77763,53.30289],[63.7795,53.30381],[63.78188,53.30457],[63.78448,53.30479],[63.78479,53.30476],[63.78536,53.30442],[63.78677,53.30411],[63.78776,53.30359],[63.78799,53.30353],[63.78877,53.30353],[63.78968,53.30364],[63.78987,53.30373],[63.79065,53.30429],[63.79111,53.30438],[63.79203,53.30425],[63.79279,53.3039],[63.79348,53.30378],[63.79372,53.30379],[63.79443,53.30397],[63.79458,53.30405],[63.79675,53.30631],[63.80479,53.31221],[63.80405,53.31258],[63.79599,53.30666],[63.79385,53.30445],[63.79354,53.30437],[63.7932,53.30443],[63.7924,53.30479],[63.79107,53.30497],[63.7901,53.30478],[63.78924,53.30418],[63.78868,53.30411],[63.78822,53.30411],[63.78727,53.30461],[63.78587,53.30492],[63.78533,53.30525],[63.78514,53.30531],[63.78446,53.30537],[63.78166,53.30514],[63.779,53.30431],[63.77923,53.30405],[63.77893,53.30428],[63.77711,53.30338],[63.77623,53.30314],[63.77569,53.30269],[63.77522,53.30266],[63.77364,53.3033],[63.77144,53.30403],[63.76755,53.30602],[63.76668,53.3069],[63.76504,53.30731],[63.76443,53.30767],[63.76414,53.30772],[63.76311,53.30762],[63.76221,53.3073],[63.7611,53.30653],[63.75942,53.30478],[63.75926,53.30449],[63.75928,53.3042],[63.75914,53.30383],[63.75843,53.3034],[63.75735,53.3033],[63.75607,53.3033],[63.75412,53.30384],[63.75356,53.30395],[63.7527,53.30392],[63.7525,53.30387],[63.75118,53.30327],[63.74996,53.30224],[63.7497,53.30194],[63.75013,53.30181],[63.7497,53.30194],[63.7474,53.29919],[63.74659,53.2985],[63.74637,53.29822],[63.74636,53.29811],[63.74646,53.29783],[63.74674,53.29742],[63.74681,53.29656],[63.7467,53.29595],[63.74641,53.29568],[63.74637,53.2952],[63.74688,53.29415],[63.747,53.29403],[63.74754,53.29378],[63.74821,53.29371],[63.74852,53.29376],[63.74863,53.29372],[63.74898,53.29296],[63.74963,53.29244],[63.74984,53.29239],[63.75036,53.29237],[63.75057,53.29241],[63.75084,53.29254],[63.75093,53.29254],[63.75114,53.29248],[63.75148,53.29221],[63.75149,53.29205],[63.75106,53.29176],[63.75072,53.29173],[63.75052,53.29164],[63.75021,53.29142],[63.74979,53.29081],[63.74899,53.29024],[63.74768,53.28944],[63.74694,53.2891],[63.74621,53.2888],[63.74394,53.28839],[63.74172,53.28783],[63.74062,53.28733],[63.74042,53.28706],[63.74041,53.28678],[63.73939,53.28655],[63.73816,53.28586],[63.73823,53.28563],[63.73696,53.28464],[63.73639,53.2837],[63.73646,53.28346],[63.7367,53.28329],[63.73734,53.2837],[63.73842,53.28463],[63.7389,53.28549],[63.73955,53.28616],[63.7401,53.2864],[63.73976,53.28589],[63.74017,53.28588],[63.74068,53.28643],[63.74076,53.2863],[63.74085,53.28529],[63.74144,53.28436],[63.74152,53.28399],[63.74144,53.28386],[63.74134,53.28378],[63.73934,53.28317],[63.73869,53.28332],[63.73803,53.28326],[63.7375,53.28305],[63.73703,53.28269],[63.7367,53.28228],[63.73667,53.28216],[63.73673,53.28184],[63.73719,53.28118],[63.73719,53.28091],[63.7368,53.28083],[63.73616,53.2806],[63.73569,53.28018],[63.73532,53.27976],[63.73526,53.27954],[63.73537,53.27934],[63.73553,53.27923],[63.73588,53.27914],[63.73594,53.27904],[63.73558,53.27863],[63.73495,53.27828],[63.73479,53.27801],[63.73486,53.27776],[63.7341,53.2774],[63.7339,53.27725],[63.73278,53.27706],[63.7322,53.27681],[63.73187,53.27656],[63.73153,53.27589],[63.73121,53.27563],[63.73095,53.27553],[63.72804,53.27533],[63.72743,53.2752],[63.72682,53.27485],[63.72665,53.27448],[63.72668,53.27415],[63.72702,53.27349],[63.72699,53.27337],[63.72644,53.27307],[63.72619,53.27281],[63.72616,53.27264],[63.72625,53.27236],[63.72637,53.27224],[63.72766,53.27182],[63.72761,53.27171],[63.7266,53.27175],[63.72579,53.27169],[63.72518,53.27142],[63.72465,53.2707],[63.72425,53.27053],[63.72406,53.27053],[63.72394,53.27058],[63.72382,53.27072],[63.72393,53.27101],[63.7238,53.27135],[63.72303,53.27206],[63.72282,53.27238],[63.72264,53.27246],[63.72211,53.27255],[63.7214,53.27241],[63.72098,53.27211],[63.71993,53.27155],[63.71973,53.27119],[63.7198,53.27046],[63.71988,53.27033],[63.72017,53.27012],[63.72075,53.26994],[63.72104,53.26993],[63.72136,53.27001],[63.72146,53.26995],[63.72157,53.26976],[63.72154,53.26966],[63.72146,53.2696],[63.72133,53.26958],[63.72,53.26978],[63.71931,53.26969],[63.71846,53.26946],[63.7178,53.26912],[63.71655,53.26782],[63.71647,53.26751],[63.7165,53.26739],[63.71667,53.26719],[63.71712,53.26689],[63.71734,53.2666],[63.71743,53.26597],[63.71769,53.26522],[63.71815,53.26482],[63.71923,53.26431],[63.71981,53.26415],[63.71994,53.26394],[63.71999,53.26371],[63.71993,53.26338],[63.71936,53.26232],[63.71916,53.26208],[63.71889,53.26189],[63.71861,53.26176],[63.71808,53.26162],[63.71765,53.26138],[63.71734,53.261],[63.71731,53.26088],[63.71739,53.2605],[63.71728,53.25992],[63.71721,53.25977],[63.71695,53.25946],[63.71677,53.25911],[63.71689,53.25882],[63.71726,53.25861],[63.71754,53.25858],[63.71827,53.25865],[63.71842,53.25847],[63.7186,53.25811],[63.71891,53.25785],[63.719,53.25726],[63.71871,53.25667],[63.71778,53.2559],[63.7168,53.25517],[63.71627,53.25421],[63.71632,53.25342],[63.71659,53.25305],[63.71671,53.25261],[63.71698,53.25226],[63.7167,53.25196],[63.71637,53.25185],[63.71598,53.25159],[63.71565,53.25108],[63.71577,53.25063],[63.71605,53.25035],[63.71644,53.25015],[63.71643,53.25001],[63.7163,53.24984],[63.71533,53.24954],[63.71477,53.24932],[63.71464,53.24918],[63.7146,53.24887],[63.71359,53.2489],[63.71305,53.24882],[63.71255,53.24867],[63.71214,53.24835],[63.71207,53.24805],[63.7119,53.24786],[63.71158,53.24777],[63.71087,53.24771],[63.71041,53.24752],[63.70996,53.24701],[63.70979,53.24667],[63.7092,53.24602],[63.70913,53.24576],[63.70914,53.24547],[63.70943,53.24479],[63.70938,53.24431],[63.70872,53.2442],[63.70743,53.24422],[63.70678,53.24398],[63.7065,53.24374],[63.70643,53.24363],[63.7057,53.24364],[63.70522,53.24342],[63.70511,53.24333],[63.70476,53.24267],[63.7039,53.2416],[63.70329,53.24112],[63.70299,53.24068],[63.70298,53.24033],[63.70231,53.2398],[63.70229,53.23944],[63.70265,53.23897],[63.70281,53.2385],[63.70274,53.23828],[63.70252,53.23807],[63.70202,53.23772],[63.70189,53.23739],[63.70191,53.23694],[63.70228,53.23649],[63.7028,53.23618],[63.70366,53.23586],[63.70431,53.23549],[63.70461,53.23509],[63.70498,53.23479],[63.70513,53.23456],[63.70523,53.23391],[63.70569,53.23318],[63.70586,53.23303],[63.70587,53.23291],[63.7058,53.23271],[63.70562,53.2325],[63.70544,53.23239],[63.70385,53.2321],[63.70335,53.23187],[63.7029,53.23157],[63.70164,53.23122],[63.70131,53.23099],[63.69999,53.23038],[63.69986,53.23026],[63.69971,53.22989],[63.69991,53.22948],[63.7003,53.22927],[63.70028,53.22907],[63.69991,53.22886],[63.69906,53.22853],[63.69869,53.22811],[63.69847,53.22808],[63.69831,53.22808],[63.69757,53.2285],[63.69748,53.22867],[63.69739,53.2294],[63.69795,53.23056],[63.69827,53.231],[63.69832,53.23183],[63.69807,53.23231],[63.69823,53.23277],[63.69814,53.23312],[63.69802,53.23324],[63.69762,53.23344],[63.69689,53.23362],[63.6955,53.23357],[63.69388,53.23319],[63.69337,53.23296],[63.69296,53.23291],[63.69259,53.23294],[63.6924,53.23302],[63.6921,53.23337],[63.69191,53.23347],[63.69147,53.23357],[63.69087,53.23356],[63.68879,53.23294],[63.68824,53.23287],[63.68749,53.23288],[63.6869,53.23276],[63.68593,53.23225],[63.68564,53.23186],[63.68579,53.23102],[63.68621,53.23065],[63.68595,53.23037],[63.68522,53.2293],[63.6848,53.22886],[63.6844,53.22858],[63.68351,53.22817],[63.68297,53.22799],[63.68282,53.22788],[63.68256,53.22746],[63.68255,53.22705],[63.68246,53.2267],[63.68215,53.2263],[63.68172,53.22522],[63.68116,53.22462],[63.68004,53.22413],[63.67949,53.22409],[63.67911,53.22447],[63.67859,53.22464],[63.67757,53.22464],[63.67701,53.22475],[63.67638,53.22477],[63.67565,53.22462],[63.6755,53.22455],[63.67437,53.22368],[63.67381,53.22317],[63.67376,53.22263],[63.67392,53.22229],[63.67435,53.22185],[63.67476,53.222],[63.67443,53.22179],[63.67556,53.22121],[63.67566,53.22102],[63.67544,53.22053],[63.67534,53.22012],[63.67565,53.21953],[63.6756,53.21935],[63.67448,53.21857],[63.67437,53.21843],[63.67408,53.2172],[63.67412,53.21708],[63.67451,53.21668],[63.67447,53.21636],[63.67386,53.2159],[63.67359,53.21545],[63.67362,53.21507],[63.67368,53.21497],[63.67384,53.21487],[63.67426,53.21477],[63.67426,53.21472],[63.67411,53.21457],[63.67319,53.21423],[63.67271,53.21386],[63.67226,53.21328],[63.67213,53.21293],[63.67215,53.21282],[63.67243,53.21236],[63.67235,53.21186],[63.67188,53.21147],[63.67189,53.21114],[63.67163,53.21094],[63.67103,53.21061],[63.67059,53.21016],[63.66884,53.21006],[63.66835,53.21009],[63.66686,53.21022],[63.66602,53.21045],[63.66513,53.21062],[63.66494,53.21069],[63.66465,53.21097],[63.66484,53.21117],[63.66491,53.21154],[63.66484,53.21167],[63.66448,53.21199],[63.66301,53.21254],[63.66192,53.21262],[63.66158,53.21257],[63.66157,53.21277],[63.66145,53.21301],[63.66033,53.21306],[63.65959,53.213],[63.65893,53.21263],[63.65795,53.21168],[63.65649,53.21115],[63.65377,53.21114],[63.65286,53.21088],[63.65175,53.21009],[63.65026,53.2087],[63.64972,53.20789],[63.64921,53.20753],[63.64908,53.20756],[63.6484,53.20698],[63.64845,53.20678],[63.64928,53.20659],[63.64938,53.20647],[63.6493,53.20637],[63.64912,53.20632],[63.64894,53.20633],[63.64815,53.20607],[63.64807,53.20585],[63.64822,53.20536],[63.64847,53.20313],[63.64852,53.20253],[63.64845,53.20212],[63.64862,53.20174],[63.649,53.20133],[63.64926,53.20081],[63.64928,53.20059],[63.64919,53.2],[63.64901,53.19949],[63.64874,53.19916],[63.64868,53.19863],[63.64855,53.19835],[63.64804,53.19779],[63.64792,53.19751],[63.64704,53.19663],[63.64704,53.19645],[63.64664,53.1961],[63.64672,53.19601],[63.64653,53.196],[63.6447,53.19477],[63.64381,53.19447],[63.64271,53.19362],[63.6421,53.1924],[63.64224,53.19184],[63.64222,53.19159],[63.64229,53.19146],[63.6422,53.19117],[63.64203,53.191],[63.64217,53.19094],[63.64231,53.19103],[63.64258,53.19102],[63.64314,53.19018],[63.64439,53.18911],[63.64453,53.18775],[63.64424,53.18716],[63.64294,53.18527],[63.64228,53.18479],[63.64084,53.18445],[63.64045,53.18448],[63.64022,53.18442],[63.6401,53.18434],[63.6403,53.18433],[63.63961,53.18417],[63.63898,53.18429],[63.63646,53.18519],[63.63417,53.18569],[63.63185,53.18569],[63.62909,53.18491],[63.62902,53.18498],[63.62896,53.18497],[63.62897,53.18486],[63.6276,53.1846],[63.62688,53.18404],[63.62649,53.18313],[63.62552,53.18249],[63.62325,53.18128],[63.62192,53.18037],[63.62139,53.17974],[63.621,53.17901],[63.62118,53.17833],[63.6223,53.17747],[63.6222,53.17707],[63.6223,53.17595],[63.62189,53.17472],[63.62087,53.17345],[63.62026,53.17294],[63.6192,53.17094],[63.61889,53.17],[63.61939,53.16906],[63.61999,53.16867],[63.61994,53.16862],[63.61897,53.16759],[63.61845,53.1673],[63.61822,53.16723],[63.61786,53.16716],[63.61756,53.16723],[63.61738,53.16743],[63.61745,53.16759],[63.61736,53.16778],[63.61677,53.16797],[63.61662,53.16818],[63.61641,53.16817],[63.61606,53.168],[63.61606,53.16784],[63.61624,53.16786],[63.6163,53.16775],[63.61589,53.16774],[63.61531,53.16759],[63.6151,53.16764],[63.61504,53.16774],[63.61524,53.16795],[63.61534,53.16796],[63.61553,53.16811],[63.61581,53.16819],[63.61583,53.1683],[63.61574,53.16843],[63.61581,53.16871],[63.61562,53.16884],[63.61559,53.16902],[63.61583,53.16907],[63.61581,53.16918],[63.61593,53.16914],[63.61642,53.16936],[63.6165,53.16953],[63.61637,53.16982],[63.61656,53.17012],[63.61612,53.17036],[63.61597,53.17064],[63.6158,53.17078],[63.61636,53.17095],[63.61653,53.17111],[63.61688,53.17125],[63.61716,53.17129],[63.61753,53.17119],[63.61766,53.17106],[63.61767,53.17094],[63.6176,53.17082],[63.61718,53.17051],[63.61769,53.17032],[63.61804,53.17059],[63.61815,53.17109],[63.61837,53.17153],[63.61851,53.17169],[63.61848,53.17189],[63.61816,53.17229],[63.61755,53.17254],[63.61669,53.17273],[63.61634,53.17273],[63.61593,53.17256],[63.61555,53.17233],[63.61457,53.17157],[63.61443,53.17121],[63.61455,53.17082],[63.61469,53.1706],[63.6147,53.17044],[63.61456,53.17023],[63.61457,53.17005],[63.61428,53.16981],[63.61412,53.16979],[63.61366,53.16992],[63.61309,53.16989],[63.61284,53.16974],[63.61273,53.16929],[63.61228,53.16899],[63.61201,53.16834],[63.61173,53.16824],[63.61142,53.16773],[63.61138,53.16735],[63.6112,53.1672],[63.61118,53.16708],[63.61095,53.16692],[63.61085,53.16674],[63.61014,53.16622],[63.61014,53.16605],[63.61025,53.16588],[63.6111,53.16557],[63.61148,53.16553],[63.61237,53.16533],[63.61299,53.16533],[63.61361,53.1656],[63.61409,53.16616],[63.61453,53.16636],[63.6149,53.16642],[63.61528,53.16628],[63.61563,53.16628],[63.61583,53.16625],[63.61622,53.16607],[63.61551,53.16512],[63.61511,53.16525],[63.61449,53.16534],[63.61423,53.16552],[63.61368,53.1655],[63.61337,53.16532],[63.61327,53.16507],[63.61266,53.16466],[63.61204,53.16484],[63.61165,53.16474],[63.6115,53.16484],[63.61073,53.16507],[63.61086,53.16413],[63.61061,53.1628],[63.6101,53.16167],[63.60978,53.16156],[63.60978,53.16143],[63.61005,53.16126],[63.61011,53.16093],[63.61028,53.16057],[63.61015,53.16005],[63.61035,53.15981],[63.61034,53.15922],[63.6106,53.15915],[63.61069,53.15931],[63.61065,53.16023],[63.61099,53.16127],[63.61102,53.16162],[63.61138,53.16219],[63.61161,53.16286],[63.6117,53.16289],[63.61174,53.16269],[63.61201,53.16219],[63.61317,53.16113],[63.61388,53.16115],[63.61399,53.16105],[63.61415,53.16103],[63.61468,53.16079],[63.61487,53.16059],[63.61512,53.16051],[63.61524,53.16043],[63.61538,53.16019],[63.61577,53.15978],[63.61597,53.15924],[63.61601,53.15874],[63.61592,53.15839],[63.61556,53.15798],[63.61491,53.15747],[63.61285,53.15663],[63.61065,53.15563],[63.6101,53.15533],[63.60964,53.15473],[63.60946,53.15411],[63.60827,53.15278],[63.60816,53.15257],[63.60776,53.15212],[63.60763,53.15181],[63.60785,53.15188],[63.60752,53.15139],[63.60594,53.15053],[63.60504,53.14961],[63.60487,53.14908],[63.60485,53.14827],[63.60415,53.14659],[63.60394,53.14647],[63.60301,53.14629],[63.60266,53.14633],[63.60225,53.14614],[63.60141,53.14597],[63.60102,53.146],[63.59939,53.14629],[63.59896,53.14631],[63.59861,53.14636],[63.59616,53.14642],[63.5943,53.14637],[63.59299,53.14601],[63.59166,53.1454],[63.59067,53.14452],[63.59032,53.14427],[63.58998,53.1439],[63.5894,53.14338],[63.58931,53.14336],[63.58934,53.14333],[63.5868,53.14106],[63.5865,53.14093],[63.58606,53.1404],[63.58579,53.14016],[63.58566,53.14008],[63.5855,53.14015],[63.58359,53.13859],[63.58349,53.13829],[63.5826,53.13769],[63.58182,53.13677],[63.58153,53.13606],[63.58081,53.13528],[63.5809,53.13486],[63.58025,53.13456],[63.58044,53.13436],[63.58138,53.13431],[63.58121,53.13292],[63.58031,53.13233],[63.57992,53.13184],[63.5792,53.13107],[63.57817,53.13038],[63.57802,53.12903],[63.5782,53.12878],[63.57749,53.12619],[63.57702,53.12471],[63.5756,53.12291],[63.57473,53.12198],[63.57465,53.12141],[63.57492,53.12031],[63.57508,53.11935],[63.57601,53.11765],[63.57418,53.11599],[63.57414,53.11555],[63.57452,53.1152],[63.57367,53.11389],[63.57396,53.11319],[63.57381,53.11274],[63.57298,53.11203],[63.57236,53.11174],[63.57125,53.11095],[63.57042,53.11049],[63.57011,53.1099],[63.56868,53.10897],[63.56894,53.10886],[63.57026,53.10982],[63.57065,53.10988],[63.5708,53.10972],[63.56979,53.10905],[63.56958,53.1083],[63.56975,53.10647],[63.56941,53.10572],[63.57009,53.1041],[63.56949,53.10379],[63.56971,53.10291],[63.56889,53.10186],[63.56876,53.10062],[63.56923,53.09933],[63.56902,53.09907],[63.57001,53.09923],[63.56992,53.10054],[63.57044,53.10134],[63.57069,53.10266],[63.57151,53.10242],[63.57149,53.10164],[63.5717,53.10164],[63.57196,53.10262],[63.57329,53.10251],[63.57344,53.10266],[63.57331,53.10315],[63.57357,53.1032],[63.57327,53.10364],[63.57234,53.10452],[63.57159,53.10449],[63.57189,53.10467],[63.57095,53.10536],[63.5711,53.10581],[63.57211,53.10528],[63.57204,53.10478],[63.57282,53.10504],[63.57359,53.10476],[63.57599,53.10476],[63.57666,53.10446],[63.57704,53.10382]],[[63.58818,53.131],[63.5891,53.13032],[63.58979,53.12908],[63.58955,53.12725],[63.59033,53.12696],[63.59058,53.12691],[63.59078,53.12679],[63.58996,53.12574],[63.58831,53.12498],[63.58728,53.12469],[63.58462,53.12459],[63.58316,53.12428],[63.58028,53.12317],[63.5785,53.12174],[63.57683,53.1194],[63.57619,53.11922],[63.57543,53.11944],[63.57533,53.12004],[63.5751,53.12053],[63.57509,53.12111],[63.57486,53.12132],[63.57493,53.12196],[63.57606,53.12313],[63.57718,53.12469],[63.57856,53.1289],[63.57897,53.12932],[63.57915,53.12995],[63.57919,53.13064],[63.57986,53.13118],[63.58026,53.13168],[63.58159,53.13297],[63.58194,53.13459],[63.58194,53.13529],[63.58247,53.13571],[63.5832,53.13605],[63.58464,53.13341],[63.58455,53.13277],[63.58382,53.13186],[63.58417,53.13055],[63.58365,53.13029],[63.58468,53.12885],[63.58513,53.12868],[63.58541,53.12883],[63.58713,53.13076],[63.58764,53.13094],[63.58818,53.131]],[[63.57796,53.11693],[63.5774,53.11585],[63.57759,53.11581],[63.57789,53.11607],[63.57858,53.1174],[63.57871,53.11812],[63.57925,53.11823],[63.57957,53.11715],[63.57932,53.11605],[63.57833,53.11474],[63.57649,53.11328],[63.57524,53.11206],[63.57492,53.11182],[63.57417,53.11153],[63.57316,53.11127],[63.57124,53.11027],[63.57163,53.11085],[63.5735,53.11207],[63.57415,53.11221],[63.57418,53.11376],[63.57428,53.11427],[63.57516,53.11476],[63.57558,53.11468],[63.57599,53.11424],[63.57611,53.11489],[63.57513,53.11501],[63.57565,53.11647],[63.57631,53.11643],[63.57708,53.11659],[63.57707,53.1174],[63.57747,53.11801],[63.57747,53.11886],[63.57819,53.11891],[63.5785,53.11865],[63.57796,53.11693]],[[63.57808,53.10241],[63.57786,53.10245],[63.57801,53.10298],[63.57763,53.10442],[63.57831,53.10425],[63.57879,53.10393],[63.57913,53.10357],[63.57909,53.10323],[63.5784,53.10259],[63.57808,53.10241]],[[63.57477,53.1107],[63.57462,53.1106],[63.57421,53.11054],[63.57375,53.11032],[63.57353,53.11042],[63.574,53.11066],[63.57444,53.11074],[63.57477,53.1107]],[[63.61117,53.15453],[63.61078,53.15433],[63.61064,53.15456],[63.61092,53.15501],[63.61215,53.15558],[63.61218,53.15554],[63.61181,53.15522],[63.61117,53.15453]],[[63.61048,53.15428],[63.61053,53.15449],[63.61059,53.15431],[63.61048,53.15428]],[[63.62073,53.16294],[63.62046,53.16299],[63.62016,53.16321],[63.62028,53.16335],[63.62005,53.16344],[63.61974,53.16345],[63.61922,53.16369],[63.61787,53.16395],[63.61718,53.16427],[63.61663,53.16465],[63.61633,53.1648],[63.61733,53.16615],[63.61802,53.16606],[63.61825,53.16591],[63.61838,53.16592],[63.61875,53.16581],[63.61902,53.16589],[63.61909,53.16613],[63.61893,53.16642],[63.61854,53.16649],[63.61836,53.16662],[63.61859,53.16667],[63.61885,53.16699],[63.61894,53.16702],[63.61906,53.16734],[63.61923,53.16742],[63.61953,53.16769],[63.61994,53.16811],[63.62023,53.16852],[63.62114,53.16798],[63.62277,53.1677],[63.62237,53.16696],[63.62222,53.16697],[63.62223,53.16679],[63.62197,53.16656],[63.6218,53.16615],[63.62139,53.16603],[63.62101,53.16601],[63.62065,53.16609],[63.62015,53.16611],[63.6199,53.16604],[63.61964,53.16583],[63.61941,53.1659],[63.61918,53.1655],[63.61884,53.16554],[63.61863,53.16546],[63.61824,53.16545],[63.61817,53.16529],[63.61932,53.16504],[63.61953,53.16494],[63.62018,53.16478],[63.62055,53.16487],[63.62084,53.16487],[63.62097,53.16478],[63.62133,53.16488],[63.62162,53.16483],[63.62174,53.16494],[63.62176,53.16504],[63.62158,53.16515],[63.62097,53.16515],[63.62079,53.16503],[63.62054,53.16509],[63.62044,53.1653],[63.62053,53.16556],[63.62069,53.16569],[63.62115,53.16581],[63.62137,53.16576],[63.62188,53.16582],[63.62239,53.16551],[63.62235,53.16539],[63.62255,53.16541],[63.62278,53.16528],[63.62175,53.16453],[63.62172,53.16361],[63.62166,53.16346],[63.62156,53.16355],[63.62122,53.16359],[63.62075,53.16347],[63.6207,53.16335],[63.62089,53.16312],[63.62073,53.16294]],[[63.62784,53.18376],[63.62769,53.18364],[63.62775,53.18379],[63.62791,53.18391],[63.62784,53.18376]]]}},{"type":"Feature","properties":{"kind":"water"},"geometry":{"type":"Polygon","coordinates":[[[63.50984,53.2055],[63.51214,53.20398],[63.51617,53.2025],[63.51954,53.20242],[63.52134,53.20275],[63.52367,53.20369],[63.52522,53.20508],[63.52603,53.20643],[63.52611,53.20749],[63.52555,53.20916],[63.5241,53.21113],[63.52268,53.21235],[63.51995,53.21327],[63.51767,53.21354],[63.51645,53.21351],[63.51473,53.21309],[63.51212,53.21144],[63.5107,53.21015],[63.50961,53.20829],[63.50984,53.2055]]]}},{"type":"Feature","properties":{"kind":"water"},"geometry":{"type":"Polygon","coordinates":[[[63.56889,53.30928],[63.56822,53.30842],[63.5686,53.30698],[63.5679,53.30531],[63.56803,53.30429],[63.56889,53.3029],[63.57032,53.30186],[63.57214,53.30142],[63.57419,53.30126],[63.57675,53.30195],[63.57889,53.30314],[63.58007,53.30437],[63.57985,53.30599],[63.57809,53.30806],[63.57352,53.30968],[63.56889,53.30928]]]}},{"type":"Feature","properties":{"kind":"water"},"geometry":{"type":"Polygon","coordinates":[[[63.5237,53.30207],[63.5256,53.30182],[63.52656,53.30128],[63.52859,53.30142],[63.52904,53.3017],[63.52983,53.30177],[63.53018,53.30221],[63.53092,53.30221],[63.53181,53.30344],[63.53176,53.30461],[63.53138,53.30576],[63.53033,53.30671],[63.52825,53.30722],[63.52655,53.30723],[63.52374,53.30625],[63.52067,53.30474],[63.52159,53.30377],[63.52159,53.30298],[63.52083,53.30274],[63.52066,53.302],[63.5237,53.30207]]]}},{"type":"Feature","properties":{"kind":"water"},"geometry":{"type":"Polygon","coordinates":[[[63.58635,53.31524],[63.58819,53.31519],[63.58964,53.3155],[63.59043,53.31578],[63.59137,53.31629],[63.59227,53.31727],[63.59224,53.31823],[63.59178,53.31905],[63.59079,53.31976],[63.58915,53.32023],[63.58809,53.32043],[63.58707,53.32017],[63.5858,53.32006],[63.58492,53.31945],[63.58441,53.3188],[63.58405,53.31787],[63.58412,53.31659],[63.58469,53.31572],[63.58635,53.31524]]]}},{"type":"Feature","properties":{"kind":"water"},"geometry":{"type":"Polygon","coordinates":[[[63.69848,53.17413],[63.69719,53.17361],[63.69438,53.17174],[63.69418,53.1712],[63.69481,53.17029],[63.69409,53.16827],[63.69449,53.16755],[63.69619,53.16741],[63.69989,53.16935],[63.70007,53.17212],[63.69951,53.17373],[63.69848,53.17413]]]}},{"type":"Feature","properties":{"kind":"water"},"geometry":{"type":"Polygon","coordinates":[[[63.75529,53.23509],[63.7555,53.23517],[63.75548,53.23553],[63.75526,53.23595],[63.75468,53.23653],[63.75454,53.23662],[63.75436,53.23665],[63.75387,53.23646],[63.7535,53.2364],[63.75097,53.2346],[63.7503,53.23404],[63.75017,53.23384],[63.74977,53.23347],[63.74929,53.23313],[63.74894,53.23274],[63.74851,53.2324],[63.74843,53.23219],[63.74854,53.23156],[63.74834,53.23137],[63.74829,53.23115],[63.74834,53.23103],[63.7489,53.2307],[63.74889,53.23054],[63.74908,53.23063],[63.75028,53.2301],[63.75082,53.22993],[63.75107,53.2299],[63.75125,53.22991],[63.75227,53.23012],[63.75256,53.23021],[63.75291,53.23024],[63.753,53.23033],[63.75323,53.23041],[63.75359,53.23077],[63.75358,53.23124],[63.75383,53.23152],[63.75379,53.23175],[63.75433,53.23245],[63.7543,53.23268],[63.75457,53.23294],[63.7546,53.2331],[63.75484,53.23344],[63.75482,53.23359],[63.75492,53.23374],[63.75511,53.23384],[63.75519,53.23408],[63.7553,53.23411],[63.7553,53.23427],[63.7554,53.23432],[63.75537,53.23457],[63.75543,53.23463],[63.75534,53.2347],[63.75529,53.23509]]]}},{"type":"Feature","properties":{"kind":"water"},"geometry":{"type":"Polygon","coordinates":[[[63.80397,53.15194],[63.80515,53.15288],[63.80522,53.15403],[63.80366,53.15506],[63.80173,53.15565],[63.80194,53.15615],[63.80269,53.15699],[63.80271,53.15775],[63.80153,53.15815],[63.79935,53.15767],[63.79855,53.15619],[63.79902,53.15319],[63.80111,53.15165],[63.80397,53.15194]]]}},{"type":"Feature","properties":{"kind":"water"},"geometry":{"type":"Polygon","coordinates":[[[63.5317,53.31242],[63.53241,53.31254],[63.53346,53.31287],[63.5342,53.31287],[63.53441,53.31311],[63.53467,53.31353],[63.53544,53.31372],[63.5357,53.31448],[63.53567,53.31526],[63.53517,53.31613],[63.53425,53.31679],[63.53283,53.31712],[63.53141,53.31698],[63.53057,53.31646],[63.52896,53.31577],[63.52814,53.31495],[63.5282,53.31468],[63.52799,53.31419],[63.52841,53.31375],[63.52849,53.31328],[63.52941,53.3128],[63.52999,53.31278],[63.53078,53.31267],[63.5317,53.31242]]]}},{"type":"Feature","properties":{"kind":"water"},"geometry":{"type":"Polygon","coordinates":[[[63.74473,53.21148],[63.7458,53.21245],[63.74765,53.21316],[63.7495,53.21408],[63.75172,53.21534],[63.75274,53.21543],[63.75237,53.21595],[63.75411,53.21704],[63.75542,53.21733],[63.75379,53.2175],[63.75193,53.2165],[63.74444,53.21275],[63.74285,53.21138],[63.74285,53.20976],[63.74319,53.20933],[63.74418,53.21053],[63.74722,53.21075],[63.74665,53.21126],[63.74473,53.21148]]]}},{"type":"Feature","properties":{"kind":"water"},"geometry":{"type":"Polygon","coordinates":[[[63.78906,53.30781],[63.78921,53.30772],[63.78934,53.30772],[63.78949,53.30781],[63.78953,53.3081],[63.78972,53.30821],[63.78981,53.30821],[63.79,53.30807],[63.78991,53.30751],[63.78974,53.3073],[63.78912,53.30701],[63.78886,53.30693],[63.78811,53.30643],[63.78803,53.30622],[63.78813,53.30616],[63.78843,53.30619],[63.78869,53.30629],[63.79017,53.30717],[63.7903,53.30745],[63.7903,53.30776],[63.79056,53.30817],[63.79047,53.30869],[63.7906,53.30892],[63.79064,53.30933],[63.79077,53.30948],[63.79101,53.3096],[63.79131,53.30957],[63.79167,53.30935],[63.79167,53.30925],[63.79159,53.30917],[63.79165,53.30906],[63.79178,53.30908],[63.79212,53.30931],[63.7923,53.30934],[63.79253,53.30953],[63.793,53.30976],[63.79318,53.3101],[63.79361,53.31035],[63.79416,53.31097],[63.79438,53.31133],[63.79442,53.31161],[63.79468,53.31202],[63.79476,53.31233],[63.79476,53.31271],[63.79485,53.31284],[63.79481,53.31376],[63.79459,53.3143],[63.79421,53.31474],[63.79391,53.3152],[63.79391,53.31535],[63.79399,53.31548],[63.79395,53.31579],[63.79376,53.3159],[63.79354,53.31593],[63.79335,53.31604],[63.79339,53.31625],[63.79333,53.31629],[63.79322,53.31625],[63.793,53.31597],[63.793,53.31586],[63.79326,53.31571],[63.79335,53.31561],[63.79335,53.31545],[63.79324,53.31539],[63.79307,53.31539],[63.793,53.31535],[63.793,53.3152],[63.79318,53.31499],[63.79322,53.31479],[63.79318,53.31428],[63.79333,53.31413],[63.79346,53.31411],[63.79371,53.31416],[63.79391,53.31402],[63.79386,53.31328],[63.79403,53.31263],[63.79386,53.3123],[63.79382,53.31204],[63.79352,53.31169],[63.79279,53.31104],[63.7924,53.31076],[63.7918,53.31043],[63.79172,53.3103],[63.79144,53.31016],[63.79133,53.31022],[63.79155,53.3104],[63.79144,53.31047],[63.79131,53.31047],[63.79105,53.31039],[63.79026,53.30999],[63.78991,53.30961],[63.78949,53.30935],[63.7894,53.30925],[63.78944,53.30884],[63.78927,53.30858],[63.78927,53.3081],[63.78906,53.30781]]]}},{"type":"Feature","properties":{"kind":"water"},"geometry":{"type":"Polygon","coordinates":[[[63.79499,53.11926],[63.79211,53.1191],[63.79044,53.11828],[63.79098,53.11735],[63.79222,53.1171],[63.79372,53.11711],[63.79557,53.11692],[63.79623,53.11702],[63.79671,53.11778],[63.79656,53.11853],[63.79499,53.11926]]]}},{"type":"Feature","properties":{"kind":"water"},"geometry":{"type":"Polygon","coordinates":[[[63.67831,53.19995],[63.67906,53.20043],[63.6795,53.20055],[63.68088,53.20053],[63.68168,53.20092],[63.68165,53.20123],[63.68218,53.20153],[63.68257,53.20224],[63.68432,53.20406],[63.68336,53.20454],[63.68244,53.20374],[63.68134,53.20292],[63.68022,53.20242],[63.67841,53.20212],[63.67837,53.20201],[63.67869,53.20171],[63.67902,53.2012],[63.67901,53.20091],[63.67801,53.20014],[63.6773,53.19927],[63.67752,53.1992],[63.67794,53.1995],[63.67831,53.19995]]]}},{"type":"Feature","properties":{"kind":"water"},"geometry":{"type":"Polygon","coordinates":[[[63.77632,53.28548],[63.7788,53.28628],[63.78037,53.28712],[63.78163,53.28805],[63.78117,53.28822],[63.77969,53.2874],[63.77773,53.28649],[63.77335,53.28507],[63.77026,53.28433],[63.76775,53.28317],[63.76599,53.28279],[63.7659,53.28255],[63.76639,53.2825],[63.76724,53.28252],[63.76919,53.28293],[63.77034,53.28362],[63.77143,53.28393],[63.77339,53.2844],[63.7752,53.28502],[63.77632,53.28548]]]}},{"type":"Feature","properties":{"kind":"water"},"geometry":{"type":"Polygon","coordinates":[[[63.80304,53.14825],[63.80424,53.14852],[63.80359,53.1491],[63.80068,53.1482],[63.79879,53.14793],[63.79847,53.14664],[63.79851,53.14516],[63.79947,53.14502],[63.80057,53.14564],[63.80147,53.14705],[63.80304,53.14825]]]}},{"type":"Feature","properties":{"kind":"water"},"geometry":{"type":"Polygon","coordinates":[[[63.61444,53.14407],[63.6127,53.14321],[63.61158,53.14241],[63.61043,53.14235],[63.60748,53.14203],[63.6057,53.14062],[63.60609,53.13993],[63.60642,53.13998],[63.60642,53.14058],[63.6073,53.14125],[63.61005,53.14173],[63.61179,53.14192],[63.61441,53.14304],[63.61652,53.14473],[63.61768,53.14587],[63.61794,53.14631],[63.6177,53.14651],[63.61724,53.14639],[63.61444,53.14407]]]}},{"type":"Feature","properties":{"kind":"water"},"geometry":{"type":"Polygon","coordinates":[[[63.62966,53.15941],[63.62993,53.15948],[63.63025,53.15987],[63.63035,53.16011],[63.63031,53.16036],[63.63016,53.16059],[63.62947,53.16073],[63.62905,53.16069],[63.62841,53.16045],[63.62788,53.16063],[63.62774,53.16088],[63.6276,53.16095],[63.62651,53.16085],[63.62607,53.16075],[63.6253,53.16074],[63.62503,53.16061],[63.62493,53.16043],[63.62406,53.15982],[63.6238,53.1594],[63.62382,53.15922],[63.62402,53.15906],[63.62426,53.159],[63.62442,53.15891],[63.62442,53.15882],[63.62386,53.15874],[63.62377,53.15861],[63.6239,53.15847],[63.62423,53.15835],[63.62474,53.15833],[63.62539,53.15842],[63.62576,53.15862],[63.62598,53.15896],[63.62601,53.15962],[63.62609,53.15977],[63.62624,53.15982],[63.62639,53.1598],[63.62677,53.15961],[63.62695,53.15959],[63.62722,53.15962],[63.62755,53.15952],[63.62781,53.15925],[63.6285,53.15912],[63.62896,53.15922],[63.62914,53.15941],[63.6295,53.15946],[63.62966,53.15941]],[[63.62744,53.16029],[63.62757,53.16022],[63.62739,53.16014],[63.62732,53.16019],[63.62735,53.16028],[63.62744,53.16029]],[[63.62506,53.15919],[63.62499,53.15929],[63.62502,53.15937],[63.62518,53.15941],[63.62533,53.1594],[63.62542,53.15935],[63.62544,53.15923],[63.62552,53.1592],[63.62549,53.15915],[63.62528,53.15913],[63.62506,53.15919]]]}},{"type":"Feature","properties":{"kind":"water"},"geometry":{"type":"Polygon","coordinates":[[[63.6396,53.17986],[63.63853,53.17943],[63.63809,53.1796],[63.63724,53.17948],[63.63655,53.17931],[63.63488,53.1797],[63.63408,53.17979],[63.63293,53.17957],[63.63215,53.17926],[63.63147,53.17865],[63.63132,53.17846],[63.6316,53.17851],[63.63036,53.17718],[63.62974,53.17636],[63.62986,53.17626],[63.62949,53.17584],[63.63003,53.17592],[63.63112,53.17703],[63.63254,53.17817],[63.63344,53.17931],[63.63412,53.17948],[63.63496,53.17941],[63.63612,53.17923],[63.63657,53.17908],[63.63629,53.17895],[63.63647,53.17888],[63.63773,53.17888],[63.63852,53.17911],[63.63871,53.17932],[63.64041,53.1798],[63.64096,53.17978],[63.64135,53.17984],[63.64172,53.18002],[63.6421,53.18038],[63.64226,53.18101],[63.64193,53.18156],[63.64176,53.18152],[63.64203,53.18087],[63.6418,53.18045],[63.64125,53.18048],[63.64127,53.18126],[63.64097,53.18152],[63.64065,53.18152],[63.64007,53.18127],[63.64007,53.18099],[63.64078,53.18027],[63.63938,53.18013],[63.63951,53.18002],[63.63784,53.17991],[63.63784,53.17982],[63.6396,53.17986]]]}},{"type":"Feature","properties":{"kind":"water"},"geometry":{"type":"Polygon","coordinates":[[[63.79973,53.11956],[63.79864,53.11925],[63.79885,53.11771],[63.79795,53.1172],[63.79791,53.11632],[63.79917,53.11592],[63.80083,53.11683],[63.80117,53.11797],[63.80119,53.11905],[63.79973,53.11956]]]}},{"type":"Feature","properties":{"kind":"water"},"geometry":{"type":"Polygon","coordinates":[[[63.76733,53.13075],[63.76398,53.12999],[63.76274,53.12888],[63.76314,53.12812],[63.76399,53.12798],[63.76491,53.12812],[63.76638,53.12878],[63.76761,53.12986],[63.76733,53.13075]]]}},{"type":"Feature","properties":{"kind":"water"},"geometry":{"type":"Polygon","coordinates":[[[63.6948,53.15395],[63.69431,53.15363],[63.69058,53.15004],[63.69148,53.14994],[63.69766,53.15568],[63.69577,53.15651],[63.695,53.15551],[63.69641,53.15488],[63.69607,53.15462],[63.69551,53.15468],[63.69472,53.15425],[63.6948,53.15395]]]}},{"type":"Feature","properties":{"kind":"water"},"geometry":{"type":"Polygon","coordinates":[[[63.79668,53.13718],[63.79819,53.13689],[63.80033,53.13716],[63.80186,53.13659],[63.80248,53.13689],[63.80263,53.1374],[63.7999,53.13888],[63.79786,53.13834],[63.79668,53.13718]]]}},{"type":"Feature","properties":{"kind":"water"},"geometry":{"type":"Polygon","coordinates":[[[63.59365,53.13647],[63.59521,53.13705],[63.59799,53.13776],[63.59984,53.13869],[63.60031,53.13879],[63.60086,53.13898],[63.60113,53.1398],[63.60059,53.13998],[63.60028,53.1408],[63.59934,53.14167],[63.59895,53.14244],[63.59905,53.14296],[63.59957,53.14372],[63.60019,53.14428],[63.60081,53.14446],[63.60144,53.14484],[63.60095,53.14505],[63.60085,53.14484],[63.59997,53.14461],[63.59905,53.14401],[63.59856,53.14319],[63.59847,53.14259],[63.59862,53.14197],[63.59907,53.1415],[63.59921,53.14117],[63.59959,53.14077],[63.59998,53.13995],[63.60063,53.13946],[63.60054,53.1392],[63.59957,53.13889],[63.59831,53.13827],[63.59514,53.13724],[63.59147,53.13635],[63.59182,53.13604],[63.59365,53.13647]]]}},{"type":"Feature","properties":{"kind":"water"},"geometry":{"type":"Polygon","coordinates":[[[63.5654,53.22127],[63.56533,53.22138],[63.56501,53.2215],[63.56485,53.22153],[63.56427,53.22131],[63.56408,53.22136],[63.56376,53.22161],[63.56352,53.2216],[63.56324,53.22155],[63.56218,53.22103],[63.56106,53.22075],[63.56096,53.22063],[63.561,53.22052],[63.56115,53.2204],[63.56195,53.22008],[63.56234,53.22009],[63.56329,53.21984],[63.5635,53.21973],[63.56372,53.21971],[63.56446,53.21982],[63.56476,53.21983],[63.56541,53.21973],[63.5657,53.21976],[63.5661,53.2201],[63.56625,53.22053],[63.56623,53.22062],[63.56592,53.22072],[63.56588,53.22082],[63.56593,53.22111],[63.5654,53.22127]]]}},{"type":"Feature","properties":{"kind":"water"},"geometry":{"type":"Polygon","coordinates":[[[63.77632,53.12749],[63.77636,53.12656],[63.77561,53.12572],[63.77604,53.12507],[63.77675,53.12504],[63.77784,53.12568],[63.77761,53.1271],[63.77819,53.12772],[63.77598,53.12876],[63.7739,53.12835],[63.77632,53.12749]]]}},{"type":"Feature","properties":{"kind":"water"},"geometry":{"type":"Polygon","coordinates":[[[63.65645,53.18633],[63.65544,53.18638],[63.65431,53.1861],[63.65339,53.18592],[63.65272,53.18574],[63.65205,53.18547],[63.65141,53.18514],[63.65099,53.18465],[63.6507,53.1842],[63.6507,53.18379],[63.65081,53.1835],[63.65083,53.18319],[63.65046,53.18261],[63.65047,53.18249],[63.65073,53.18241],[63.65106,53.18247],[63.65156,53.18319],[63.65177,53.18389],[63.65201,53.18417],[63.65224,53.18421],[63.6522,53.18435],[63.65248,53.18478],[63.6529,53.18506],[63.6533,53.18515],[63.65351,53.18528],[63.65443,53.18552],[63.65592,53.18569],[63.65682,53.18586],[63.65761,53.18591],[63.65775,53.186],[63.65765,53.18615],[63.65744,53.18623],[63.65645,53.18633]]]}},{"type":"Feature","properties":{"kind":"water"},"geometry":{"type":"Polygon","coordinates":[[[63.70067,53.21176],[63.7009,53.21138],[63.70149,53.21123],[63.70216,53.21131],[63.7029,53.21179],[63.70302,53.21212],[63.7036,53.21254],[63.70412,53.21309],[63.70395,53.21344],[63.70425,53.21363],[63.70465,53.21347],[63.70496,53.2135],[63.70498,53.2141],[63.70488,53.21437],[63.70418,53.21473],[63.70397,53.21469],[63.70067,53.21176]]]}},{"type":"Feature","properties":{"kind":"water"},"geometry":{"type":"Polygon","coordinates":[[[63.78428,53.15448],[63.78289,53.1552],[63.78162,53.15465],[63.78055,53.15393],[63.77995,53.15319],[63.78076,53.15254],[63.78169,53.15257],[63.78274,53.1535],[63.78405,53.15396],[63.78428,53.15448]]]}},{"type":"Feature","properties":{"kind":"water"},"geometry":{"type":"Polygon","coordinates":[[[63.65114,53.19643],[63.65115,53.19656],[63.65106,53.19662],[63.65093,53.19664],[63.65065,53.19654],[63.65046,53.19654],[63.65026,53.1964],[63.65014,53.19637],[63.65002,53.19639],[63.65002,53.1965],[63.65032,53.19665],[63.65025,53.19672],[63.65006,53.1967],[63.64983,53.19667],[63.64963,53.19654],[63.64948,53.19627],[63.64925,53.19611],[63.64922,53.19602],[63.64943,53.19602],[63.64957,53.19607],[63.64952,53.19567],[63.64971,53.19564],[63.64989,53.1951],[63.64981,53.19497],[63.64968,53.19492],[63.64947,53.19495],[63.64906,53.19479],[63.64862,53.19455],[63.64847,53.19437],[63.64848,53.19423],[63.64859,53.19411],[63.64863,53.19398],[63.64875,53.19385],[63.64906,53.19371],[63.6492,53.19368],[63.65006,53.19395],[63.6511,53.1939],[63.65133,53.19418],[63.65135,53.19429],[63.65119,53.19437],[63.65128,53.19448],[63.65123,53.19458],[63.65139,53.19484],[63.65125,53.19522],[63.65134,53.1953],[63.65131,53.19554],[63.65145,53.1957],[63.65134,53.19609],[63.65136,53.19621],[63.65114,53.19643]]]}},{"type":"Feature","properties":{"kind":"water"},"geometry":{"type":"Polygon","coordinates":[[[63.76186,53.13217],[63.76098,53.1327],[63.75877,53.1321],[63.75909,53.13279],[63.75757,53.13177],[63.75828,53.13095],[63.7604,53.1308],[63.76117,53.13149],[63.76186,53.13114],[63.76186,53.13217]]]}},{"type":"Feature","properties":{"kind":"water"},"geometry":{"type":"Polygon","coordinates":[[[63.68455,53.20578],[63.68477,53.20575],[63.68486,53.20584],[63.6851,53.20584],[63.68529,53.20577],[63.68557,53.20581],[63.68583,53.20608],[63.68584,53.20664],[63.68569,53.20679],[63.68568,53.20714],[63.68583,53.20738],[63.6856,53.2082],[63.6852,53.20887],[63.68387,53.21051],[63.68344,53.21052],[63.68329,53.21047],[63.68327,53.21029],[63.68352,53.20949],[63.6839,53.2086],[63.68453,53.20791],[63.6847,53.20733],[63.68473,53.20651],[63.68449,53.20592],[63.68455,53.20578]]]}},{"type":"Feature","properties":{"kind":"water"},"geometry":{"type":"Polygon","coordinates":[[[63.79456,53.15076],[63.79349,53.15131],[63.79211,53.15082],[63.79068,53.15077],[63.79061,53.14996],[63.79121,53.14965],[63.79256,53.15023],[63.79598,53.14969],[63.79593,53.15021],[63.79456,53.15076]]]}},{"type":"Feature","properties":{"kind":"water"},"geometry":{"type":"Polygon","coordinates":[[[63.78181,53.14631],[63.78027,53.14738],[63.77903,53.14716],[63.7795,53.14671],[63.77851,53.14584],[63.77864,53.14534],[63.7799,53.14525],[63.78091,53.1457],[63.78173,53.14565],[63.78181,53.14631]]]}},{"type":"Feature","properties":{"kind":"water"},"geometry":{"type":"Polygon","coordinates":[[[63.78428,53.29148],[63.78424,53.29125],[63.78407,53.29099],[63.78394,53.29058],[63.78355,53.28999],[63.78312,53.28955],[63.78209,53.28878],[63.78209,53.28868],[63.78224,53.28859],[63.7825,53.28864],[63.78291,53.28889],[63.78342,53.28935],[63.78364,53.28948],[63.78402,53.28996],[63.78402,53.29007],[63.7842,53.29035],[63.7842,53.2905],[63.78433,53.29071],[63.78433,53.29099],[63.78454,53.29145],[63.7845,53.29166],[63.78463,53.29248],[63.78458,53.29273],[63.78471,53.29335],[63.78467,53.29361],[63.78475,53.29394],[63.78475,53.29437],[63.78484,53.29476],[63.78493,53.29486],[63.78488,53.29517],[63.78501,53.29558],[63.78501,53.29597],[63.78536,53.29632],[63.78557,53.29676],[63.78557,53.29709],[63.78538,53.29741],[63.78516,53.29729],[63.78495,53.29729],[63.7848,53.2972],[63.78471,53.29707],[63.78463,53.29617],[63.78454,53.29609],[63.78445,53.29568],[63.78433,53.29548],[63.78437,53.29368],[63.78428,53.29358],[63.78424,53.29307],[63.78411,53.29263],[63.78411,53.2925],[63.78428,53.2924],[63.78437,53.29225],[63.78433,53.29204],[63.7842,53.29191],[63.78415,53.29168],[63.78415,53.29158],[63.78428,53.29148]]]}},{"type":"Feature","properties":{"kind":"water"},"geometry":{"type":"Polygon","coordinates":[[[63.51923,53.15432],[63.52081,53.15467],[63.52529,53.15795],[63.52526,53.15841],[63.52436,53.15909],[63.52394,53.15894],[63.52427,53.15835],[63.52421,53.15783],[63.52232,53.15625],[63.52036,53.15516],[63.51926,53.15467],[63.51923,53.15432]]]}},{"type":"Feature","properties":{"kind":"water"},"geometry":{"type":"Polygon","coordinates":[[[63.70628,53.22082],[63.70598,53.22075],[63.70549,53.22096],[63.70551,53.22103],[63.70534,53.22098],[63.70517,53.22105],[63.705,53.22095],[63.70457,53.22113],[63.70435,53.22111],[63.70397,53.22118],[63.70332,53.22116],[63.70276,53.22121],[63.7007,53.22123],[63.70062,53.22118],[63.70028,53.22116],[63.70017,53.22109],[63.7001,53.22087],[63.6998,53.22087],[63.69955,53.2208],[63.69907,53.22082],[63.6989,53.22087],[63.69873,53.22085],[63.69869,53.2208],[63.6983,53.22085],[63.69809,53.22075],[63.69787,53.22072],[63.69749,53.22082],[63.69738,53.22073],[63.69779,53.22051],[63.698,53.22046],[63.69903,53.22046],[63.69916,53.22051],[63.6995,53.22051],[63.69963,53.22044],[63.69976,53.22051],[63.70015,53.22051],[63.70023,53.22057],[63.70062,53.22064],[63.70064,53.2206],[63.70055,53.22055],[63.70062,53.22051],[63.70083,53.22062],[63.70109,53.22057],[63.70148,53.22064],[63.70161,53.22057],[63.70173,53.22067],[63.70199,53.22064],[63.70204,53.22072],[63.70246,53.22067],[63.70285,53.22067],[63.70298,53.22072],[63.70315,53.22067],[63.70341,53.22077],[63.70358,53.22075],[63.70371,53.22062],[63.70495,53.22062],[63.70504,53.22067],[63.7056,53.22071],[63.70611,53.22064],[63.70677,53.22068],[63.70684,53.22077],[63.70628,53.22082]]]}},{"type":"Feature","properties":{"kind":"water"},"geometry":{"type":"Polygon","coordinates":[[[63.63395,53.19155],[63.63414,53.19151],[63.63441,53.1916],[63.63452,53.1917],[63.63441,53.19192],[63.63474,53.19234],[63.63466,53.19238],[63.63437,53.19205],[63.63418,53.19201],[63.63412,53.19212],[63.63436,53.19239],[63.63458,53.19277],[63.63407,53.19295],[63.6328,53.19303],[63.6318,53.19295],[63.63169,53.19285],[63.6323,53.19237],[63.6321,53.19191],[63.63189,53.19122],[63.631,53.19063],[63.63098,53.1904],[63.63154,53.19048],[63.63152,53.19073],[63.63188,53.19085],[63.6323,53.19108],[63.63264,53.19146],[63.63278,53.19147],[63.63296,53.19139],[63.63341,53.19145],[63.6328,53.19169],[63.63272,53.19188],[63.63286,53.19192],[63.63329,53.19187],[63.63369,53.19176],[63.63395,53.19155]]]}},{"type":"Feature","properties":{"kind":"water"},"geometry":{"type":"Polygon","coordinates":[[[63.69504,53.22126],[63.69513,53.22128],[63.69525,53.22123],[63.6956,53.22134],[63.69573,53.22134],[63.69594,53.2212],[63.69643,53.22116],[63.69605,53.22132],[63.69586,53.22146],[63.69543,53.22159],[63.69513,53.22154],[63.69483,53.22159],[63.69452,53.22157],[63.69375,53.22172],[63.69335,53.22171],[63.69324,53.22175],[63.69225,53.2217],[63.69212,53.22175],[63.69178,53.22177],[63.69148,53.2217],[63.69088,53.2217],[63.69053,53.22162],[63.69051,53.22155],[63.69068,53.22143],[63.69058,53.22134],[63.69023,53.22126],[63.68978,53.22099],[63.68974,53.22091],[63.68948,53.22081],[63.68953,53.22068],[63.68931,53.22045],[63.6891,53.22032],[63.68897,53.21999],[63.6892,53.21979],[63.68942,53.21979],[63.69004,53.22006],[63.69021,53.22032],[63.69047,53.22048],[63.69051,53.22058],[63.69064,53.22068],[63.69088,53.2208],[63.69143,53.22093],[63.69186,53.22108],[63.69212,53.22108],[63.69218,53.22112],[63.69251,53.22116],[63.69286,53.22139],[63.69307,53.22136],[63.69317,53.22143],[63.69303,53.22146],[63.69349,53.22159],[63.69418,53.22134],[63.69495,53.22134],[63.69504,53.22126]]]}},{"type":"Feature","properties":{"kind":"water"},"geometry":{"type":"Polygon","coordinates":[[[63.79941,53.32232],[63.79928,53.32213],[63.79887,53.32186],[63.79805,53.32146],[63.79745,53.32105],[63.79719,53.32099],[63.79622,53.32093],[63.79592,53.32081],[63.79577,53.32067],[63.79564,53.32074],[63.79563,53.3208],[63.79554,53.32083],[63.79534,53.32078],[63.79519,53.32069],[63.79479,53.32059],[63.79402,53.32013],[63.79362,53.31966],[63.79323,53.31894],[63.7928,53.31852],[63.79276,53.31842],[63.79276,53.31703],[63.79313,53.3165],[63.79319,53.31653],[63.79319,53.31674],[63.79306,53.31685],[63.7931,53.31761],[63.79319,53.31776],[63.79312,53.31801],[63.79336,53.31849],[63.79375,53.31892],[63.7942,53.3193],[63.7942,53.31948],[63.79432,53.31974],[63.79482,53.32001],[63.79516,53.32035],[63.79534,53.32046],[63.79575,53.32054],[63.79607,53.32069],[63.79637,53.32077],[63.79678,53.32077],[63.79745,53.32095],[63.7975,53.3209],[63.79748,53.3208],[63.79725,53.32075],[63.7972,53.32065],[63.79727,53.3206],[63.79745,53.3206],[63.79771,53.32083],[63.79776,53.32102],[63.79813,53.32123],[63.7985,53.32132],[63.79923,53.32165],[63.79954,53.32185],[63.79992,53.32231],[63.79997,53.32244],[63.79985,53.32252],[63.79941,53.32232]]]}},{"type":"Feature","properties":{"kind":"water"},"geometry":{"type":"Polygon","coordinates":[[[63.79117,53.15145],[63.79156,53.15216],[63.79076,53.15223],[63.78963,53.15281],[63.78847,53.15251],[63.78797,53.15178],[63.78928,53.15129],[63.79117,53.15145]]]}},{"type":"Feature","properties":{"kind":"water"},"geometry":{"type":"Polygon","coordinates":[[[63.50109,53.10261],[63.50065,53.10254],[63.49999,53.10216],[63.50009,53.10135],[63.50095,53.10071],[63.50143,53.10065],[63.50228,53.10106],[63.50211,53.10135],[63.50169,53.10178],[63.50165,53.10197],[63.50184,53.10211],[63.5019,53.10229],[63.50149,53.10262],[63.50109,53.10261]]]}},{"type":"Feature","properties":{"kind":"water"},"geometry":{"type":"Polygon","coordinates":[[[63.54964,53.09117],[63.5497,53.09111],[63.5525,53.09111],[63.55171,53.09128],[63.54606,53.09227],[63.54543,53.09222],[63.54531,53.09207],[63.54568,53.09183],[63.54964,53.09117]]]}},{"type":"Feature","properties":{"kind":"water"},"geometry":{"type":"Polygon","coordinates":[[[63.7097,53.22335],[63.70962,53.22291],[63.70951,53.22283],[63.70939,53.22261],[63.70864,53.22221],[63.70828,53.22215],[63.70804,53.22198],[63.70742,53.22181],[63.70735,53.22171],[63.70741,53.22161],[63.70778,53.22145],[63.70812,53.22136],[63.70837,53.22123],[63.70858,53.22126],[63.70845,53.22135],[63.7086,53.22133],[63.70884,53.2216],[63.70878,53.22162],[63.70903,53.22187],[63.7091,53.22202],[63.70929,53.22211],[63.70933,53.22226],[63.70964,53.22238],[63.70991,53.22256],[63.71049,53.22358],[63.71055,53.22404],[63.71043,53.22459],[63.70992,53.2252],[63.70974,53.22532],[63.70967,53.22548],[63.70954,53.22553],[63.70937,53.22544],[63.70944,53.22509],[63.70972,53.22473],[63.71003,53.22456],[63.71011,53.22445],[63.71012,53.22421],[63.71001,53.22411],[63.71004,53.22387],[63.7097,53.22335]]]}},{"type":"Feature","properties":{"kind":"water"},"geometry":{"type":"Polygon","coordinates":[[[63.74647,53.12921],[63.74636,53.129],[63.7467,53.12868],[63.74732,53.12857],[63.74761,53.12876],[63.74761,53.12924],[63.74842,53.12921],[63.74828,53.12958],[63.74763,53.12966],[63.74751,53.13011],[63.74676,53.13023],[63.74589,53.13008],[63.74568,53.12957],[63.74598,53.1292],[63.74647,53.12921]]]}},{"type":"Feature","properties":{"kind":"water"},"geometry":{"type":"Polygon","coordinates":[[[63.7554,53.3023],[63.75539,53.30243],[63.75368,53.30254],[63.75295,53.30252],[63.75202,53.30222],[63.75126,53.30159],[63.75375,53.30165],[63.7554,53.3023]]]}},{"type":"Feature","properties":{"kind":"water"},"geometry":{"type":"Polygon","coordinates":[[[63.76682,53.12705],[63.76862,53.12686],[63.7704,53.12745],[63.76973,53.12764],[63.76918,53.12756],[63.76739,53.128],[63.76669,53.12756],[63.76682,53.12705]]]}},{"type":"Feature","properties":{"kind":"water"},"geometry":{"type":"Polygon","coordinates":[[[63.76369,53.30309],[63.76352,53.30283],[63.76347,53.30265],[63.76304,53.30221],[63.76296,53.30173],[63.763,53.30155],[63.76322,53.30132],[63.76326,53.30116],[63.76377,53.3006],[63.76392,53.30051],[63.76399,53.30062],[63.76386,53.30078],[63.76373,53.30114],[63.7636,53.30188],[63.7639,53.3026],[63.76412,53.30291],[63.76459,53.30332],[63.76459,53.30339],[63.76472,53.30347],[63.7648,53.30362],[63.76543,53.30397],[63.7665,53.30407],[63.76676,53.30415],[63.76729,53.3045],[63.76719,53.30459],[63.76706,53.30459],[63.76628,53.30423],[63.76543,53.30418],[63.76483,53.30402],[63.76459,53.30391],[63.76459,53.30383],[63.76442,53.30375],[63.76369,53.30309]]]}},{"type":"Feature","properties":{"kind":"water"},"geometry":{"type":"Polygon","coordinates":[[[63.73417,53.28389],[63.73401,53.28441],[63.734,53.28491],[63.73429,53.28526],[63.73487,53.28544],[63.73617,53.28564],[63.7362,53.28575],[63.73531,53.28575],[63.73439,53.28563],[63.73373,53.28532],[63.73319,53.28451],[63.73329,53.28387],[63.73327,53.28328],[63.73354,53.28329],[63.73417,53.28389]]]}},{"type":"Feature","properties":{"kind":"water"},"geometry":{"type":"Polygon","coordinates":[[[63.6827,53.21834],[63.68221,53.21838],[63.6819,53.21822],[63.68147,53.21776],[63.68129,53.21724],[63.68141,53.21687],[63.68177,53.21655],[63.68202,53.21652],[63.68217,53.21662],[63.6822,53.21701],[63.68243,53.21738],[63.68306,53.21799],[63.68303,53.21817],[63.6827,53.21834]]]}},{"type":"Feature","properties":{"kind":"water"},"geometry":{"type":"Polygon","coordinates":[[[63.62463,53.15607],[63.62416,53.15644],[63.62365,53.15649],[63.623,53.15496],[63.62398,53.15457],[63.62463,53.15607]]]}},{"type":"Feature","properties":{"kind":"water"},"geometry":{"type":"Polygon","coordinates":[[[63.60287,53.10833],[63.60273,53.10848],[63.60251,53.10857],[63.60254,53.10861],[63.60268,53.10859],[63.60301,53.10886],[63.60301,53.10894],[63.60276,53.10912],[63.60271,53.10932],[63.60251,53.10941],[63.60202,53.10945],[63.60095,53.10979],[63.60078,53.10976],[63.60065,53.10929],[63.60071,53.10911],[63.60083,53.10902],[63.60142,53.10895],[63.60156,53.1088],[63.60189,53.1087],[63.60203,53.10861],[63.60207,53.10849],[63.60214,53.10845],[63.60239,53.10852],[63.60264,53.10844],[63.60279,53.10831],[63.60304,53.10781],[63.60333,53.10753],[63.60308,53.10781],[63.60293,53.10808],[63.60287,53.10833]]]}},{"type":"Feature","properties":{"kind":"water"},"geometry":{"type":"Polygon","coordinates":[[[63.60646,53.15808],[63.60626,53.15812],[63.60553,53.15753],[63.6059,53.15717],[63.60677,53.15717],[63.60692,53.15704],[63.60677,53.15618],[63.60636,53.15555],[63.60671,53.15583],[63.60749,53.15669],[63.60759,53.15714],[63.60731,53.15738],[63.6069,53.15757],[63.60646,53.15808]]]}},{"type":"Feature","properties":{"kind":"water"},"geometry":{"type":"Polygon","coordinates":[[[63.72075,53.18624],[63.71991,53.18615],[63.7199,53.18558],[63.72048,53.18546],[63.72062,53.18532],[63.72193,53.18532],[63.7222,53.18587],[63.72075,53.18624]]]}},{"type":"Feature","properties":{"kind":"water"},"geometry":{"type":"Polygon","coordinates":[[[63.66088,53.21679],[63.66109,53.21679],[63.66161,53.21697],[63.66195,53.21699],[63.66208,53.21707],[63.66281,53.21707],[63.6632,53.21699],[63.66363,53.21699],[63.66401,53.21715],[63.66414,53.21728],[63.66384,53.21717],[63.66328,53.2171],[63.6626,53.21728],[63.66238,53.21725],[63.66208,53.21735],[63.66079,53.21702],[63.66045,53.21687],[63.66006,53.21684],[63.65918,53.21642],[63.65916,53.2163],[63.65869,53.21625],[63.65863,53.21621],[63.65867,53.2159],[63.65848,53.21581],[63.6583,53.21589],[63.65807,53.21585],[63.65845,53.21572],[63.65852,53.21555],[63.65884,53.21577],[63.65908,53.21607],[63.65955,53.21617],[63.65993,53.21645],[63.66019,53.21645],[63.66088,53.21679]]]}},{"type":"Feature","properties":{"kind":"water"},"geometry":{"type":"Polygon","coordinates":[[[63.73386,53.12735],[63.73334,53.12753],[63.73272,53.12711],[63.73308,53.12696],[63.73378,53.12648],[63.73405,53.12642],[63.73482,53.1266],[63.73512,53.12685],[63.73512,53.12694],[63.73498,53.1269],[63.73413,53.12732],[63.73386,53.12735]]]}},{"type":"Feature","properties":{"kind":"water"},"geometry":{"type":"Polygon","coordinates":[[[63.7799,53.29673],[63.77969,53.29648],[63.7796,53.29599],[63.77952,53.29584],[63.77952,53.29543],[63.77943,53.29525],[63.7796,53.29463],[63.77939,53.29432],[63.77939,53.29425],[63.7795,53.29418],[63.77963,53.29418],[63.78008,53.29443],[63.78008,53.29473],[63.77999,53.29491],[63.78012,53.29571],[63.78021,53.29581],[63.78016,53.29612],[63.78025,53.29622],[63.78021,53.29673],[63.78005,53.29682],[63.7799,53.29673]]]}},{"type":"Feature","properties":{"kind":"water"},"geometry":{"type":"Polygon","coordinates":[[[63.59979,53.25625],[63.59897,53.25667],[63.59813,53.25684],[63.59784,53.25685],[63.59682,53.25666],[63.59617,53.25638],[63.59626,53.25627],[63.59767,53.25635],[63.59857,53.25629],[63.59964,53.25611],[63.59979,53.25625]]]}},{"type":"Feature","properties":{"kind":"water"},"geometry":{"type":"Polygon","coordinates":[[[63.78164,53.29913],[63.78179,53.2992],[63.78196,53.2995],[63.78227,53.29966],[63.78239,53.30004],[63.78278,53.30043],[63.78295,53.30053],[63.78317,53.30084],[63.78347,53.30102],[63.78355,53.30115],[63.78402,53.30148],[63.78437,53.30181],[63.78437,53.30199],[63.78426,53.30201],[63.78402,53.30171],[63.78265,53.30079],[63.78205,53.30027],[63.78179,53.29994],[63.78179,53.29984],[63.78141,53.29938],[63.78136,53.29925],[63.78164,53.29913]]]}},{"type":"Feature","properties":{"kind":"water"},"geometry":{"type":"Polygon","coordinates":[[[63.71645,53.18647],[63.71738,53.18546],[63.71865,53.18576],[63.71851,53.18618],[63.7165,53.18653],[63.71645,53.18647]]]}},{"type":"Feature","properties":{"kind":"water"},"geometry":{"type":"Polygon","coordinates":[[[63.75285,53.13064],[63.75188,53.13104],[63.75102,53.13018],[63.75177,53.12986],[63.75235,53.12993],[63.75285,53.13064]]]}},{"type":"Feature","properties":{"kind":"water"},"geometry":{"type":"Polygon","coordinates":[[[63.64577,53.16858],[63.64534,53.16855],[63.64522,53.1686],[63.64518,53.16871],[63.64501,53.16874],[63.64477,53.16855],[63.64483,53.16828],[63.64511,53.16815],[63.64554,53.16815],[63.64569,53.16788],[63.64617,53.16786],[63.64648,53.16807],[63.64642,53.16887],[63.64636,53.16894],[63.646,53.169],[63.64589,53.16895],[63.64587,53.16866],[63.64577,53.16858]]]}},{"type":"Feature","properties":{"kind":"water"},"geometry":{"type":"Polygon","coordinates":[[[63.71377,53.2355],[63.71377,53.23512],[63.7139,53.23494],[63.71394,53.23466],[63.7139,53.23422],[63.71373,53.23407],[63.71364,53.23389],[63.71364,53.23373],[63.71351,53.23366],[63.71356,53.23348],[63.71362,53.23344],[63.71388,53.23344],[63.71399,53.2335],[63.71399,53.2336],[63.71433,53.23394],[63.71442,53.23419],[63.7145,53.23425],[63.71454,53.23448],[63.71446,53.23463],[63.71446,53.23479],[63.71437,53.23486],[63.71429,53.23509],[63.7142,53.23514],[63.71412,53.2354],[63.71403,53.23545],[63.71394,53.23561],[63.71394,53.23568],[63.71407,53.23576],[63.7142,53.23594],[63.71405,53.23598],[63.71377,53.23576],[63.71377,53.23566],[63.71386,53.23561],[63.71377,53.2355]]]}},{"type":"Feature","properties":{"kind":"water"},"geometry":{"type":"Polygon","coordinates":[[[63.5951,53.12838],[63.59469,53.12857],[63.59456,53.12859],[63.59418,53.1285],[63.59412,53.12844],[63.59415,53.12789],[63.59396,53.1276],[63.59375,53.12694],[63.59391,53.12681],[63.59427,53.12711],[63.59511,53.12829],[63.5951,53.12838]]]}},{"type":"Feature","properties":{"kind":"water"},"geometry":{"type":"Polygon","coordinates":[[[63.66312,53.18525],[63.6636,53.18539],[63.66374,53.1855],[63.66372,53.18566],[63.66353,53.18574],[63.66311,53.18575],[63.66261,53.18565],[63.66205,53.1855],[63.66198,53.18539],[63.66218,53.18516],[63.6623,53.18512],[63.66312,53.18525]]]}},{"type":"Feature","properties":{"kind":"water"},"geometry":{"type":"Polygon","coordinates":[[[63.71042,53.17822],[63.71078,53.17833],[63.71104,53.17828],[63.71137,53.17829],[63.71202,53.17837],[63.71229,53.1785],[63.71196,53.17843],[63.71135,53.17841],[63.71107,53.17847],[63.70972,53.17839],[63.7094,53.17828],[63.70933,53.1782],[63.70951,53.17791],[63.70962,53.17787],[63.71027,53.17793],[63.71037,53.17801],[63.71031,53.17815],[63.71042,53.17822]]]}},{"type":"Feature","properties":{"kind":"water"},"geometry":{"type":"Polygon","coordinates":[[[63.64639,53.20202],[63.64686,53.2024],[63.647,53.20262],[63.64741,53.20265],[63.64752,53.20273],[63.64756,53.20286],[63.64749,53.20306],[63.64718,53.20321],[63.64685,53.20319],[63.64674,53.20314],[63.64673,53.20301],[63.64681,53.20291],[63.64679,53.20282],[63.6462,53.20218],[63.64621,53.20206],[63.64627,53.20201],[63.64639,53.20202]]]}},{"type":"Feature","properties":{"kind":"water"},"geometry":{"type":"Polygon","coordinates":[[[63.66234,53.25482],[63.66332,53.25544],[63.66331,53.2556],[63.66309,53.25575],[63.66296,53.25576],[63.66283,53.25571],[63.66213,53.25527],[63.66201,53.25514],[63.66202,53.25498],[63.66222,53.25482],[63.66234,53.25482]]]}},{"type":"Feature","properties":{"kind":"water"},"geometry":{"type":"Polygon","coordinates":[[[63.59856,53.12746],[63.59846,53.1277],[63.59853,53.12797],[63.59797,53.12813],[63.59783,53.12811],[63.59759,53.12794],[63.59753,53.1277],[63.59759,53.12758],[63.59811,53.12732],[63.59837,53.12732],[63.59856,53.12746]]]}},{"type":"Feature","properties":{"kind":"water"},"geometry":{"type":"Polygon","coordinates":[[[63.71502,53.23676],[63.71493,53.23699],[63.7148,53.23715],[63.7147,53.23719],[63.71454,53.2371],[63.71446,53.23689],[63.71446,53.23658],[63.71459,53.2364],[63.71454,53.23599],[63.7145,53.23597],[63.71454,53.23566],[63.71461,53.23562],[63.71485,53.23597],[63.71489,53.23612],[63.71497,53.23617],[63.71493,53.23638],[63.71502,53.23648],[63.71502,53.23676]]]}},{"type":"Feature","properties":{"kind":"water"},"geometry":{"type":"Polygon","coordinates":[[[63.57085,53.23611],[63.57031,53.23644],[63.56995,53.23648],[63.56975,53.23642],[63.56978,53.23632],[63.57089,53.23552],[63.57116,53.23562],[63.57113,53.23578],[63.57085,53.23611]]]}},{"type":"Feature","properties":{"kind":"water"},"geometry":{"type":"Polygon","coordinates":[[[63.78523,53.30604],[63.78544,53.3061],[63.78566,53.30622],[63.78608,53.30635],[63.78641,53.30654],[63.78641,53.3066],[63.78621,53.30663],[63.78591,53.30658],[63.7854,53.30643],[63.78514,53.30643],[63.78458,53.3062],[63.78428,53.3062],[63.78426,53.30613],[63.78441,53.30604],[63.78523,53.30604]]]}},{"type":"Feature","properties":{"kind":"water"},"geometry":{"type":"Polygon","coordinates":[[[63.6448,53.15839],[63.64488,53.15803],[63.64508,53.15765],[63.64553,53.15768],[63.64561,53.15776],[63.6455,53.15827],[63.64535,53.15844],[63.64487,53.15843],[63.6448,53.15839]]]}}]}