{"type":"FeatureCollection","features":[{"type":"Feature","properties":{"slug":"center","name":"Центр","name_en":"Centre","palette":3},"geometry":{"type":"MultiPolygon","coordinates":[[[[63.661549,53.213054],[63.660199,53.213144],[63.659446,53.213052],[63.658699,53.212605],[63.658319,53.212035],[63.658426,53.212139],[63.658932,53.212629],[63.659585,53.213001],[63.660334,53.213058],[63.661455,53.21301],[63.661562,53.212775],[63.661562,53.212775],[63.661562,53.212775],[63.661566,53.212766],[63.661581,53.212583],[63.661582,53.212574],[63.661596,53.212576],[63.661923,53.21262],[63.663006,53.21254],[63.663678,53.212289],[63.663692,53.212284],[63.663049,53.212605],[63.661842,53.212687],[63.661849,53.212695],[63.663049,53.212605],[63.663649,53.212336],[63.663693,53.212284],[63.664477,53.211991],[63.664838,53.211668],[63.664906,53.211539],[63.66484,53.211169],[63.664651,53.21097],[63.664942,53.210693],[63.665129,53.210617],[63.66602,53.210445],[63.666857,53.210217],[63.668347,53.210085],[63.668837,53.210065],[63.670587,53.210161],[63.670764,53.21034],[63.670699,53.210359],[63.670699,53.210539],[63.671882,53.211169],[63.671882,53.211169],[63.671884,53.21117],[63.671876,53.211467],[63.672353,53.211861],[63.672428,53.212356],[63.672145,53.212819],[63.672133,53.212929],[63.672263,53.213279],[63.672714,53.213861],[63.673192,53.214228],[63.674107,53.214573],[63.674263,53.214723],[63.674264,53.214768],[63.673844,53.214869],[63.673682,53.214968],[63.673621,53.215074],[63.673591,53.215455],[63.67386,53.2159],[63.674473,53.216356],[63.674511,53.21668],[63.674124,53.217081],[63.674081,53.217199],[63.674372,53.218427],[63.674482,53.218569],[63.675601,53.219351],[63.67565,53.21953],[63.675371,53.220074],[63.675199,53.219971],[63.662749,53.219971],[63.661999,53.220331],[63.657799,53.220241],[63.657349,53.22051],[63.656299,53.22051],[63.654799,53.219342],[63.654799,53.219163],[63.654349,53.218893],[63.654049,53.218893],[63.653149,53.219432],[63.651799,53.219881],[63.651349,53.220241],[63.651049,53.220241],[63.6506,53.2206],[63.6503,53.2206],[63.64985,53.220959],[63.64955,53.220959],[63.6488,53.221498],[63.64805,53.221678],[63.64715,53.222217],[63.64685,53.222217],[63.6464,53.222576],[63.6455,53.222846],[63.6449,53.223295],[63.6446,53.223295],[63.64415,53.223654],[63.64385,53.223654],[63.6419,53.224642],[63.6413,53.224822],[63.64085,53.225181],[63.64025,53.225271],[63.63965,53.22572],[63.63875,53.22599],[63.6383,53.226349],[63.638,53.226349],[63.63635,53.227248],[63.6356,53.227427],[63.635,53.227876],[63.6341,53.228146],[63.6335,53.228595],[63.6332,53.228595],[63.63275,53.228954],[63.632,53.229134],[63.6308,53.229853],[63.63005,53.230032],[63.62915,53.230661],[63.62795,53.23102],[63.6269,53.231739],[63.62615,53.231919],[63.62585,53.232188],[63.62555,53.232188],[63.62525,53.232458],[63.62435,53.232727],[63.6239,53.233087],[63.6236,53.233087],[63.6218,53.231919],[63.6218,53.231739],[63.6203,53.230931],[63.61985,53.230392],[63.6188,53.229853],[63.6188,53.229673],[63.61805,53.229314],[63.61805,53.229134],[63.6167,53.228326],[63.6167,53.228146],[63.61595,53.227787],[63.6158,53.227427],[63.61625,53.227158],[63.61655,53.227158],[63.6173,53.226709],[63.6173,53.226529],[63.61625,53.22599],[63.61625,53.22581],[63.61535,53.225361],[63.61535,53.225181],[63.61445,53.224732],[63.61445,53.224553],[63.6128,53.223564],[63.6128,53.223385],[63.6113,53.222487],[63.6113,53.222307],[63.60995,53.221588],[63.60995,53.221409],[63.60815,53.220331],[63.60815,53.220151],[63.60635,53.219163],[63.6074,53.217815],[63.6083,53.217186],[63.6083,53.216917],[63.6074,53.216468],[63.6074,53.216288],[63.6065,53.215839],[63.6065,53.215659],[63.6053,53.215031],[63.6053,53.214851],[63.60485,53.214581],[63.6038,53.214222],[63.6011,53.212695],[63.6017,53.212336],[63.60245,53.212156],[63.60635,53.20991],[63.6074,53.209551],[63.6083,53.208922],[63.60875,53.208922],[63.60995,53.208114],[63.61025,53.208114],[63.611,53.207575],[63.6119,53.207305],[63.6137,53.206137],[63.61445,53.205958],[63.6152,53.205508],[63.61685,53.206407],[63.61685,53.206586],[63.6182,53.207395],[63.6182,53.207575],[63.61925,53.208114],[63.6194,53.208563],[63.6203,53.209551],[63.6212,53.21],[63.6212,53.21018],[63.62225,53.210719],[63.62225,53.210898],[63.62345,53.211617],[63.6239,53.211617],[63.62615,53.210269],[63.6269,53.21009],[63.6284,53.209102],[63.62945,53.208742],[63.6317,53.207485],[63.63245,53.207305],[63.6332,53.207754],[63.6332,53.207934],[63.635,53.208922],[63.635,53.209102],[63.63575,53.209461],[63.63575,53.209641],[63.63695,53.210269],[63.63695,53.210449],[63.63785,53.210898],[63.63785,53.211078],[63.6392,53.211797],[63.6392,53.211976],[63.6401,53.212515],[63.6404,53.212515],[63.64235,53.211347],[63.6428,53.211347],[63.64535,53.20982],[63.6464,53.209461],[63.64685,53.209102],[63.64715,53.209102],[63.64805,53.208473],[63.6491,53.208203],[63.64955,53.207844],[63.649773,53.207978],[63.649992,53.208308],[63.6503,53.208922],[63.651349,53.209731],[63.651499,53.21009],[63.652849,53.210898],[63.653749,53.211168],[63.656527,53.211168],[63.656844,53.211282],[63.656899,53.211347],[63.657667,53.211577],[63.657951,53.21168],[63.658318,53.212035],[63.658699,53.212605],[63.659449,53.213054],[63.660199,53.213144],[63.661549,53.213054],[63.661565,53.212995],[63.661549,53.213054]],[[63.661094,53.216788],[63.660879,53.216788],[63.660193,53.216454],[63.659935,53.216454],[63.659549,53.216172],[63.659077,53.216069],[63.658841,53.215773],[63.658519,53.215555],[63.658454,53.215722],[63.658068,53.21585],[63.658304,53.215889],[63.658476,53.215812],[63.658669,53.215902],[63.658626,53.21621],[63.65869,53.216248],[63.659163,53.2163],[63.659184,53.216416],[63.660064,53.21684],[63.66045,53.216865],[63.660793,53.217019],[63.662081,53.217354],[63.662381,53.217251],[63.662596,53.217276],[63.663282,53.217097],[63.66384,53.217174],[63.664141,53.217276],[63.664012,53.217148],[63.663626,53.216994],[63.663197,53.216994],[63.66281,53.217071],[63.662081,53.217071],[63.661952,53.216994],[63.661609,53.216968],[63.661094,53.216788]]]]}},{"type":"Feature","properties":{"slug":"vokzal","name":"Привокзальный","name_en":"Privokzalny","palette":1},"geometry":{"type":"MultiPolygon","coordinates":[[[[63.64295,53.248627],[63.6413,53.249526],[63.64145,53.249705],[63.64085,53.249795],[63.6401,53.249256],[63.6398,53.249256],[63.63905,53.248807],[63.63905,53.248538],[63.6386,53.248358],[63.63845,53.247999],[63.6371,53.24719],[63.63605,53.246921],[63.6347,53.246292],[63.6341,53.246202],[63.63155,53.244585],[63.62975,53.244046],[63.62915,53.244046],[63.6284,53.243507],[63.6266,53.243507],[63.62615,53.243238],[63.62615,53.242519],[63.62585,53.242429],[63.62585,53.241351],[63.6245,53.240543],[63.6245,53.240363],[63.6239,53.240093],[63.6239,53.239914],[63.6221,53.238656],[63.6221,53.238476],[63.62135,53.238027],[63.6206,53.237219],[63.62015,53.237039],[63.62015,53.23686],[63.6194,53.23641],[63.6191,53.235961],[63.61835,53.235602],[63.61835,53.235422],[63.6179,53.235243],[63.617,53.234254],[63.6164,53.233985],[63.6158,53.233266],[63.6152,53.232997],[63.61475,53.232368],[63.614,53.232009],[63.614,53.231739],[63.61325,53.23129],[63.61295,53.23129],[63.6113,53.230212],[63.6104,53.230032],[63.6092,53.229224],[63.6089,53.229224],[63.6008,53.224373],[63.6005,53.224373],[63.59735,53.222397],[63.59705,53.222397],[63.5966,53.222127],[63.5966,53.221948],[63.5948,53.22087],[63.5945,53.22087],[63.59255,53.219612],[63.59225,53.219612],[63.58955,53.217995],[63.58955,53.217815],[63.588801,53.217456],[63.588801,53.215929],[63.588351,53.215659],[63.587751,53.215659],[63.585951,53.216827],[63.584151,53.217276],[63.583851,53.217546],[63.581601,53.217636],[63.581601,53.217456],[63.581151,53.217276],[63.580851,53.216648],[63.580851,53.21539],[63.581151,53.21521],[63.581451,53.214581],[63.581751,53.214492],[63.581751,53.213503],[63.582651,53.213054],[63.582951,53.213054],[63.583851,53.212425],[63.584151,53.211437],[63.584451,53.211168],[63.584151,53.210898],[63.584301,53.210629],[63.584901,53.210359],[63.584901,53.21009],[63.586251,53.209461],[63.586851,53.209551],[63.587151,53.209371],[63.587601,53.209371],[63.588201,53.209102],[63.588651,53.209102],[63.58925,53.208832],[63.5903,53.208653],[63.59045,53.208473],[63.59105,53.208473],[63.5915,53.208293],[63.59315,53.208293],[63.5972,53.210629],[63.5972,53.210988],[63.59765,53.211258],[63.59855,53.211437],[63.6008,53.212695],[63.6011,53.212695],[63.6038,53.214222],[63.60485,53.214581],[63.6053,53.214851],[63.6053,53.215031],[63.6065,53.215659],[63.6065,53.215839],[63.6074,53.216288],[63.6074,53.216468],[63.6083,53.216917],[63.6083,53.217186],[63.6074,53.217815],[63.60635,53.219163],[63.60815,53.220151],[63.60815,53.220331],[63.60995,53.221409],[63.60995,53.221588],[63.6113,53.222307],[63.6113,53.222487],[63.6128,53.223385],[63.6128,53.223564],[63.61445,53.224553],[63.61445,53.224732],[63.61535,53.225181],[63.61535,53.225361],[63.61625,53.22581],[63.61625,53.22599],[63.6173,53.226529],[63.6173,53.226709],[63.61655,53.227158],[63.61625,53.227158],[63.6158,53.227427],[63.61595,53.227787],[63.6167,53.228146],[63.6167,53.228326],[63.61805,53.229134],[63.61805,53.229314],[63.6188,53.229673],[63.6188,53.229853],[63.61985,53.230392],[63.6203,53.230931],[63.6218,53.231739],[63.6218,53.231919],[63.6236,53.233087],[63.6239,53.233087],[63.62435,53.232727],[63.62525,53.232458],[63.62555,53.232188],[63.62585,53.232188],[63.62615,53.231919],[63.6269,53.231739],[63.62795,53.23102],[63.62915,53.230661],[63.63005,53.230032],[63.6308,53.229853],[63.632,53.229134],[63.63275,53.228954],[63.6332,53.228595],[63.6335,53.228595],[63.6341,53.228146],[63.635,53.227876],[63.6356,53.227427],[63.63635,53.227248],[63.638,53.226349],[63.6383,53.226349],[63.63875,53.22599],[63.63965,53.22572],[63.64025,53.225271],[63.64085,53.225181],[63.6413,53.224822],[63.6419,53.224642],[63.64355,53.22581],[63.6443,53.226709],[63.6455,53.227517],[63.64655,53.228685],[63.6479,53.229583],[63.6482,53.230032],[63.6491,53.230571],[63.6491,53.230751],[63.652849,53.232997],[63.654499,53.233536],[63.655549,53.234165],[63.655999,53.234165],[63.656449,53.233895],[63.656449,53.233715],[63.657499,53.233176],[63.657649,53.232817],[63.658549,53.232188],[63.659599,53.232278],[63.660199,53.232548],[63.660799,53.232548],[63.662749,53.233805],[63.663049,53.233805],[63.663799,53.234254],[63.663799,53.234434],[63.665449,53.235422],[63.665749,53.235422],[63.667099,53.236231],[63.669799,53.237848],[63.669799,53.238297],[63.668749,53.238836],[63.668749,53.239015],[63.667999,53.239375],[63.667999,53.239554],[63.666049,53.240722],[63.665749,53.241261],[63.664549,53.24198],[63.664249,53.242519],[63.663349,53.243058],[63.662899,53.243058],[63.662749,53.243238],[63.660499,53.243866],[63.659599,53.244315],[63.658849,53.244405],[63.657499,53.245034],[63.656149,53.245304],[63.655849,53.245573],[63.6491,53.245573],[63.64835,53.246112],[63.64625,53.246741],[63.64565,53.246741],[63.64475,53.24728],[63.64475,53.24746],[63.64295,53.248448],[63.64295,53.248627]]]]}},{"type":"Feature","properties":{"slug":"narimanovka","name":"Наримановка","name_en":"Narimanovka","palette":6},"geometry":{"type":"MultiPolygon","coordinates":[[[[63.644293,53.187269],[63.6443,53.187284],[63.6443,53.187285],[63.644526,53.187755],[63.64439,53.189104],[63.64439,53.189104],[63.64439,53.189104],[63.6443,53.189182],[63.6443,53.189167],[63.6443,53.189183],[63.643424,53.189938],[63.64325,53.190057],[63.643201,53.19013],[63.643143,53.190181],[63.642623,53.190956],[63.642191,53.190956],[63.642168,53.190941],[63.642129,53.190956],[63.6419,53.190956],[63.641915,53.190965],[63.6419,53.190956],[63.642129,53.190956],[63.642028,53.190996],[63.642197,53.191163],[63.642197,53.191164],[63.64229,53.191456],[63.64229,53.191457],[63.64222,53.191591],[63.642234,53.191742],[63.64212,53.192331],[63.642104,53.192395],[63.642298,53.192787],[63.642305,53.192802],[63.64205,53.192573],[63.642069,53.192392],[63.64205,53.192573],[63.642306,53.192802],[63.642401,53.192995],[63.64265,53.193741],[63.642692,53.193766],[63.64265,53.193741],[63.642401,53.192996],[63.642404,53.193001],[63.642709,53.193617],[63.642727,53.193631],[63.642727,53.193631],[63.642727,53.193631],[63.643809,53.194467],[63.644388,53.194665],[63.644394,53.194667],[63.6434,53.194369],[63.6434,53.194368],[63.6434,53.194369],[63.644396,53.194668],[63.644634,53.194749],[63.644636,53.194751],[63.644701,53.194772],[63.64494,53.194932],[63.644636,53.194751],[63.644942,53.194934],[63.64535,53.195207],[63.64535,53.195358],[63.645519,53.195442],[63.64535,53.195358],[63.64535,53.195208],[63.645567,53.195353],[63.64653,53.195999],[63.646722,53.196009],[63.646724,53.196009],[63.646723,53.19601],[63.646637,53.196103],[63.646774,53.196221],[63.646775,53.196222],[63.64625,53.195986],[63.64625,53.195985],[63.64625,53.195986],[63.646776,53.196223],[63.646883,53.196315],[63.647043,53.196602],[63.647044,53.196604],[63.647044,53.196629],[63.647075,53.196661],[63.6473,53.197064],[63.647737,53.197326],[63.6479,53.19749],[63.6479,53.197873],[63.648235,53.198006],[63.64855,53.198355],[63.64865,53.198568],[63.64865,53.19922],[63.648661,53.199234],[63.64865,53.19922],[63.64865,53.198568],[63.648736,53.199094],[63.648743,53.199157],[63.648988,53.199464],[63.649012,53.199494],[63.649193,53.199995],[63.649275,53.200588],[63.649239,53.200843],[63.649216,53.20066],[63.649239,53.200844],[63.649,53.201329],[63.648704,53.20165],[63.64835,53.201915],[63.648498,53.202804],[63.648494,53.202861],[63.648106,53.205721],[63.648493,53.202862],[63.648217,53.205355],[63.648106,53.205721],[63.648106,53.205723],[63.648067,53.205851],[63.648083,53.205892],[63.64805,53.206137],[63.648052,53.206137],[63.64805,53.206137],[63.648083,53.205892],[63.648084,53.205893],[63.648152,53.206071],[63.648942,53.206327],[63.648969,53.206326],[63.649294,53.206373],[63.649381,53.206469],[63.64925,53.206596],[63.64925,53.206596],[63.64925,53.206596],[63.648608,53.20674],[63.64835,53.206766],[63.64835,53.207036],[63.648353,53.207038],[63.648746,53.207273],[63.6488,53.207318],[63.6488,53.207321],[63.648903,53.207406],[63.649085,53.207559],[63.649207,53.207531],[63.649207,53.207531],[63.649591,53.207803],[63.649531,53.207827],[63.649527,53.207823],[63.64955,53.207844],[63.6491,53.208203],[63.64805,53.208473],[63.64715,53.209102],[63.64685,53.209102],[63.6464,53.209461],[63.64535,53.20982],[63.6428,53.211347],[63.64235,53.211347],[63.6404,53.212515],[63.6401,53.212515],[63.6392,53.211976],[63.6392,53.211797],[63.63785,53.211078],[63.63785,53.210898],[63.63695,53.210449],[63.63695,53.210269],[63.63575,53.209641],[63.63575,53.209461],[63.635,53.209102],[63.635,53.208922],[63.6332,53.207934],[63.6332,53.207754],[63.63245,53.207305],[63.6317,53.207485],[63.62945,53.208742],[63.6284,53.209102],[63.6269,53.21009],[63.62615,53.210269],[63.6239,53.211617],[63.62345,53.211617],[63.62225,53.210898],[63.62225,53.210719],[63.6212,53.21018],[63.6212,53.21],[63.6203,53.209551],[63.6194,53.208563],[63.61925,53.208114],[63.6182,53.207575],[63.6182,53.207395],[63.61685,53.206586],[63.61685,53.206407],[63.6152,53.205508],[63.6152,53.205329],[63.614,53.2047],[63.614,53.20452],[63.61235,53.203622],[63.61235,53.203442],[63.61085,53.202634],[63.61085,53.202454],[63.6092,53.201466],[63.6086,53.196705],[63.60845,53.192932],[63.608,53.190956],[63.60785,53.186464],[63.60815,53.186105],[63.6077,53.185746],[63.608,53.185386],[63.60695,53.184218],[63.6077,53.183859],[63.6086,53.183769],[63.6089,53.1835],[63.6095,53.1835],[63.61235,53.182602],[63.6128,53.182602],[63.61355,53.18314],[63.61415,53.184398],[63.6146,53.184937],[63.6149,53.185027],[63.6155,53.186195],[63.6173,53.188351],[63.61775,53.189608],[63.61775,53.190417],[63.6182,53.190686],[63.6206,53.190776],[63.6212,53.190596],[63.62195,53.190057],[63.62705,53.189968],[63.6284,53.189249],[63.62855,53.1888],[63.62885,53.18871],[63.62885,53.187452],[63.6296,53.187093],[63.6296,53.186824],[63.63065,53.186285],[63.63335,53.186285],[63.63395,53.185925],[63.633651,53.185687],[63.634174,53.185687],[63.635374,53.185425],[63.6359,53.185386],[63.6359,53.185311],[63.636376,53.185207],[63.6365,53.185207],[63.6365,53.185175],[63.63898,53.18429],[63.639612,53.184168],[63.640093,53.184279],[63.63995,53.184308],[63.6398,53.184668],[63.639908,53.18473],[63.6398,53.184668],[63.63995,53.184308],[63.640093,53.184279],[63.640301,53.184328],[63.640097,53.184342],[63.640215,53.184422],[63.640446,53.184477],[63.640837,53.184453],[63.640841,53.184453],[63.642281,53.184786],[63.642944,53.185266],[63.644237,53.187154],[63.644292,53.187269],[63.644293,53.187269]],[[63.63095,53.190686],[63.631509,53.190965],[63.631861,53.191201],[63.632,53.192034],[63.63221,53.192159],[63.6323,53.192359],[63.6323,53.192367],[63.631992,53.192615],[63.63155,53.192932],[63.63275,53.193112],[63.6341,53.193022],[63.6347,53.192842],[63.634458,53.192552],[63.6344,53.19245],[63.6344,53.192303],[63.634638,53.192351],[63.63466,53.192376],[63.634695,53.192362],[63.63485,53.192393],[63.63455,53.192034],[63.63455,53.191585],[63.634205,53.191533],[63.63414,53.191511],[63.634108,53.191519],[63.63395,53.191495],[63.633577,53.191793],[63.633335,53.191854],[63.63275,53.191854],[63.6335,53.191405],[63.633058,53.191405],[63.632957,53.191393],[63.632929,53.191405],[63.6326,53.191405],[63.63245,53.191046],[63.632,53.190776],[63.631671,53.190776],[63.63155,53.190736],[63.63155,53.190417],[63.63095,53.190327],[63.63095,53.190686]],[[63.647414,53.202646],[63.647004,53.202615],[63.646862,53.202395],[63.64639,53.202019],[63.646274,53.202013],[63.64621,53.202056],[63.646199,53.202177],[63.646787,53.202819],[63.646814,53.202911],[63.646728,53.203006],[63.646736,53.203141],[63.646846,53.203194],[63.647176,53.203205],[63.647489,53.203064],[63.647565,53.20286],[63.647516,53.202729],[63.647414,53.202646]]]]}},{"type":"Feature","properties":{"slug":"zapadny","name":"Западный","name_en":"Zapadny","palette":2},"geometry":{"type":"MultiPolygon","coordinates":[[[[63.6074,53.209551],[63.60635,53.20991],[63.60245,53.212156],[63.6017,53.212336],[63.6011,53.212695],[63.6008,53.212695],[63.59855,53.211437],[63.59765,53.211258],[63.5972,53.210988],[63.5972,53.210629],[63.59315,53.208293],[63.5915,53.208293],[63.59105,53.208473],[63.59045,53.208473],[63.5903,53.208653],[63.58925,53.208832],[63.588651,53.209102],[63.588201,53.209102],[63.587601,53.209371],[63.587151,53.209371],[63.586851,53.209551],[63.586251,53.209461],[63.584901,53.21009],[63.584901,53.210359],[63.584301,53.210629],[63.584151,53.210898],[63.580851,53.210808],[63.580551,53.211078],[63.578601,53.211078],[63.577551,53.211707],[63.575301,53.211707],[63.573651,53.210719],[63.575151,53.20982],[63.575151,53.209641],[63.571851,53.207664],[63.580251,53.202634],[63.580251,53.202454],[63.578751,53.201646],[63.578601,53.201197],[63.579051,53.201017],[63.578901,53.200478],[63.580701,53.19949],[63.580701,53.19931],[63.578751,53.198142],[63.578751,53.197424],[63.579201,53.197244],[63.579051,53.196436],[63.579801,53.195986],[63.578301,53.195178],[63.578001,53.19428],[63.582651,53.191585],[63.582801,53.190237],[63.582201,53.189878],[63.582651,53.189608],[63.585951,53.189608],[63.586401,53.189339],[63.586101,53.187812],[63.586551,53.187542],[63.5927,53.187183],[63.593,53.187003],[63.5972,53.186824],[63.60635,53.185386],[63.6071,53.185566],[63.6074,53.185835],[63.6077,53.185746],[63.60815,53.186105],[63.60785,53.186464],[63.608,53.190956],[63.60845,53.192932],[63.6086,53.196705],[63.6092,53.201466],[63.61085,53.202454],[63.61085,53.202634],[63.61235,53.203442],[63.61235,53.203622],[63.614,53.20452],[63.614,53.2047],[63.6152,53.205329],[63.6152,53.205508],[63.61445,53.205958],[63.6137,53.206137],[63.6119,53.207305],[63.611,53.207575],[63.61025,53.208114],[63.60995,53.208114],[63.60875,53.208922],[63.6083,53.208922],[63.6074,53.209551]]]]}},{"type":"Feature","properties":{"slug":"kzhbi","name":"КЖБИ","name_en":"KZhBI","palette":7},"geometry":{"type":"MultiPolygon","coordinates":[[[[63.59645,53.166252],[63.59765,53.165803],[63.60155,53.165264],[63.61025,53.165264],[63.6107,53.165623],[63.610625,53.165713],[63.6107,53.165623],[63.610734,53.165616],[63.610789,53.165683],[63.610591,53.165754],[63.610591,53.165754],[63.610455,53.165803],[63.610455,53.165803],[63.61025,53.165803],[63.610199,53.165955],[63.610138,53.166049],[63.610138,53.166139],[63.6101,53.166252],[63.610102,53.166254],[63.611192,53.167151],[63.611201,53.167202],[63.611309,53.167294],[63.61145,53.168139],[63.611464,53.168148],[63.61145,53.168139],[63.611309,53.167294],[63.611381,53.167355],[63.611384,53.167376],[63.611424,53.167731],[63.611714,53.168211],[63.611732,53.16824],[63.612007,53.168342],[63.612008,53.168342],[63.612062,53.168467],[63.612285,53.168986],[63.612594,53.169193],[63.612598,53.169196],[63.612599,53.169196],[63.612658,53.169236],[63.612664,53.169251],[63.612799,53.169572],[63.612837,53.169738],[63.612878,53.169762],[63.61295,53.169935],[63.6143,53.169935],[63.61295,53.169935],[63.612878,53.169762],[63.612881,53.169764],[63.613092,53.169891],[63.613616,53.16992],[63.613656,53.169922],[63.614119,53.169795],[63.614123,53.169794],[63.614284,53.169807],[63.614439,53.169935],[63.614439,53.169935],[63.61445,53.169944],[63.61445,53.169944],[63.614571,53.170043],[63.614569,53.17012],[63.614563,53.170235],[63.614694,53.170428],[63.614702,53.170441],[63.614692,53.170599],[63.614689,53.170606],[63.614552,53.170823],[63.614451,53.171152],[63.61445,53.171153],[63.61445,53.171148],[63.61445,53.171154],[63.614434,53.171206],[63.61445,53.171249],[63.61445,53.171642],[63.61625,53.17281],[63.6167,53.17281],[63.6182,53.172361],[63.61865,53.171642],[63.618083,53.170793],[63.618039,53.170589],[63.617843,53.170435],[63.61775,53.170295],[63.61715,53.170474],[63.617205,53.170507],[63.617184,53.170515],[63.6176,53.170814],[63.6176,53.170821],[63.6176,53.170814],[63.617663,53.171064],[63.617529,53.171187],[63.617398,53.171224],[63.6174,53.171223],[63.617398,53.171224],[63.617225,53.171274],[63.617221,53.171274],[63.616821,53.171226],[63.616525,53.171107],[63.616478,53.171063],[63.6164,53.170923],[63.616379,53.170919],[63.6164,53.170923],[63.616477,53.171062],[63.616476,53.171061],[63.616355,53.170948],[63.615893,53.170804],[63.615803,53.170776],[63.615809,53.170771],[63.615973,53.170642],[63.616083,53.170434],[63.616122,53.170362],[63.616133,53.170356],[63.616557,53.17012],[63.616493,53.170019],[63.616492,53.170018],[63.6167,53.170205],[63.616697,53.170206],[63.6167,53.170205],[63.616492,53.170018],[63.616411,53.16989],[63.616411,53.169888],[63.616491,53.169556],[63.616504,53.169527],[63.6165,53.169518],[63.61655,53.169307],[63.61583,53.169091],[63.615834,53.169069],[63.61565,53.16903],[63.61565,53.16903],[63.61559,53.169018],[63.615622,53.168839],[63.61565,53.168824],[63.61565,53.168821],[63.615729,53.168768],[63.615732,53.168768],[63.615738,53.168762],[63.615813,53.168712],[63.615741,53.168432],[63.615739,53.168425],[63.615739,53.168425],[63.615834,53.168298],[63.615813,53.168189],[63.615618,53.168135],[63.615479,53.168068],[63.615486,53.168069],[63.615478,53.168068],[63.615343,53.167961],[63.615269,53.167952],[63.615265,53.167948],[63.615268,53.167952],[63.615035,53.167736],[63.615058,53.167699],[63.615058,53.167699],[63.615063,53.16769],[63.615063,53.16769],[63.615095,53.167637],[63.615313,53.167588],[63.615689,53.16769],[63.61569,53.16769],[63.615814,53.167724],[63.615814,53.167725],[63.615817,53.167725],[63.615892,53.167745],[63.616295,53.16775],[63.616297,53.16775],[63.616237,53.167858],[63.616237,53.167858],[63.616065,53.167844],[63.616065,53.167997],[63.616359,53.168147],[63.61636,53.168147],[63.616357,53.168147],[63.61636,53.168147],[63.616411,53.168173],[63.616479,53.168176],[63.6167,53.168229],[63.616701,53.168227],[63.6167,53.168229],[63.61648,53.168176],[63.61648,53.168176],[63.616621,53.168182],[63.616768,53.167975],[63.616771,53.16797],[63.616779,53.167968],[63.617365,53.167781],[63.617448,53.167592],[63.617397,53.167471],[63.617382,53.167428],[63.61756,53.167227],[63.61786,53.167164],[63.61819,53.16724],[63.6182,53.16724],[63.618209,53.167244],[63.618452,53.167301],[63.618969,53.167593],[63.619221,53.16786],[63.619225,53.167861],[63.619264,53.167903],[63.619264,53.167904],[63.619942,53.168615],[63.619982,53.168665],[63.6194,53.168229],[63.619363,53.16814],[63.6194,53.168229],[63.619983,53.168665],[63.619987,53.16867],[63.619395,53.169058],[63.618891,53.170002],[63.619195,53.170941],[63.620001,53.17245],[63.62,53.172451],[63.620002,53.172452],[63.620264,53.172941],[63.620865,53.173446],[63.621885,53.174721],[63.622297,53.175946],[63.622256,53.176399],[63.62225,53.176403],[63.62225,53.176471],[63.622197,53.177065],[63.62225,53.17728],[63.62225,53.177301],[63.622255,53.177301],[63.622298,53.177473],[63.621176,53.17833],[63.621153,53.17842],[63.621053,53.178468],[63.62105,53.178469],[63.621134,53.178494],[63.621002,53.17901],[63.621393,53.179739],[63.621923,53.180372],[63.623247,53.181285],[63.62337,53.181351],[63.62345,53.181434],[63.623667,53.181508],[63.6245,53.181951],[63.6245,53.181973],[63.624541,53.181973],[63.625523,53.182495],[63.626487,53.18313],[63.626673,53.183568],[63.6266,53.18359],[63.626691,53.183617],[63.626695,53.183618],[63.626875,53.184043],[63.627598,53.184601],[63.628764,53.184822],[63.62885,53.185027],[63.629763,53.185095],[63.630698,53.185359],[63.63125,53.185566],[63.63143,53.185566],[63.631854,53.185686],[63.633651,53.185687],[63.63395,53.185925],[63.63335,53.186285],[63.63065,53.186285],[63.6296,53.186824],[63.6296,53.187093],[63.62885,53.187452],[63.62885,53.18871],[63.62855,53.1888],[63.6284,53.189249],[63.62705,53.189968],[63.62195,53.190057],[63.6212,53.190596],[63.6206,53.190776],[63.6182,53.190686],[63.61775,53.190417],[63.61775,53.189608],[63.6173,53.188351],[63.6155,53.186195],[63.6149,53.185027],[63.6146,53.184937],[63.61415,53.184398],[63.61355,53.18314],[63.6128,53.182602],[63.61235,53.182602],[63.6095,53.1835],[63.6089,53.1835],[63.6086,53.183769],[63.6077,53.183859],[63.60695,53.184218],[63.608,53.185386],[63.6077,53.185746],[63.6074,53.185835],[63.6071,53.185566],[63.60635,53.185386],[63.5972,53.186824],[63.593,53.187003],[63.5927,53.187183],[63.586551,53.187542],[63.586101,53.187812],[63.586401,53.189339],[63.585951,53.189608],[63.582651,53.189608],[63.582201,53.189878],[63.579801,53.18853],[63.579501,53.187093],[63.578601,53.186644],[63.578301,53.186015],[63.578751,53.185386],[63.572151,53.181524],[63.572301,53.180535],[63.569151,53.178739],[63.569151,53.178379],[63.569601,53.177571],[63.576801,53.173349],[63.576951,53.172361],[63.575901,53.171822],[63.575901,53.171373],[63.575451,53.171193],[63.575601,53.170115],[63.584151,53.165084],[63.584001,53.164905],[63.584601,53.164635],[63.585351,53.164995],[63.585351,53.165534],[63.585651,53.165623],[63.585651,53.166342],[63.586101,53.166612],[63.59165,53.166612],[63.5918,53.166432],[63.5924,53.166342],[63.59345,53.167151],[63.59375,53.167151],[63.5939,53.166971],[63.5945,53.166971],[63.59465,53.166791],[63.59525,53.166701],[63.5957,53.166342],[63.59645,53.166252]]]]}},{"type":"Feature","properties":{"slug":"khimik","name":"Химик","name_en":"Khimik","palette":11},"geometry":{"type":"MultiPolygon","coordinates":[[[[63.611101,53.165571],[63.610812,53.165674],[63.610789,53.165683],[63.610735,53.165616],[63.61235,53.165264],[63.612356,53.165265],[63.61235,53.165264],[63.6107,53.165623],[63.61025,53.165264],[63.60155,53.165264],[63.59765,53.165803],[63.59645,53.166252],[63.5957,53.166342],[63.59525,53.166701],[63.59465,53.166791],[63.5945,53.166971],[63.5939,53.166971],[63.59375,53.167151],[63.59345,53.167151],[63.5924,53.166342],[63.5918,53.166432],[63.59165,53.166612],[63.586101,53.166612],[63.585651,53.166342],[63.585651,53.165623],[63.585351,53.165534],[63.585351,53.164995],[63.584601,53.164635],[63.584001,53.164905],[63.573651,53.158706],[63.572001,53.158706],[63.570351,53.15673],[63.570351,53.15655],[63.576801,53.152778],[63.577251,53.153047],[63.580701,53.153047],[63.582351,53.153945],[63.582801,53.154574],[63.583401,53.154934],[63.587301,53.154934],[63.5903,53.155113],[63.59075,53.155113],[63.59105,53.154934],[63.59435,53.155023],[63.59675,53.155562],[63.59975,53.157359],[63.6014,53.157449],[63.6017,53.157628],[63.60365,53.157628],[63.60545,53.157449],[63.60605,53.158078],[63.6065,53.158167],[63.606704,53.1578],[63.606879,53.1576],[63.60755,53.157359],[63.6077,53.15691],[63.6071,53.156101],[63.6074,53.156281],[63.6077,53.156101],[63.6107,53.156101],[63.611059,53.155815],[63.612854,53.156631],[63.614911,53.157472],[63.615558,53.157978],[63.615925,53.158395],[63.61601,53.158736],[63.615971,53.159241],[63.615768,53.159784],[63.615378,53.160191],[63.615237,53.160427],[63.615122,53.16051],[63.614869,53.160592],[63.614676,53.160786],[63.614147,53.161026],[63.613994,53.161047],[63.613877,53.161149],[63.61317,53.161128],[63.612008,53.162188],[63.611743,53.162689],[63.611705,53.162891],[63.61161,53.162856],[63.611385,53.162189],[63.611017,53.161622],[63.610987,53.161266],[63.610648,53.160229],[63.610686,53.15931],[63.610596,53.159152],[63.610336,53.159218],[63.610347,53.159806],[63.61015,53.160053],[63.610285,53.160573],[63.610109,53.160926],[63.610047,53.16126],[63.609779,53.161434],[63.609779,53.161557],[63.610099,53.161675],[63.610615,53.162795],[63.610863,53.164132],[63.610731,53.165066],[63.611503,53.164837],[63.611647,53.164738],[63.612041,53.164844],[63.612657,53.164656],[63.613164,53.164992],[63.613167,53.165005],[63.613164,53.164992],[63.613274,53.165065],[63.613276,53.16507],[63.613369,53.165316],[63.613681,53.165503],[63.614232,53.165523],[63.61449,53.165345],[63.614493,53.165343],[63.614636,53.165322],[63.61511,53.165252],[63.615466,53.165131],[63.615145,53.165253],[63.61511,53.165485],[63.614727,53.165559],[63.614408,53.165933],[63.614425,53.166023],[63.614628,53.16612],[63.614446,53.16624],[63.614496,53.166343],[63.614496,53.166343],[63.614088,53.166157],[63.614076,53.166144],[63.613609,53.165596],[63.612993,53.165335],[63.612366,53.165335],[63.612319,53.165345],[63.611122,53.165568],[63.611101,53.165571]]]]}},{"type":"Feature","properties":{"slug":"amangeldy","name":"Амангельды","name_en":"Amangeldy","palette":1},"geometry":{"type":"MultiPolygon","coordinates":[[[[63.6071,53.156101],[63.60665,53.155562],[63.60635,53.155473],[63.606376,53.155565],[63.606356,53.155549],[63.606383,53.15559],[63.6068,53.157089],[63.60575,53.157089],[63.60545,53.157449],[63.60365,53.157628],[63.6017,53.157628],[63.6014,53.157449],[63.59975,53.157359],[63.59675,53.155562],[63.59435,53.155023],[63.59105,53.154934],[63.59075,53.155113],[63.5903,53.155113],[63.587301,53.154934],[63.583401,53.154934],[63.582801,53.154574],[63.582351,53.153945],[63.580701,53.153047],[63.577251,53.153047],[63.576801,53.152778],[63.578001,53.152059],[63.578001,53.151879],[63.571401,53.148017],[63.573651,53.146669],[63.572901,53.14622],[63.573201,53.145861],[63.568701,53.143255],[63.569451,53.142716],[63.568101,53.141639],[63.568101,53.141459],[63.567801,53.141369],[63.567651,53.14101],[63.566751,53.140381],[63.566751,53.140201],[63.566451,53.140111],[63.565551,53.138854],[63.565251,53.138764],[63.564351,53.137686],[63.564201,53.136518],[63.564351,53.136338],[63.57939,53.136338],[63.581648,53.136338],[63.581824,53.136766],[63.582603,53.137688],[63.583485,53.138294],[63.583587,53.138591],[63.585498,53.140153],[63.585665,53.140079],[63.585789,53.140157],[63.586061,53.1404],[63.586496,53.140927],[63.586799,53.14106],[63.589337,53.143329],[63.589307,53.14336],[63.589399,53.143385],[63.589978,53.143902],[63.590316,53.144274],[63.590665,53.144517],[63.591657,53.145404],[63.592988,53.146015],[63.594298,53.146372],[63.596163,53.146416],[63.598609,53.146365],[63.598955,53.14631],[63.599394,53.146292],[63.601021,53.145998],[63.601415,53.145972],[63.602247,53.146136],[63.602665,53.146326],[63.603007,53.146285],[63.603945,53.14647],[63.604149,53.146595],[63.604845,53.148269],[63.604868,53.149079],[63.605035,53.149614],[63.605941,53.150525],[63.607518,53.151389],[63.607853,53.151883],[63.607632,53.151815],[63.607761,53.152124],[63.608159,53.152571],[63.608265,53.152779],[63.609456,53.154106],[63.609636,53.154729],[63.610099,53.155333],[63.610652,53.155629],[63.611059,53.155815],[63.6107,53.156101],[63.6077,53.156101],[63.6074,53.156281],[63.6071,53.156101]]],[[[63.580446,53.135207],[63.580735,53.135203],[63.580841,53.135128],[63.580841,53.135128],[63.58081,53.135276],[63.581427,53.135943],[63.581531,53.136056],[63.581647,53.136338],[63.57939,53.136338],[63.579539,53.136255],[63.579436,53.136112],[63.579654,53.136108],[63.579749,53.136055],[63.579656,53.135886],[63.579874,53.135882],[63.579969,53.135829],[63.579876,53.13566],[63.580094,53.135656],[63.580183,53.135611],[63.580108,53.135433],[63.580382,53.135417],[63.580446,53.135207]]]]}},{"type":"Feature","properties":{"slug":"dostyk","name":"Достык","name_en":"Dostyk","palette":2},"geometry":{"type":"MultiPolygon","coordinates":[[[[63.556251,53.152239],[63.555801,53.152508],[63.555051,53.153586],[63.554151,53.154215],[63.552651,53.156101],[63.552351,53.156191],[63.547401,53.16221],[63.546501,53.16221],[63.545451,53.162839],[63.544101,53.16194],[63.542751,53.161671],[63.536001,53.160862],[63.532101,53.160862],[63.530751,53.160054],[63.530451,53.158886],[63.529701,53.158527],[63.530301,53.158167],[63.530301,53.15682],[63.529851,53.155473],[63.529851,53.154395],[63.527302,53.152867],[63.528651,53.152059],[63.529401,53.152059],[63.530601,53.151789],[63.531351,53.151789],[63.533151,53.15143],[63.533901,53.15143],[63.535101,53.151161],[63.535851,53.151161],[63.537651,53.150801],[63.541401,53.150352],[63.549201,53.145681],[63.549951,53.14613],[63.550251,53.14613],[63.552051,53.145861],[63.552801,53.145322],[63.553251,53.145591],[63.553701,53.145591],[63.554001,53.145411],[63.555951,53.146669],[63.556551,53.146669],[63.557301,53.1464],[63.558651,53.147208],[63.557301,53.148017],[63.557151,53.149005],[63.554001,53.150801],[63.556251,53.152239]]]]}},{"type":"Feature","properties":{"slug":"kostanay-2","name":"Костанай-2","name_en":"Kostanay-2","palette":8},"geometry":{"type":"MultiPolygon","coordinates":[[[[63.62615,53.242519],[63.62615,53.243238],[63.6266,53.243507],[63.6284,53.243507],[63.62915,53.244046],[63.62735,53.245124],[63.62675,53.245124],[63.6257,53.245843],[63.6242,53.246202],[63.6215,53.247819],[63.6164,53.244765],[63.6158,53.244765],[63.6155,53.244944],[63.6143,53.245124],[63.6053,53.250514],[63.6053,53.250693],[63.6065,53.251322],[63.6065,53.251502],[63.60605,53.252041],[63.60185,53.254466],[63.6029,53.255095],[63.6032,53.255544],[63.6026,53.255724],[63.6023,53.255994],[63.602,53.255814],[63.60125,53.255994],[63.5999,53.255095],[63.5996,53.255095],[63.599,53.255455],[63.59105,53.250604],[63.5903,53.250873],[63.5897,53.250424],[63.5894,53.250424],[63.586551,53.251951],[63.585651,53.251412],[63.585651,53.251232],[63.583851,53.250244],[63.583851,53.250065],[63.582501,53.249346],[63.582501,53.249166],[63.572601,53.243238],[63.572301,53.243238],[63.566001,53.2471],[63.565101,53.246831],[63.564651,53.24701],[63.563751,53.246471],[63.562101,53.246112],[63.560601,53.245304],[63.560301,53.245304],[63.560001,53.245034],[63.559101,53.244765],[63.558651,53.244405],[63.558351,53.244405],[63.558051,53.244136],[63.557601,53.244136],[63.555351,53.245573],[63.555051,53.245573],[63.554151,53.246112],[63.553251,53.245483],[63.555951,53.243777],[63.555951,53.243597],[63.557001,53.243058],[63.557001,53.242878],[63.558051,53.242339],[63.558051,53.24216],[63.559101,53.241621],[63.559101,53.241351],[63.558651,53.241082],[63.563901,53.237848],[63.563901,53.237668],[63.561051,53.235961],[63.567051,53.232458],[63.567201,53.232188],[63.566601,53.231919],[63.566601,53.231739],[63.567201,53.23102],[63.568401,53.230392],[63.568401,53.230212],[63.565551,53.228595],[63.565551,53.228415],[63.564201,53.227517],[63.564201,53.227337],[63.563901,53.227248],[63.564051,53.227068],[63.563601,53.226798],[63.566301,53.225181],[63.566301,53.225002],[63.567501,53.224283],[63.567801,53.224283],[63.569151,53.223475],[63.569151,53.223295],[63.571251,53.222127],[63.571251,53.221948],[63.572451,53.221319],[63.572451,53.221139],[63.572901,53.22087],[63.572901,53.2206],[63.573351,53.220331],[63.575751,53.22042],[63.576351,53.2206],[63.581301,53.2206],[63.581751,53.220331],[63.581751,53.220061],[63.580851,53.218893],[63.581151,53.217995],[63.581601,53.217636],[63.583851,53.217546],[63.584151,53.217276],[63.585951,53.216827],[63.587751,53.215659],[63.588351,53.215659],[63.588801,53.215929],[63.588801,53.217456],[63.58955,53.217815],[63.58955,53.217995],[63.59225,53.219612],[63.59255,53.219612],[63.5945,53.22087],[63.5948,53.22087],[63.5966,53.221948],[63.5966,53.222127],[63.59705,53.222397],[63.59735,53.222397],[63.6005,53.224373],[63.6008,53.224373],[63.6089,53.229224],[63.6092,53.229224],[63.6104,53.230032],[63.6113,53.230212],[63.61295,53.23129],[63.61325,53.23129],[63.614,53.231739],[63.614,53.232009],[63.61475,53.232368],[63.6152,53.232997],[63.6158,53.233266],[63.6164,53.233985],[63.617,53.234254],[63.6179,53.235243],[63.61835,53.235422],[63.61835,53.235602],[63.6191,53.235961],[63.6194,53.23641],[63.62015,53.23686],[63.62015,53.237039],[63.6206,53.237219],[63.62135,53.238027],[63.6221,53.238476],[63.6221,53.238656],[63.6239,53.239914],[63.6239,53.240093],[63.6245,53.240363],[63.6245,53.240543],[63.62585,53.241351],[63.62585,53.242429],[63.62615,53.242519]],[[63.570315,53.236438],[63.57085,53.23611],[63.571125,53.235775],[63.571163,53.23562],[63.570887,53.235524],[63.569775,53.23632],[63.56975,53.236423],[63.569948,53.23648],[63.570315,53.236438]]]]}},{"type":"Feature","properties":{"slug":"aeroport","name":"Аэропорт","name_en":"Airport","palette":9},"geometry":{"type":"MultiPolygon","coordinates":[[[[63.572451,53.221139],[63.572451,53.221319],[63.571251,53.221948],[63.571251,53.222127],[63.569151,53.223295],[63.569151,53.223475],[63.567801,53.224283],[63.567501,53.224283],[63.566301,53.225002],[63.566301,53.225181],[63.563601,53.226798],[63.562551,53.226259],[63.562401,53.2259],[63.560301,53.224732],[63.560301,53.224553],[63.561351,53.224014],[63.561351,53.223834],[63.558801,53.222307],[63.560151,53.221319],[63.561201,53.221948],[63.561501,53.221948],[63.562551,53.221229],[63.563151,53.221588],[63.563901,53.221678],[63.564191,53.221331],[63.564216,53.221324],[63.564669,53.221459],[63.564852,53.221528],[63.564883,53.221523],[63.565101,53.221588],[63.565551,53.221229],[63.566001,53.221139],[63.566001,53.22069],[63.566301,53.22069],[63.566301,53.220331],[63.565851,53.219792],[63.565251,53.219612],[63.570951,53.216288],[63.569151,53.21512],[63.569151,53.214851],[63.569601,53.214671],[63.569601,53.214222],[63.569301,53.213953],[63.569601,53.213054],[63.573651,53.210719],[63.575301,53.211707],[63.577551,53.211707],[63.578601,53.211078],[63.580551,53.211078],[63.580851,53.210808],[63.584151,53.210898],[63.584451,53.211168],[63.584151,53.211437],[63.583851,53.212425],[63.582951,53.213054],[63.582651,53.213054],[63.581751,53.213503],[63.581751,53.214492],[63.581451,53.214581],[63.581151,53.21521],[63.580851,53.21539],[63.580851,53.216648],[63.581151,53.217276],[63.581601,53.217456],[63.581601,53.217636],[63.581151,53.217995],[63.580851,53.218893],[63.581751,53.220061],[63.581751,53.220331],[63.581301,53.2206],[63.576351,53.2206],[63.575751,53.22042],[63.573351,53.220331],[63.572901,53.2206],[63.572901,53.22087],[63.572451,53.221139]]]]}},{"type":"Feature","properties":{"slug":"perevalovka","name":"Переваловка","name_en":"Perevalovka","palette":10},"geometry":{"type":"MultiPolygon","coordinates":[[[[63.676699,53.230931],[63.676399,53.23111],[63.674899,53.23111],[63.673699,53.23147],[63.672199,53.232368],[63.671749,53.232907],[63.671299,53.233087],[63.671299,53.233266],[63.670849,53.233446],[63.670849,53.233626],[63.669799,53.234165],[63.669499,53.234614],[63.667099,53.236231],[63.665749,53.235422],[63.665449,53.235422],[63.663799,53.234434],[63.663799,53.234254],[63.663049,53.233805],[63.662749,53.233805],[63.660799,53.232548],[63.660199,53.232548],[63.659599,53.232278],[63.658549,53.232188],[63.657649,53.232817],[63.657499,53.233176],[63.656449,53.233715],[63.656449,53.233895],[63.655999,53.234165],[63.655549,53.234165],[63.654499,53.233536],[63.652849,53.232997],[63.6491,53.230751],[63.6491,53.230571],[63.6482,53.230032],[63.6479,53.229583],[63.64655,53.228685],[63.6455,53.227517],[63.6443,53.226709],[63.64355,53.22581],[63.6419,53.224642],[63.64385,53.223654],[63.64415,53.223654],[63.6446,53.223295],[63.6449,53.223295],[63.6455,53.222846],[63.6464,53.222576],[63.64685,53.222217],[63.64715,53.222217],[63.64805,53.221678],[63.6488,53.221498],[63.64955,53.220959],[63.64985,53.220959],[63.6503,53.2206],[63.6506,53.2206],[63.651049,53.220241],[63.651349,53.220241],[63.651799,53.219881],[63.653149,53.219432],[63.654049,53.218893],[63.654349,53.218893],[63.654799,53.219163],[63.654799,53.219342],[63.656299,53.22051],[63.657349,53.22051],[63.657799,53.220241],[63.661999,53.220331],[63.662749,53.219971],[63.675199,53.219971],[63.675371,53.220074],[63.675344,53.220125],[63.675445,53.220527],[63.675664,53.221019],[63.675561,53.22121],[63.674427,53.221793],[63.674548,53.221869],[63.674498,53.221908],[63.674346,53.221854],[63.673916,53.222293],[63.673756,53.222633],[63.673809,53.223174],[63.674373,53.223678],[63.675505,53.224552],[63.675651,53.224615],[63.676376,53.224772],[63.677007,53.224753],[63.677568,53.224639],[63.678589,53.224641],[63.679109,53.224469],[63.679399,53.224642],[63.679399,53.224822],[63.679099,53.224912],[63.679099,53.225541],[63.678799,53.225631],[63.678649,53.227248],[63.678199,53.228775],[63.678199,53.230571],[63.677749,53.230841],[63.676699,53.230931]]]]}},{"type":"Feature","properties":{"slug":"ksk","name":"КСК","name_en":"KSK","palette":4},"geometry":{"type":"MultiPolygon","coordinates":[[[[63.675499,53.256263],[63.673099,53.255544],[63.672649,53.255814],[63.671749,53.255994],[63.671599,53.256173],[63.670699,53.256353],[63.669499,53.257161],[63.668599,53.257431],[63.668299,53.2577],[63.667999,53.2577],[63.667099,53.258239],[63.667099,53.259677],[63.666649,53.259946],[63.665599,53.259317],[63.665299,53.259317],[63.663949,53.258419],[63.663649,53.258419],[63.662149,53.257431],[63.661549,53.257431],[63.661099,53.257161],[63.660049,53.256982],[63.656749,53.255005],[63.654499,53.255005],[63.651349,53.253209],[63.65075,53.253119],[63.6506,53.252939],[63.6488,53.2524],[63.64865,53.252221],[63.6464,53.251502],[63.6458,53.251143],[63.64325,53.250334],[63.6425,53.249885],[63.64175,53.249885],[63.64145,53.249705],[63.6413,53.249526],[63.64295,53.248627],[63.64295,53.248448],[63.64475,53.24746],[63.64475,53.24728],[63.64565,53.246741],[63.64625,53.246741],[63.64835,53.246112],[63.6491,53.245573],[63.655849,53.245573],[63.656149,53.245304],[63.657499,53.245034],[63.658849,53.244405],[63.659599,53.244315],[63.660499,53.243866],[63.662749,53.243238],[63.662899,53.243058],[63.663349,53.243058],[63.664249,53.242519],[63.664549,53.24198],[63.665749,53.241261],[63.666049,53.240722],[63.667999,53.239554],[63.667999,53.239375],[63.668749,53.239015],[63.668749,53.238836],[63.669799,53.238297],[63.669799,53.237848],[63.667099,53.236231],[63.669499,53.234614],[63.669799,53.234165],[63.670849,53.233626],[63.670849,53.233446],[63.671299,53.233266],[63.671299,53.233087],[63.671749,53.232907],[63.672199,53.232368],[63.673699,53.23147],[63.674899,53.23111],[63.676399,53.23111],[63.676699,53.230931],[63.677749,53.230841],[63.678199,53.230571],[63.678199,53.228775],[63.678649,53.227248],[63.678799,53.225631],[63.679099,53.225541],[63.679099,53.224912],[63.679399,53.224822],[63.679399,53.224642],[63.679109,53.224469],[63.67911,53.224468],[63.679493,53.22409],[63.680038,53.224132],[63.681156,53.22462],[63.681724,53.225221],[63.682152,53.226301],[63.682462,53.226699],[63.682548,53.227053],[63.682559,53.227456],[63.682819,53.227878],[63.682972,53.227985],[63.683505,53.228169],[63.684403,53.22858],[63.684802,53.228861],[63.685224,53.2293],[63.685952,53.230374],[63.68621,53.230647],[63.68579,53.231016],[63.68564,53.231856],[63.685928,53.232252],[63.686897,53.23276],[63.68749,53.232879],[63.688242,53.232869],[63.68879,53.232941],[63.690872,53.233557],[63.69147,53.23357],[63.691909,53.233475],[63.692105,53.233368],[63.692396,53.23302],[63.692586,53.232939],[63.692955,53.232914],[63.693372,53.232958],[63.693885,53.233193],[63.695497,53.233573],[63.696885,53.233623],[63.697618,53.233443],[63.698022,53.233237],[63.698139,53.233116],[63.698229,53.232774],[63.698067,53.232305],[63.698322,53.231827],[63.698271,53.230996],[63.697946,53.230557],[63.697391,53.229399],[63.697483,53.22867],[63.697575,53.228497],[63.698315,53.228085],[63.69847,53.22808],[63.698691,53.228108],[63.699059,53.228531],[63.699905,53.228862],[63.700276,53.229073],[63.700304,53.229274],[63.699909,53.229481],[63.699713,53.229893],[63.69986,53.230257],[63.699991,53.230385],[63.701311,53.230988],[63.701643,53.231222],[63.702904,53.231567],[63.703348,53.231869],[63.703845,53.232095],[63.705436,53.23239],[63.705619,53.2325],[63.705796,53.232713],[63.705873,53.232907],[63.705856,53.233035],[63.705686,53.233182],[63.705226,53.233911],[63.705135,53.234557],[63.70498,53.234792],[63.704614,53.235091],[63.704308,53.235493],[63.703662,53.235857],[63.702801,53.236181],[63.702282,53.236488],[63.70191,53.236939],[63.701887,53.237392],[63.702022,53.237717],[63.702524,53.238066],[63.702737,53.238283],[63.702808,53.238496],[63.702652,53.238974],[63.702289,53.239437],[63.702314,53.239797],[63.702981,53.240331],[63.702994,53.240685],[63.703289,53.241116],[63.703904,53.2416],[63.704764,53.24267],[63.705112,53.243329],[63.705217,53.243425],[63.705699,53.243637],[63.706433,53.243635],[63.706496,53.243744],[63.706775,53.243977],[63.707428,53.244223],[63.708718,53.244201],[63.709379,53.244306],[63.709431,53.244791],[63.709137,53.245467],[63.709129,53.245764],[63.709198,53.246023],[63.70979,53.246667],[63.709958,53.247006],[63.710407,53.247515],[63.710867,53.247714],[63.711578,53.247772],[63.711896,53.247863],[63.712066,53.248051],[63.71214,53.248347],[63.712547,53.248666],[63.713052,53.248818],[63.713586,53.248899],[63.714596,53.248868],[63.714639,53.24918],[63.714775,53.249322],[63.715334,53.249543],[63.716295,53.249836],[63.716433,53.250009],[63.716438,53.250154],[63.71605,53.250349],[63.715773,53.25063],[63.715769,53.250646],[63.715548,53.250514],[63.689899,53.250514],[63.687949,53.251502],[63.687649,53.251502],[63.687199,53.251861],[63.686899,53.251861],[63.686599,53.252131],[63.686299,53.252131],[63.685849,53.25249],[63.684949,53.25276],[63.684499,53.253119],[63.683599,53.253388],[63.683149,53.253748],[63.682849,53.253748],[63.682399,53.254107],[63.681499,53.254377],[63.681049,53.254736],[63.680149,53.255005],[63.678499,53.255904],[63.677149,53.255185],[63.675499,53.256263]],[[63.66331,53.255605],[63.663323,53.255443],[63.66234,53.254824],[63.662218,53.254824],[63.662025,53.254982],[63.662012,53.255144],[63.662128,53.25527],[63.662835,53.255712],[63.662963,53.255759],[63.663092,53.255751],[63.66331,53.255605]]]]}},{"type":"Feature","properties":{"slug":"zelenstroy","name":"Зеленстрой","name_en":"Zelenstroy","palette":12},"geometry":{"type":"MultiPolygon","coordinates":[[[[63.702949,53.274678],[63.701899,53.275397],[63.700399,53.275487],[63.698749,53.275038],[63.697849,53.274948],[63.695749,53.2736],[63.693649,53.273241],[63.691399,53.271894],[63.691399,53.271714],[63.696349,53.26875],[63.687349,53.26336],[63.682399,53.262372],[63.680449,53.261743],[63.679849,53.261743],[63.675499,53.264348],[63.670699,53.261563],[63.670399,53.261563],[63.669949,53.261204],[63.668599,53.261204],[63.666649,53.259946],[63.667099,53.259677],[63.667099,53.258239],[63.667999,53.2577],[63.668299,53.2577],[63.668599,53.257431],[63.669499,53.257161],[63.670699,53.256353],[63.671599,53.256173],[63.671749,53.255994],[63.672649,53.255814],[63.673099,53.255544],[63.675499,53.256263],[63.677149,53.255185],[63.678499,53.255904],[63.680149,53.255005],[63.681049,53.254736],[63.681499,53.254377],[63.682399,53.254107],[63.682849,53.253748],[63.683149,53.253748],[63.683599,53.253388],[63.684499,53.253119],[63.684949,53.25276],[63.685849,53.25249],[63.686299,53.252131],[63.686599,53.252131],[63.686899,53.251861],[63.687199,53.251861],[63.687649,53.251502],[63.687949,53.251502],[63.689899,53.250514],[63.715548,53.250514],[63.715769,53.250646],[63.715655,53.251083],[63.715977,53.251585],[63.716373,53.251846],[63.716705,53.251963],[63.716982,53.252259],[63.716713,53.252605],[63.716592,53.253053],[63.716322,53.253423],[63.716268,53.25421],[63.7168,53.255168],[63.717775,53.255899],[63.718711,53.256674],[63.718999,53.257255],[63.718909,53.257849],[63.718595,53.258114],[63.718424,53.258474],[63.71827,53.258648],[63.717537,53.258578],[63.717261,53.258612],[63.716888,53.258817],[63.716775,53.259109],[63.716946,53.259459],[63.717214,53.259768],[63.717275,53.259918],[63.717394,53.260496],[63.717306,53.260879],[63.71734,53.260998],[63.717646,53.26138],[63.718077,53.261616],[63.718607,53.261764],[63.718893,53.261891],[63.719158,53.262082],[63.719365,53.262322],[63.719928,53.263378],[63.719987,53.26371],[63.719938,53.263944],[63.719806,53.264146],[63.719228,53.264306],[63.718152,53.264823],[63.717685,53.265222],[63.717427,53.265971],[63.717339,53.266598],[63.717123,53.266887],[63.716669,53.267191],[63.716495,53.267394],[63.716465,53.267511],[63.716553,53.267817],[63.7178,53.269123],[63.718464,53.269462],[63.719308,53.269691],[63.720001,53.269783],[63.721328,53.269584],[63.721456,53.269599],[63.721535,53.26966],[63.721565,53.269762],[63.721455,53.269953],[63.721358,53.270011],[63.721036,53.269928],[63.720748,53.26994],[63.720167,53.270125],[63.719884,53.270331],[63.719797,53.270459],[63.719728,53.27119],[63.719927,53.271551],[63.720982,53.27211],[63.721396,53.272407],[63.722114,53.272548],[63.72264,53.272458],[63.722819,53.272378],[63.723029,53.272063],[63.7238,53.271346],[63.723933,53.271008],[63.723817,53.270724],[63.723937,53.270584],[63.724064,53.270526],[63.72425,53.270526],[63.72465,53.270702],[63.72518,53.271422],[63.725792,53.271688],[63.726604,53.271753],[63.72761,53.271706],[63.727662,53.271819],[63.726368,53.272239],[63.726246,53.272363],[63.726157,53.272639],[63.726192,53.272813],[63.726441,53.273069],[63.72699,53.273369],[63.727021,53.273489],[63.726676,53.274148],[63.726648,53.274481],[63.726815,53.274853],[63.727429,53.275198],[63.728042,53.275331],[63.730946,53.275532],[63.731209,53.275625],[63.731531,53.275892],[63.731868,53.276556],[63.732202,53.27681],[63.732777,53.277063],[63.733279,53.277146],[63.730876,53.277904],[63.733279,53.277146],[63.733904,53.27725],[63.733915,53.277257],[63.734098,53.277396],[63.734112,53.277403],[63.734112,53.277403],[63.734859,53.277759],[63.734859,53.27776],[63.734786,53.278011],[63.734811,53.278054],[63.734664,53.277994],[63.734421,53.278062],[63.734414,53.277934],[63.734343,53.277878],[63.734018,53.277934],[63.733692,53.277798],[63.733336,53.277894],[63.732865,53.277791],[63.73239,53.277937],[63.731949,53.277832],[63.731581,53.277936],[63.731234,53.277804],[63.730876,53.277904],[63.727998,53.278811],[63.727398,53.278811],[63.727098,53.27899],[63.725898,53.27917],[63.722598,53.27926],[63.721848,53.27908],[63.720948,53.27908],[63.720648,53.2789],[63.719898,53.278811],[63.721248,53.280428],[63.721248,53.280697],[63.721848,53.281236],[63.721848,53.281506],[63.722598,53.282224],[63.722598,53.282494],[63.723198,53.283033],[63.723198,53.283302],[63.723948,53.284021],[63.723948,53.28429],[63.724548,53.284829],[63.724548,53.285099],[63.722748,53.284021],[63.721848,53.284111],[63.720498,53.283302],[63.720198,53.283302],[63.707149,53.275397],[63.703549,53.274678],[63.702949,53.274678]]]]}},{"type":"Feature","properties":{"slug":"uzkaya-koleya","name":"Узкая Колея","name_en":"Uzkaya Koleya","palette":5},"geometry":{"type":"MultiPolygon","coordinates":[[[[63.656749,53.255005],[63.660049,53.256982],[63.661099,53.257161],[63.661549,53.257431],[63.662149,53.257431],[63.663649,53.258419],[63.663949,53.258419],[63.665299,53.259317],[63.665599,53.259317],[63.666649,53.259946],[63.668599,53.261204],[63.669949,53.261204],[63.670399,53.261563],[63.670699,53.261563],[63.675499,53.264348],[63.670699,53.267312],[63.679099,53.272253],[63.676549,53.27378],[63.676549,53.27405],[63.678049,53.274858],[63.677749,53.275487],[63.676849,53.275397],[63.676399,53.275128],[63.675199,53.275846],[63.671899,53.274858],[63.670099,53.275936],[63.666649,53.27378],[63.666349,53.27378],[63.665749,53.274229],[63.665449,53.274229],[63.663499,53.272972],[63.663199,53.272972],[63.655249,53.277822],[63.654949,53.277822],[63.653299,53.276745],[63.660499,53.272433],[63.653899,53.26857],[63.654649,53.268121],[63.654649,53.267941],[63.64355,53.261294],[63.64325,53.261294],[63.6356,53.265965],[63.63515,53.265785],[63.6326,53.267402],[63.63215,53.267312],[63.63095,53.268121],[63.6302,53.267761],[63.62855,53.268839],[63.62765,53.26857],[63.6239,53.266234],[63.623,53.266055],[63.62165,53.265426],[63.6212,53.265516],[63.6206,53.265066],[63.6203,53.265156],[63.61925,53.264438],[63.61895,53.264438],[63.61805,53.263899],[63.61985,53.262821],[63.61985,53.262641],[63.6233,53.260665],[63.6233,53.260485],[63.6329,53.254826],[63.6329,53.254646],[63.6215,53.247819],[63.6242,53.246202],[63.6257,53.245843],[63.62675,53.245124],[63.62735,53.245124],[63.62915,53.244046],[63.62975,53.244046],[63.63155,53.244585],[63.6341,53.246202],[63.6347,53.246292],[63.63605,53.246921],[63.6371,53.24719],[63.63845,53.247999],[63.6386,53.248358],[63.63905,53.248538],[63.63905,53.248807],[63.6398,53.249256],[63.6401,53.249256],[63.64085,53.249795],[63.64145,53.249705],[63.64175,53.249885],[63.6425,53.249885],[63.64325,53.250334],[63.6458,53.251143],[63.6464,53.251502],[63.64865,53.252221],[63.6488,53.2524],[63.6506,53.252939],[63.65075,53.253119],[63.651349,53.253209],[63.654499,53.255005],[63.656749,53.255005]]]]}},{"type":"Feature","properties":{"slug":"tobyl","name":"Тобыл","name_en":"Tobyl","palette":5},"geometry":{"type":"MultiPolygon","coordinates":[[[[63.689588,53.176381],[63.689488,53.176451],[63.689516,53.176589],[63.689362,53.176492],[63.689248,53.176482],[63.689143,53.17654],[63.689149,53.176681],[63.689001,53.176588],[63.688887,53.176578],[63.688782,53.176636],[63.688775,53.176769],[63.688531,53.176665],[63.688411,53.176721],[63.688401,53.176857],[63.688185,53.176752],[63.688078,53.176773],[63.688026,53.176843],[63.688037,53.177884],[63.688317,53.178109],[63.688355,53.178643],[63.688655,53.178849],[63.689204,53.180808],[63.689719,53.181092],[63.690597,53.181135],[63.690784,53.181389],[63.690996,53.181515],[63.691055,53.1819],[63.691296,53.182058],[63.691355,53.182262],[63.691596,53.18242],[63.691655,53.182624],[63.691896,53.182782],[63.691968,53.183002],[63.692196,53.183143],[63.692255,53.183347],[63.692496,53.183505],[63.692584,53.183741],[63.692796,53.183867],[63.692868,53.184088],[63.693096,53.184229],[63.693168,53.18445],[63.693396,53.184591],[63.693468,53.184993],[63.693696,53.185134],[63.693755,53.185338],[63.693996,53.185496],[63.694068,53.185716],[63.694296,53.185857],[63.694368,53.186078],[63.694646,53.18625],[63.695228,53.188285],[63.695374,53.18837],[63.696046,53.188528],[63.696168,53.18886],[63.696677,53.189075],[63.696798,53.189362],[63.697339,53.189503],[63.697629,53.190119],[63.698159,53.190328],[63.69834,53.190653],[63.698752,53.190715],[63.699062,53.190892],[63.699164,53.191371],[63.699964,53.191617],[63.700097,53.192076],[63.700271,53.192138],[63.701119,53.192183],[63.701317,53.192451],[63.701781,53.192587],[63.701897,53.192981],[63.702381,53.19313],[63.702497,53.193523],[63.702671,53.193585],[63.703116,53.193597],[63.703278,53.193669],[63.703367,53.193858],[63.703628,53.194065],[63.703652,53.195649],[63.703842,53.195753],[63.704424,53.195805],[63.704583,53.196044],[63.704862,53.19617],[63.70517,53.196461],[63.707522,53.196484],[63.707761,53.196418],[63.707835,53.195677],[63.708095,53.195482],[63.708166,53.195243],[63.708691,53.195012],[63.708762,53.194744],[63.709077,53.194554],[63.709344,53.193969],[63.709891,53.193745],[63.70995,53.193497],[63.710287,53.1933],[63.710814,53.192362],[63.711337,53.19216],[63.711482,53.191909],[63.711682,53.191833],[63.712557,53.191963],[63.71298,53.192185],[63.713781,53.192821],[63.714326,53.19288],[63.714618,53.193034],[63.716858,53.193046],[63.717238,53.192879],[63.717539,53.192867],[63.717892,53.193027],[63.71823,53.19308],[63.718422,53.193246],[63.718718,53.193361],[63.718768,53.193547],[63.718381,53.193898],[63.717863,53.193982],[63.71767,53.194142],[63.717153,53.194354],[63.717136,53.195796],[63.71748,53.195984],[63.718281,53.19662],[63.718824,53.196698],[63.719039,53.196889],[63.719761,53.19719],[63.719852,53.198362],[63.719988,53.198452],[63.720326,53.198488],[63.720701,53.198654],[63.722858,53.198654],[63.723093,53.198559],[63.723142,53.19584],[63.723487,53.195571],[63.723976,53.19539],[63.724097,53.195019],[63.724893,53.194663],[63.724952,53.194375],[63.725227,53.194149],[63.725253,53.193088],[63.725757,53.192871],[63.725882,53.19257],[63.726199,53.192446],[63.727088,53.191789],[63.727399,53.191834],[63.728434,53.192614],[63.728614,53.192681],[63.732239,53.192686],[63.732736,53.192866],[63.734858,53.192865],[63.735226,53.192716],[63.735455,53.192723],[63.7385,53.194671],[63.740916,53.194667],[63.741078,53.194594],[63.741244,53.194352],[63.74176,53.194257],[63.742068,53.193951],[63.74265,53.193827],[63.742873,53.193849],[63.742999,53.193943],[63.743244,53.194476],[63.743843,53.194723],[63.744128,53.195366],[63.744692,53.195605],[63.744717,53.196043],[63.744577,53.196149],[63.743957,53.196285],[63.743707,53.196464],[63.743244,53.196516],[63.742888,53.196824],[63.742344,53.196878],[63.741975,53.197209],[63.740884,53.197389],[63.740514,53.197719],[63.739944,53.197783],[63.739614,53.198081],[63.73907,53.198136],[63.738713,53.198463],[63.738007,53.19862],[63.737851,53.198718],[63.737835,53.200138],[63.737963,53.200253],[63.738381,53.200367],[63.738429,53.200646],[63.738341,53.200774],[63.737957,53.200857],[63.737824,53.200986],[63.737689,53.203945],[63.73769,53.204072],[63.737762,53.204127],[63.737878,53.204134],[63.738059,53.204072],[63.738058,53.204242],[63.738146,53.204305],[63.7378,53.206661],[63.737414,53.207715],[63.736768,53.208761],[63.735763,53.209952],[63.735382,53.210106],[63.735463,53.209015],[63.735471,53.209013],[63.735463,53.209015],[63.735378,53.210155],[63.73482,53.210278],[63.734488,53.210575],[63.733944,53.210629],[63.733588,53.210937],[63.733214,53.210973],[63.732926,53.211157],[63.732542,53.21124],[63.732354,53.211281],[63.732464,53.211257],[63.732168,53.211321],[63.731775,53.211683],[63.73066,53.211872],[63.730314,53.212193],[63.729744,53.212257],[63.729414,53.212555],[63.728844,53.212619],[63.728514,53.212917],[63.727944,53.212981],[63.727638,53.213268],[63.727044,53.213343],[63.726661,53.213659],[63.726144,53.213705],[63.725814,53.214002],[63.725223,53.214065],[63.724635,53.214546],[63.724044,53.214609],[63.723738,53.214896],[63.723144,53.214971],[63.722814,53.215269],[63.722244,53.215333],[63.721938,53.21562],[63.721344,53.215695],[63.720988,53.216003],[63.720444,53.216057],[63.720114,53.216355],[63.71957,53.21641],[63.719214,53.216716],[63.71862,53.216791],[63.718314,53.217078],[63.71772,53.217153],[63.717414,53.21744],[63.716844,53.217504],[63.716514,53.217802],[63.715944,53.217866],[63.715614,53.218164],[63.715044,53.218228],[63.714684,53.21855],[63.712944,53.218753],[63.712359,53.21924],[63.711723,53.219312],[63.711159,53.219783],[63.710714,53.219838],[63.710223,53.220036],[63.709659,53.220507],[63.70907,53.220571],[63.708651,53.220864],[63.70796,53.220754],[63.707586,53.220551],[63.705619,53.220547],[63.705122,53.220367],[63.703571,53.220371],[63.70311,53.220548],[63.702289,53.220544],[63.701857,53.220368],[63.697601,53.220368],[63.697155,53.220557],[63.69427,53.220708],[63.694036,53.220566],[63.694028,53.219973],[63.693918,53.21985],[63.690566,53.219628],[63.690431,53.219494],[63.690364,53.218757],[63.689635,53.218576],[63.689392,53.218406],[63.689056,53.218343],[63.688824,53.218008],[63.688135,53.217852],[63.687758,53.217654],[63.686692,53.217668],[63.686404,53.217693],[63.686354,53.217757],[63.686401,53.217898],[63.686158,53.217905],[63.686057,53.217974],[63.686098,53.218128],[63.686005,53.218613],[63.685905,53.218795],[63.686009,53.219048],[63.6858,53.219186],[63.686014,53.219323],[63.685828,53.219384],[63.685778,53.219453],[63.685986,53.219584],[63.685855,53.219627],[63.685774,53.21972],[63.685817,53.219786],[63.686012,53.219868],[63.68583,53.220028],[63.686052,53.22016],[63.68585,53.220311],[63.686066,53.220446],[63.68586,53.220596],[63.686069,53.220734],[63.685857,53.220879],[63.686061,53.221028],[63.685827,53.22114],[63.684317,53.220451],[63.682665,53.220413],[63.679559,53.220576],[63.6793,53.220128],[63.678986,53.218275],[63.677955,53.217574],[63.677869,53.217041],[63.677538,53.2164],[63.677147,53.215378],[63.677307,53.214463],[63.677275,53.213835],[63.676567,53.213452],[63.675864,53.213182],[63.67513,53.212818],[63.674546,53.211954],[63.674089,53.211001],[63.673204,53.210081],[63.672967,53.209239],[63.672521,53.208563],[63.671667,53.2076],[63.669826,53.206576],[63.670138,53.206562],[63.670189,53.206364],[63.670507,53.206353],[63.670572,53.206157],[63.670892,53.206156],[63.670978,53.205961],[63.671318,53.205958],[63.671427,53.205754],[63.671777,53.205757],[63.671915,53.205563],[63.672276,53.205577],[63.672449,53.205393],[63.672813,53.205424],[63.673017,53.205244],[63.673355,53.205284],[63.673472,53.205099],[63.673777,53.20514],[63.673934,53.204956],[63.674252,53.205012],[63.674431,53.204843],[63.674732,53.204908],[63.674982,53.204745],[63.675322,53.204832],[63.675669,53.204709],[63.676075,53.20483],[63.676455,53.204721],[63.676798,53.204852],[63.677182,53.204751],[63.677731,53.204964],[63.677732,53.204964],[63.677918,53.2052],[63.678723,53.205556],[63.679004,53.2065],[63.67902,53.206509],[63.679005,53.2065],[63.678731,53.205577],[63.67922,53.205946],[63.679367,53.206396],[63.680678,53.207449],[63.680825,53.207703],[63.681164,53.207933],[63.681253,53.208097],[63.681282,53.208506],[63.681638,53.209029],[63.681732,53.209068],[63.68206,53.209075],[63.682186,53.209277],[63.682602,53.209308],[63.682737,53.209498],[63.682858,53.209538],[63.68304,53.20954],[63.683176,53.209687],[63.683011,53.210495],[63.683393,53.210758],[63.683907,53.210778],[63.684175,53.210686],[63.684388,53.210314],[63.684682,53.210152],[63.684753,53.209935],[63.684996,53.209775],[63.685086,53.209587],[63.685496,53.20948],[63.685617,53.209383],[63.685636,53.208704],[63.685928,53.208443],[63.685936,53.207799],[63.686228,53.207538],[63.686216,53.207286],[63.68593,53.207027],[63.685953,53.206859],[63.686224,53.20665],[63.686223,53.206038],[63.685964,53.205845],[63.685842,53.205584],[63.6853,53.205454],[63.685015,53.20501],[63.684164,53.20476],[63.684143,53.204524],[63.684428,53.204281],[63.684408,53.203655],[63.684106,53.203469],[63.683831,53.20285],[63.683283,53.202627],[63.683205,53.202384],[63.682964,53.202226],[63.682876,53.20199],[63.682664,53.201864],[63.682592,53.201394],[63.682067,53.201163],[63.681981,53.200678],[63.681164,53.200418],[63.681123,53.199886],[63.680843,53.199661],[63.680823,53.198981],[63.680552,53.198772],[63.680543,53.198553],[63.680808,53.19836],[63.680884,53.197991],[63.68118,53.197863],[63.681421,53.197613],[63.681896,53.197539],[63.68203,53.197385],[63.682028,53.195743],[63.681743,53.1955],[63.681708,53.19497],[63.681408,53.194757],[63.681153,53.193711],[63.680767,53.19354],[63.679678,53.192727],[63.679098,53.192619],[63.678992,53.192348],[63.678501,53.192147],[63.67832,53.191821],[63.677821,53.191737],[63.67745,53.19141],[63.676467,53.19125],[63.676242,53.191025],[63.675481,53.190698],[63.675453,53.190264],[63.675589,53.190173],[63.675944,53.190098],[63.676022,53.189931],[63.675765,53.189743],[63.675692,53.189521],[63.675452,53.189364],[63.675405,53.188995],[63.675179,53.188852],[63.675092,53.188616],[63.674852,53.188459],[63.674808,53.188095],[63.674477,53.187886],[63.674029,53.187064],[63.674842,53.186363],[63.675745,53.186222],[63.675971,53.186295],[63.676158,53.186551],[63.676931,53.186728],[63.677459,53.187191],[63.677632,53.187253],[63.679988,53.187253],[63.680447,53.18702],[63.680528,53.186912],[63.680507,53.185017],[63.680371,53.184927],[63.680023,53.184855],[63.679882,53.184626],[63.679619,53.184486],[63.679331,53.183852],[63.678729,53.183605],[63.678444,53.182963],[63.677883,53.182725],[63.677808,53.182486],[63.677501,53.182309],[63.677229,53.181853],[63.676634,53.181603],[63.676358,53.180342],[63.676014,53.180109],[63.675761,53.179072],[63.675451,53.178856],[63.675396,53.178489],[63.675095,53.178303],[63.674936,53.177758],[63.675188,53.177654],[63.67908,53.177496],[63.679529,53.177307],[63.682496,53.177275],[63.68263,53.177121],[63.682628,53.175478],[63.682317,53.17521],[63.682093,53.173238],[63.682356,53.173144],[63.68415,53.173146],[63.684457,53.173112],[63.684444,53.17292],[63.684758,53.172886],[63.684746,53.172694],[63.68506,53.17266],[63.685047,53.172468],[63.685359,53.172436],[63.685359,53.172242],[63.685676,53.17221],[63.685676,53.172016],[63.685993,53.171985],[63.685993,53.171791],[63.686306,53.171773],[63.686342,53.171581],[63.686661,53.171577],[63.686697,53.171392],[63.687017,53.171398],[63.68706,53.171219],[63.687377,53.171245],[63.687444,53.171064],[63.687735,53.17111],[63.687812,53.171058],[63.687827,53.170923],[63.688119,53.170973],[63.688224,53.170795],[63.68852,53.170855],[63.688629,53.170679],[63.688809,53.170748],[63.688924,53.170744],[63.689036,53.170573],[63.68922,53.170651],[63.689335,53.170647],[63.689459,53.170481],[63.689733,53.170562],[63.689822,53.170521],[63.689884,53.170395],[63.690158,53.170483],[63.690324,53.170323],[63.69057,53.170412],[63.690683,53.170375],[63.690778,53.170242],[63.690982,53.170313],[63.691099,53.170308],[63.691245,53.170153],[63.691427,53.170232],[63.691558,53.170231],[63.691664,53.170131],[63.691657,53.170056],[63.691832,53.170129],[63.691945,53.170127],[63.69203,53.17006],[63.691994,53.169926],[63.692183,53.170001],[63.692338,53.169969],[63.692331,53.169795],[63.69252,53.169873],[63.692667,53.169848],[63.692669,53.169665],[63.692835,53.169749],[63.692961,53.16975],[63.693047,53.169683],[63.69301,53.169545],[63.693177,53.169631],[63.693303,53.169631],[63.693389,53.169565],[63.693351,53.169427],[63.693518,53.169513],[63.693631,53.169517],[63.69373,53.169447],[63.693693,53.169309],[63.69386,53.169394],[63.693973,53.169398],[63.694072,53.169329],[63.694035,53.16919],[63.694272,53.169285],[63.694385,53.16925],[63.694413,53.169176],[63.694806,53.170287],[63.694771,53.170338],[63.694181,53.171196],[63.694382,53.171743],[63.697178,53.173606],[63.697178,53.173606],[63.697191,53.173614],[63.697915,53.173906],[63.697915,53.173906],[63.697649,53.173839],[63.697549,53.173899],[63.697544,53.174028],[63.697349,53.173958],[63.697213,53.173983],[63.69717,53.17415],[63.696989,53.174081],[63.696875,53.174088],[63.696802,53.174142],[63.696797,53.174271],[63.696615,53.174203],[63.696501,53.17421],[63.696428,53.174264],[63.696423,53.174392],[63.696247,53.174322],[63.69613,53.174328],[63.696055,53.174382],[63.696049,53.17451],[63.695885,53.174432],[63.695755,53.174435],[63.695681,53.174489],[63.695675,53.174616],[63.695522,53.17453],[63.69538,53.174529],[63.695303,53.174592],[63.695325,53.174725],[63.695142,53.174618],[63.695003,53.174621],[63.694927,53.1747],[63.694989,53.174842],[63.694821,53.174737],[63.694682,53.174732],[63.694594,53.174806],[63.694642,53.174949],[63.694483,53.174849],[63.694368,53.17484],[63.69426,53.174908],[63.694295,53.175054],[63.69405,53.174942],[63.693916,53.175005],[63.693947,53.17516],[63.693775,53.175056],[63.693608,53.175073],[63.6936,53.175265],[63.693427,53.175161],[63.693272,53.175172],[63.693215,53.175234],[63.693252,53.175371],[63.693093,53.175271],[63.69295,53.175268],[63.692868,53.175339],[63.692905,53.175476],[63.692675,53.175364],[63.692532,53.175419],[63.692544,53.175573],[63.692393,53.175479],[63.69225,53.175475],[63.692167,53.175546],[63.692205,53.175684],[63.692031,53.175574],[63.691888,53.175571],[63.691804,53.175651],[63.69188,53.175805],[63.691689,53.175684],[63.691547,53.17568],[63.691463,53.175768],[63.691556,53.175926],[63.691365,53.175805],[63.69121,53.175805],[63.691139,53.175889],[63.691232,53.176047],[63.691041,53.175926],[63.690899,53.175922],[63.690814,53.176001],[63.690895,53.176159],[63.690717,53.176047],[63.690575,53.176043],[63.69049,53.176122],[63.690557,53.176271],[63.690389,53.176165],[63.690247,53.176162],[63.690162,53.17624],[63.690219,53.176383],[63.690024,53.17627],[63.689853,53.176302],[63.68987,53.176487],[63.689714,53.176389],[63.689588,53.176381]],[[63.682433,53.217377],[63.682433,53.217377],[63.682197,53.217006],[63.682196,53.217003],[63.682167,53.216623],[63.682134,53.2166],[63.682134,53.2166],[63.682134,53.2166],[63.682018,53.216516],[63.681765,53.216552],[63.681409,53.216872],[63.68129,53.217237],[63.681469,53.217762],[63.68148,53.217774],[63.68148,53.217774],[63.68148,53.217774],[63.681899,53.218224],[63.682211,53.218375],[63.682701,53.21834],[63.683028,53.218171],[63.683058,53.217993],[63.682456,53.217401],[63.682433,53.217377]],[[63.703973,53.214692],[63.704185,53.21473],[63.704884,53.214372],[63.704977,53.214096],[63.704958,53.213501],[63.704645,53.213473],[63.704249,53.213633],[63.703954,53.21344],[63.70412,53.213087],[63.703605,53.212541],[63.703024,53.212117],[63.702896,53.211786],[63.702159,53.211312],[63.701487,53.211229],[63.700897,53.211378],[63.700667,53.211758],[63.703973,53.214692]]]]}},{"type":"Feature","properties":{"slug":"zarechnoe","name":"Заречное","name_en":"Zarechnoye","palette":8},"geometry":{"type":"MultiPolygon","coordinates":[[[[63.734566,53.210506],[63.734566,53.210506],[63.734605,53.21047],[63.734605,53.21047],[63.734605,53.21047],[63.734628,53.21045],[63.734645,53.210435],[63.734645,53.210435],[63.734678,53.210406],[63.734698,53.210398],[63.73474,53.210393],[63.734959,53.210311],[63.73547,53.210375],[63.736564,53.210608],[63.736916,53.210557],[63.752375,53.218632],[63.755039,53.219951],[63.759326,53.222219],[63.7594,53.22236],[63.759628,53.222384],[63.759417,53.222448],[63.759364,53.222517],[63.759442,53.222596],[63.759687,53.222619],[63.759485,53.222676],[63.759432,53.222746],[63.759499,53.22282],[63.759702,53.222861],[63.75951,53.222916],[63.759458,53.222977],[63.759492,53.223042],[63.759663,53.223116],[63.759663,53.223116],[63.759713,53.223136],[63.759766,53.223798],[63.759874,53.22392],[63.761293,53.223962],[63.761529,53.224057],[63.761541,53.224442],[63.761074,53.224684],[63.757926,53.224684],[63.757617,53.224717],[63.757608,53.224825],[63.757837,53.22491],[63.757597,53.224914],[63.757494,53.224983],[63.757535,53.225065],[63.757745,53.225136],[63.757495,53.22514],[63.7574,53.225202],[63.75744,53.22529],[63.757652,53.225363],[63.757404,53.22536],[63.757294,53.225423],[63.757334,53.225512],[63.757546,53.225587],[63.757284,53.225577],[63.757175,53.225641],[63.757205,53.225723],[63.757425,53.22581],[63.757163,53.225795],[63.757054,53.225861],[63.757089,53.225943],[63.757292,53.226028],[63.75703,53.226004],[63.756906,53.226069],[63.756935,53.226152],[63.757154,53.226244],[63.756876,53.226213],[63.756752,53.226279],[63.756781,53.226361],[63.757016,53.22646],[63.756721,53.226423],[63.756597,53.226488],[63.756627,53.22657],[63.756869,53.226672],[63.756567,53.226632],[63.756443,53.226697],[63.756472,53.22678],[63.756715,53.226881],[63.756419,53.226841],[63.756289,53.226904],[63.756317,53.226988],[63.756561,53.22709],[63.756259,53.227044],[63.756125,53.227102],[63.756149,53.227192],[63.756407,53.2273],[63.756089,53.227247],[63.755954,53.227305],[63.755979,53.227395],[63.756249,53.227509],[63.755933,53.22745],[63.755806,53.227485],[63.7558,53.227591],[63.756077,53.227715],[63.755734,53.227654],[63.755605,53.227753],[63.7559,53.22792],[63.755607,53.227857],[63.755465,53.227891],[63.75546,53.227997],[63.755713,53.228119],[63.755437,53.22806],[63.755304,53.228087],[63.755282,53.228193],[63.755525,53.228318],[63.755259,53.228261],[63.755126,53.228288],[63.755104,53.228394],[63.755337,53.228517],[63.755071,53.22846],[63.754949,53.228481],[63.754916,53.228593],[63.755149,53.228716],[63.754785,53.22867],[63.754722,53.228784],[63.754948,53.228912],[63.754652,53.228858],[63.754523,53.22894],[63.754743,53.229107],[63.754584,53.229133],[63.754507,53.229257],[63.754795,53.229441],[63.754685,53.22968],[63.754922,53.229916],[63.754769,53.230184],[63.754968,53.230416],[63.754716,53.230767],[63.754711,53.231066],[63.754833,53.231212],[63.754561,53.23165],[63.754777,53.231959],[63.754618,53.232263],[63.754701,53.232421],[63.754691,53.232628],[63.754767,53.232766],[63.754919,53.232859],[63.755066,53.233187],[63.755586,53.233437],[63.756043,53.234003],[63.756523,53.234287],[63.756564,53.234585],[63.75691,53.234764],[63.757,53.235118],[63.757362,53.235355],[63.757361,53.235632],[63.757681,53.235802],[63.757593,53.236031],[63.757878,53.23621],[63.757778,53.236444],[63.758041,53.236636],[63.757898,53.236849],[63.758115,53.237043],[63.757938,53.23725],[63.75814,53.237455],[63.757948,53.237677],[63.758176,53.237851],[63.758001,53.23803],[63.758221,53.238209],[63.758016,53.238379],[63.758203,53.238561],[63.75799,53.238725],[63.758148,53.238914],[63.757909,53.239071],[63.758072,53.239258],[63.757855,53.239387],[63.758043,53.23955],[63.757816,53.239683],[63.757996,53.239848],[63.757745,53.239976],[63.757901,53.240142],[63.757643,53.240272],[63.757781,53.240444],[63.757513,53.240541],[63.757611,53.240738],[63.757332,53.240835],[63.757413,53.241038],[63.757118,53.241129],[63.757167,53.241327],[63.756855,53.241406],[63.756839,53.24163],[63.756506,53.241697],[63.75646,53.241919],[63.756103,53.241982],[63.755952,53.242216],[63.755522,53.242255],[63.75522,53.242403],[63.754726,53.242519],[63.754264,53.242527],[63.753959,53.242747],[63.753432,53.242751],[63.752872,53.242817],[63.752815,53.242831],[63.752782,53.24285],[63.751988,53.243469],[63.751553,53.243515],[63.751079,53.243714],[63.750723,53.244022],[63.750134,53.244085],[63.749545,53.244566],[63.749095,53.244579],[63.748692,53.244407],[63.746235,53.244407],[63.745841,53.244598],[63.744677,53.244743],[63.744515,53.244816],[63.74447,53.246792],[63.744783,53.247015],[63.745023,53.247716],[63.745331,53.247911],[63.745378,53.24826],[63.745664,53.248519],[63.745613,53.248849],[63.745198,53.24896],[63.74507,53.249075],[63.745064,53.250553],[63.745145,53.250743],[63.744985,53.250899],[63.744649,53.250934],[63.744381,53.251081],[63.744023,53.251123],[63.743704,53.251297],[63.742228,53.251423],[63.741954,53.251239],[63.741232,53.250938],[63.7411,53.250627],[63.740792,53.250506],[63.739389,53.249502],[63.737154,53.249471],[63.736801,53.249311],[63.736393,53.249252],[63.736093,53.248826],[63.735737,53.248651],[63.735467,53.247924],[63.735276,53.247848],[63.734593,53.247805],[63.734186,53.247322],[63.731535,53.247302],[63.731128,53.247475],[63.730316,53.247543],[63.73013,53.247498],[63.729798,53.247253],[63.729762,53.245112],[63.729464,53.244817],[63.729487,53.244649],[63.729762,53.244423],[63.729764,53.241155],[63.729465,53.240855],[63.729457,53.239666],[63.729165,53.239407],[63.72915,53.23802],[63.728877,53.237813],[63.728839,53.23746],[63.728598,53.237302],[63.728539,53.237098],[63.728298,53.23694],[63.728239,53.236736],[63.727998,53.236578],[63.727939,53.236374],[63.727698,53.236216],[63.727639,53.236012],[63.727398,53.235854],[63.727326,53.235634],[63.727098,53.235493],[63.727026,53.235272],[63.726813,53.235146],[63.726726,53.23491],[63.726486,53.234753],[63.72643,53.234553],[63.726122,53.234376],[63.725622,53.233477],[63.725285,53.23328],[63.725239,53.232937],[63.724998,53.232779],[63.724939,53.232575],[63.724698,53.232417],[63.724639,53.232213],[63.724398,53.232055],[63.724339,53.231851],[63.724098,53.231693],[63.724039,53.231489],[63.723798,53.231331],[63.723739,53.231127],[63.723498,53.230969],[63.723426,53.230749],[63.723198,53.230608],[63.723139,53.230404],[63.722898,53.230246],[63.722839,53.230042],[63.722598,53.229884],[63.722539,53.22968],[63.722298,53.229522],[63.722239,53.229318],[63.721998,53.22916],[63.721939,53.228956],[63.721698,53.228798],[63.721639,53.228594],[63.721398,53.228436],[63.721326,53.228216],[63.721098,53.228075],[63.721039,53.227871],[63.720798,53.227713],[63.72071,53.227477],[63.720498,53.227351],[63.720426,53.22713],[63.720198,53.226989],[63.720126,53.226768],[63.719898,53.226627],[63.719826,53.226406],[63.719598,53.226265],[63.719528,53.226047],[63.719293,53.225952],[63.717378,53.225943],[63.717216,53.225871],[63.717127,53.225682],[63.716887,53.225525],[63.716879,53.224743],[63.717373,53.224522],[63.717463,53.22441],[63.717488,53.222893],[63.718874,53.222194],[63.719029,53.221808],[63.719758,53.221616],[63.719862,53.22141],[63.719472,53.221048],[63.719017,53.220876],[63.718889,53.220494],[63.71782,53.219995],[63.717689,53.21959],[63.71662,53.21909],[63.716499,53.218732],[63.715641,53.218496],[63.715453,53.218247],[63.71551,53.218176],[63.715614,53.218164],[63.7158,53.217996],[63.716193,53.217838],[63.716514,53.217802],[63.7167,53.217634],[63.717093,53.217476],[63.717414,53.21744],[63.717588,53.217277],[63.717977,53.217121],[63.718314,53.217078],[63.718488,53.216915],[63.718877,53.216759],[63.719214,53.216716],[63.719416,53.216542],[63.719804,53.216386],[63.720114,53.216355],[63.720301,53.216186],[63.720681,53.216033],[63.720988,53.216003],[63.721189,53.215829],[63.721604,53.215662],[63.721938,53.21562],[63.72211,53.215459],[63.722492,53.215305],[63.722814,53.215269],[63.723,53.215101],[63.723405,53.214938],[63.723738,53.214896],[63.723909,53.214735],[63.724287,53.214583],[63.724635,53.214546],[63.724882,53.214344],[63.725704,53.214014],[63.725814,53.214002],[63.725879,53.213943],[63.726566,53.213667],[63.726661,53.213659],[63.726731,53.213601],[63.727523,53.213283],[63.727638,53.213268],[63.727697,53.213212],[63.7284,53.21293],[63.728514,53.212917],[63.72858,53.212857],[63.7293,53.212568],[63.729414,53.212555],[63.72948,53.212496],[63.730201,53.212206],[63.730314,53.212193],[63.730376,53.212135],[63.731302,53.211763],[63.731775,53.211683],[63.731988,53.211487],[63.73235,53.211341],[63.73235,53.211341],[63.73235,53.211341],[63.732672,53.211212],[63.732926,53.211157],[63.733125,53.21103],[63.733194,53.211002],[63.733126,53.211029],[63.733192,53.210989],[63.733266,53.210973],[63.733283,53.210966],[63.733348,53.21096],[63.733365,53.210958],[63.733369,53.210958],[63.733392,53.210956],[63.733407,53.210954],[63.733425,53.210952],[63.73343,53.210952],[63.73343,53.210952],[63.733469,53.210948],[63.733492,53.210946],[63.733492,53.210946],[63.733554,53.21094],[63.733554,53.21094],[63.733588,53.210937],[63.73379,53.210763],[63.73418,53.210605],[63.734488,53.210575],[63.734509,53.210556],[63.734509,53.210556],[63.734518,53.210548],[63.734526,53.210541],[63.734548,53.210521],[63.734549,53.21052],[63.734566,53.210506]],[[63.753227,53.230412],[63.753188,53.230398],[63.752944,53.230272],[63.752911,53.230238],[63.752569,53.230209],[63.752558,53.230207],[63.752556,53.230207],[63.752272,53.230117],[63.751269,53.22991],[63.751269,53.22991],[63.751269,53.22991],[63.751249,53.229906],[63.75107,53.229901],[63.750821,53.22993],[63.750277,53.230103],[63.750143,53.230162],[63.749084,53.230629],[63.74908,53.23063],[63.748891,53.230544],[63.7489,53.23068],[63.74838,53.231006],[63.748342,53.231029],[63.748294,53.231146],[63.748339,53.231367],[63.748537,53.231552],[63.748541,53.231555],[63.748522,53.23166],[63.748429,53.232186],[63.748507,53.232401],[63.74893,53.232732],[63.748945,53.232744],[63.748986,53.23279],[63.749293,53.233133],[63.749555,53.233316],[63.749778,53.233472],[63.750296,53.234031],[63.750302,53.23404],[63.750968,53.2346],[63.750972,53.234603],[63.750972,53.234603],[63.750972,53.234603],[63.753498,53.236396],[63.753864,53.236459],[63.753868,53.23646],[63.753891,53.236469],[63.754356,53.236648],[63.754541,53.236617],[63.754681,53.236534],[63.755265,53.235953],[63.755478,53.235526],[63.755495,53.235173],[63.755286,53.23509],[63.755285,53.23509],[63.755391,53.23466],[63.755428,53.234632],[63.755398,53.234598],[63.755394,53.234366],[63.7554,53.234318],[63.755302,53.234269],[63.755301,53.234268],[63.755301,53.234267],[63.755305,53.234109],[63.755187,53.234076],[63.755186,53.234076],[63.755182,53.234065],[63.755111,53.233844],[63.754927,53.233738],[63.754924,53.233737],[63.754821,53.233592],[63.754822,53.233588],[63.754837,53.23344],[63.754612,53.233122],[63.754595,53.233098],[63.754594,53.233093],[63.754571,53.232944],[63.754312,53.232697],[63.754298,53.232683],[63.754298,53.23268],[63.754329,53.232448],[63.753901,53.231897],[63.75379,53.231754],[63.753791,53.231747],[63.75383,53.231517],[63.753587,53.231249],[63.75358,53.231241],[63.75358,53.231226],[63.753588,53.230767],[63.753227,53.230412]]]]}},{"type":"Feature","properties":{"slug":"michurinskoe","name":"Мичуринское","name_en":"Michurinskoye","palette":10},"geometry":{"type":"MultiPolygon","coordinates":[[[[63.646937,53.180533],[63.646061,53.179657],[63.645907,53.179656],[63.643854,53.180379],[63.641501,53.178726],[63.641729,53.178705],[63.641758,53.178532],[63.641972,53.178564],[63.64209,53.178536],[63.642128,53.178356],[63.642447,53.178367],[63.642498,53.178183],[63.642818,53.178199],[63.642869,53.178015],[63.643188,53.178031],[63.643239,53.177847],[63.643492,53.177882],[63.643613,53.177792],[63.643611,53.17771],[63.643502,53.177604],[63.642988,53.177398],[63.642815,53.177065],[63.643869,53.176231],[63.644541,53.176152],[63.645347,53.175521],[63.645506,53.175467],[63.646041,53.175496],[63.646847,53.176128],[63.647036,53.176185],[63.649675,53.176182],[63.650021,53.175988],[63.650771,53.175831],[63.651387,53.175323],[63.652065,53.175237],[63.652869,53.174603],[63.653523,53.174527],[63.654116,53.174029],[63.654951,53.173816],[63.65503,53.172696],[63.65515,53.172598],[63.655458,53.172546],[63.655726,53.1724],[63.661785,53.172395],[63.662079,53.172548],[63.662564,53.172613],[63.663392,53.173258],[63.664064,53.173337],[63.664892,53.173981],[63.665564,53.17406],[63.666392,53.174705],[63.667064,53.174784],[63.667892,53.175429],[63.668564,53.175508],[63.669392,53.176152],[63.670064,53.176231],[63.670892,53.176876],[63.671564,53.176955],[63.672392,53.1776],[63.674545,53.177635],[63.674728,53.177687],[63.674854,53.177903],[63.675008,53.178003],[63.675095,53.178303],[63.675396,53.178489],[63.675451,53.178856],[63.67575,53.179065],[63.675985,53.180029],[63.675997,53.180037],[63.676014,53.180109],[63.67635,53.180338],[63.67662,53.181569],[63.676627,53.181572],[63.676634,53.181603],[63.67717,53.181828],[63.677254,53.182132],[63.677444,53.182212],[63.677501,53.182309],[63.677807,53.182485],[63.677841,53.18259],[63.677841,53.182591],[63.677883,53.182725],[63.678201,53.18286],[63.678225,53.182925],[63.678114,53.183028],[63.677785,53.183118],[63.677486,53.183415],[63.67637,53.183605],[63.676025,53.183923],[63.67555,53.183997],[63.675085,53.184203],[63.674801,53.184477],[63.674401,53.184523],[63.674025,53.184689],[63.673702,53.184646],[63.673526,53.184467],[63.672206,53.183827],[63.672093,53.183536],[63.671931,53.183438],[63.669687,53.183425],[63.669333,53.183585],[63.669063,53.183604],[63.668875,53.183548],[63.668706,53.183381],[63.668218,53.183194],[63.66737,53.183251],[63.665886,53.184276],[63.66535,53.184359],[63.665123,53.18464],[63.664624,53.184741],[63.664308,53.185182],[63.663847,53.185225],[63.663553,53.185072],[63.663107,53.185009],[63.662801,53.184722],[63.662326,53.184649],[63.662162,53.184406],[63.661883,53.18428],[63.661625,53.184009],[63.660968,53.183924],[63.659886,53.183117],[63.659231,53.18303],[63.658875,53.182723],[63.65842,53.182686],[63.658045,53.18252],[63.65542,53.182505],[63.655154,53.182358],[63.654687,53.182297],[63.654071,53.181809],[63.652799,53.181791],[63.65276,53.181772],[63.652701,53.181743],[63.652698,53.181742],[63.652698,53.181741],[63.652396,53.181593],[63.652112,53.181563],[63.652139,53.181566],[63.650161,53.182118],[63.648799,53.1809],[63.646937,53.180533]]]]}},{"type":"Feature","properties":{"slug":"altynsarino","name":"Алтынсарино","name_en":"Altynsarino","palette":4},"geometry":{"type":"MultiPolygon","coordinates":[[[[63.619623,53.146087],[63.618575,53.146078],[63.61828,53.145875],[63.617848,53.145732],[63.617533,53.145105],[63.617159,53.144923],[63.616904,53.144485],[63.616063,53.144114],[63.615927,53.143716],[63.61513,53.143361],[63.615031,53.142992],[63.61344,53.142286],[63.61344,53.142286],[63.6133,53.142273],[63.613205,53.142336],[63.613333,53.142519],[63.612756,53.142259],[63.612585,53.142261],[63.612294,53.142137],[63.612282,53.142015],[63.612421,53.14212],[63.612561,53.142133],[63.612656,53.142069],[63.612649,53.141933],[63.612814,53.14205],[63.612979,53.142035],[63.613017,53.141856],[63.612997,53.141657],[63.613161,53.141513],[63.613571,53.141341],[63.613618,53.141082],[63.613889,53.140873],[63.613909,53.140043],[63.614245,53.139865],[63.614486,53.139615],[63.615726,53.139533],[63.617212,53.138326],[63.618627,53.138291],[63.619036,53.137966],[63.61941,53.13793],[63.619678,53.137783],[63.620061,53.137732],[63.620278,53.137602],[63.620636,53.13756],[63.620878,53.137421],[63.621236,53.137379],[63.621525,53.137195],[63.622044,53.137093],[63.622286,53.137139],[63.622557,53.137658],[63.622931,53.13784],[63.623196,53.138282],[63.62368,53.138456],[63.623789,53.138563],[63.623782,53.138951],[63.623497,53.139194],[63.623509,53.140712],[63.623773,53.140903],[63.623848,53.141192],[63.624358,53.141407],[63.62442,53.141633],[63.624661,53.141791],[63.62472,53.141995],[63.624961,53.142153],[63.62502,53.142357],[63.625261,53.142515],[63.62532,53.142719],[63.625561,53.142877],[63.62562,53.143081],[63.625861,53.143239],[63.625917,53.143439],[63.626087,53.143616],[63.625879,53.143904],[63.625148,53.144069],[63.624997,53.144209],[63.624995,53.147528],[63.625294,53.147828],[63.625294,53.148597],[63.625207,53.148707],[63.624965,53.148759],[63.623949,53.148637],[63.623606,53.148451],[63.623055,53.148434],[63.622706,53.14827],[63.622128,53.148227],[63.621923,53.14789],[63.621432,53.147689],[63.621342,53.147361],[63.620832,53.147146],[63.620742,53.146819],[63.620266,53.146634],[63.620157,53.14636],[63.619802,53.146136],[63.619623,53.146087]]]]}}],"attribution":"© OpenStreetMap contributors (ODbL)"}