{"type":"FeatureCollection","features":[{"type":"Feature","properties":{"slug":"center","name":"Центр","palette":3},"geometry":{"type":"MultiPolygon","coordinates":[[[[63.6419,53.224642],[63.6413,53.224822],[63.64085,53.225181],[63.64025,53.225271],[63.63965,53.22572],[63.63875,53.22599],[63.6383,53.226349],[63.638,53.226349],[63.63635,53.227248],[63.6356,53.227427],[63.635,53.227876],[63.6341,53.228146],[63.6335,53.228595],[63.6332,53.228595],[63.63275,53.228954],[63.632,53.229134],[63.6308,53.229853],[63.63005,53.230032],[63.62915,53.230661],[63.62795,53.23102],[63.6269,53.231739],[63.62615,53.231919],[63.62585,53.232188],[63.62555,53.232188],[63.62525,53.232458],[63.62435,53.232727],[63.6239,53.233087],[63.6236,53.233087],[63.6218,53.231919],[63.6218,53.231739],[63.6203,53.230931],[63.61985,53.230392],[63.6188,53.229853],[63.6188,53.229673],[63.61805,53.229314],[63.61805,53.229134],[63.6167,53.228326],[63.6167,53.228146],[63.61595,53.227787],[63.6158,53.227427],[63.61625,53.227158],[63.61655,53.227158],[63.6173,53.226709],[63.6173,53.226529],[63.61625,53.22599],[63.61625,53.22581],[63.61535,53.225361],[63.61535,53.225181],[63.61445,53.224732],[63.61445,53.224553],[63.6128,53.223564],[63.6128,53.223385],[63.6113,53.222487],[63.6113,53.222307],[63.60995,53.221588],[63.60995,53.221409],[63.60815,53.220331],[63.60815,53.220151],[63.60635,53.219163],[63.6074,53.217815],[63.6083,53.217186],[63.6083,53.216917],[63.6074,53.216468],[63.6074,53.216288],[63.6065,53.215839],[63.6065,53.215659],[63.6053,53.215031],[63.6053,53.214851],[63.60485,53.214581],[63.6038,53.214222],[63.6011,53.212695],[63.6017,53.212336],[63.60245,53.212156],[63.60635,53.20991],[63.6074,53.209551],[63.6083,53.208922],[63.60875,53.208922],[63.60995,53.208114],[63.61025,53.208114],[63.611,53.207575],[63.6119,53.207305],[63.6137,53.206137],[63.61445,53.205958],[63.6152,53.205508],[63.61685,53.206407],[63.61685,53.206586],[63.6182,53.207395],[63.6182,53.207575],[63.61925,53.208114],[63.6194,53.208563],[63.6203,53.209551],[63.6212,53.21],[63.6212,53.21018],[63.62225,53.210719],[63.62225,53.210898],[63.62345,53.211617],[63.6239,53.211617],[63.62615,53.210269],[63.6269,53.21009],[63.6284,53.209102],[63.62945,53.208742],[63.6317,53.207485],[63.63245,53.207305],[63.6332,53.207754],[63.6332,53.207934],[63.635,53.208922],[63.635,53.209102],[63.63575,53.209461],[63.63575,53.209641],[63.63695,53.210269],[63.63695,53.210449],[63.63785,53.210898],[63.63785,53.211078],[63.6392,53.211797],[63.6392,53.211976],[63.6401,53.212515],[63.6404,53.212515],[63.64235,53.211347],[63.6428,53.211347],[63.64535,53.20982],[63.6464,53.209461],[63.64685,53.209102],[63.64715,53.209102],[63.64805,53.208473],[63.6491,53.208203],[63.64955,53.207844],[63.64985,53.208024],[63.6503,53.208922],[63.651349,53.209731],[63.651499,53.21009],[63.652849,53.210898],[63.653749,53.211168],[63.656749,53.211168],[63.656899,53.211347],[63.658099,53.211707],[63.658699,53.212605],[63.659449,53.213054],[63.660199,53.213144],[63.661549,53.213054],[63.661699,53.212515],[63.661849,53.212695],[63.663049,53.212605],[63.663649,53.212336],[63.663949,53.211976],[63.664399,53.211976],[63.664699,53.211347],[63.664399,53.210898],[63.665149,53.210359],[63.665899,53.210359],[63.666799,53.21],[63.667549,53.21009],[63.667849,53.20991],[63.670849,53.21],[63.670999,53.210269],[63.670699,53.210359],[63.670699,53.210539],[63.672049,53.211258],[63.672049,53.211527],[63.672649,53.211797],[63.672649,53.212515],[63.672349,53.213054],[63.672949,53.213593],[63.672949,53.213863],[63.673249,53.214132],[63.673999,53.214222],[63.674449,53.214492],[63.674449,53.214851],[63.673849,53.215031],[63.673849,53.21557],[63.673999,53.215929],[63.674749,53.216288],[63.674749,53.216737],[63.674299,53.217097],[63.674599,53.218534],[63.675949,53.219342],[63.675649,53.220241],[63.675199,53.219971],[63.662749,53.219971],[63.661999,53.220331],[63.657799,53.220241],[63.657349,53.22051],[63.656299,53.22051],[63.654799,53.219342],[63.654799,53.219163],[63.654349,53.218893],[63.654049,53.218893],[63.653149,53.219432],[63.651799,53.219881],[63.651349,53.220241],[63.651049,53.220241],[63.6506,53.2206],[63.6503,53.2206],[63.64985,53.220959],[63.64955,53.220959],[63.6488,53.221498],[63.64805,53.221678],[63.64715,53.222217],[63.64685,53.222217],[63.6464,53.222576],[63.6455,53.222846],[63.6449,53.223295],[63.6446,53.223295],[63.64415,53.223654],[63.64385,53.223654],[63.6419,53.224642]]]]}},{"type":"Feature","properties":{"slug":"vokzal","name":"Привокзальный","palette":1},"geometry":{"type":"MultiPolygon","coordinates":[[[[63.64145,53.249705],[63.64085,53.249795],[63.6401,53.249256],[63.6398,53.249256],[63.63905,53.248807],[63.63905,53.248538],[63.6386,53.248358],[63.63845,53.247999],[63.6371,53.24719],[63.63605,53.246921],[63.6347,53.246292],[63.6341,53.246202],[63.63155,53.244585],[63.62975,53.244046],[63.62915,53.244046],[63.6284,53.243507],[63.6266,53.243507],[63.62615,53.243238],[63.62615,53.242519],[63.62585,53.242429],[63.62585,53.241351],[63.6245,53.240543],[63.6245,53.240363],[63.6239,53.240093],[63.6239,53.239914],[63.6221,53.238656],[63.6221,53.238476],[63.62135,53.238027],[63.6206,53.237219],[63.62015,53.237039],[63.62015,53.23686],[63.6194,53.23641],[63.6191,53.235961],[63.61835,53.235602],[63.61835,53.235422],[63.6179,53.235243],[63.617,53.234254],[63.6164,53.233985],[63.6158,53.233266],[63.6152,53.232997],[63.61475,53.232368],[63.614,53.232009],[63.614,53.231739],[63.61325,53.23129],[63.61295,53.23129],[63.6113,53.230212],[63.6104,53.230032],[63.6092,53.229224],[63.6089,53.229224],[63.6008,53.224373],[63.6005,53.224373],[63.59735,53.222397],[63.59705,53.222397],[63.5966,53.222127],[63.5966,53.221948],[63.5948,53.22087],[63.5945,53.22087],[63.59255,53.219612],[63.59225,53.219612],[63.58955,53.217995],[63.58955,53.217815],[63.588801,53.217456],[63.588801,53.215929],[63.588351,53.215659],[63.587751,53.215659],[63.585951,53.216827],[63.584151,53.217276],[63.583851,53.217546],[63.581601,53.217636],[63.581601,53.217456],[63.581151,53.217276],[63.580851,53.216648],[63.580851,53.21539],[63.581151,53.21521],[63.581451,53.214581],[63.581751,53.214492],[63.581751,53.213503],[63.582651,53.213054],[63.582951,53.213054],[63.583851,53.212425],[63.584151,53.211437],[63.584451,53.211168],[63.584151,53.210898],[63.584301,53.210629],[63.584901,53.210359],[63.584901,53.21009],[63.586251,53.209461],[63.586851,53.209551],[63.587151,53.209371],[63.587601,53.209371],[63.588201,53.209102],[63.588651,53.209102],[63.58925,53.208832],[63.5903,53.208653],[63.59045,53.208473],[63.59105,53.208473],[63.5915,53.208293],[63.59315,53.208293],[63.5972,53.210629],[63.5972,53.210988],[63.59765,53.211258],[63.59855,53.211437],[63.6008,53.212695],[63.6011,53.212695],[63.6038,53.214222],[63.60485,53.214581],[63.6053,53.214851],[63.6053,53.215031],[63.6065,53.215659],[63.6065,53.215839],[63.6074,53.216288],[63.6074,53.216468],[63.6083,53.216917],[63.6083,53.217186],[63.6074,53.217815],[63.60635,53.219163],[63.60815,53.220151],[63.60815,53.220331],[63.60995,53.221409],[63.60995,53.221588],[63.6113,53.222307],[63.6113,53.222487],[63.6128,53.223385],[63.6128,53.223564],[63.61445,53.224553],[63.61445,53.224732],[63.61535,53.225181],[63.61535,53.225361],[63.61625,53.22581],[63.61625,53.22599],[63.6173,53.226529],[63.6173,53.226709],[63.61655,53.227158],[63.61625,53.227158],[63.6158,53.227427],[63.61595,53.227787],[63.6167,53.228146],[63.6167,53.228326],[63.61805,53.229134],[63.61805,53.229314],[63.6188,53.229673],[63.6188,53.229853],[63.61985,53.230392],[63.6203,53.230931],[63.6218,53.231739],[63.6218,53.231919],[63.6236,53.233087],[63.6239,53.233087],[63.62435,53.232727],[63.62525,53.232458],[63.62555,53.232188],[63.62585,53.232188],[63.62615,53.231919],[63.6269,53.231739],[63.62795,53.23102],[63.62915,53.230661],[63.63005,53.230032],[63.6308,53.229853],[63.632,53.229134],[63.63275,53.228954],[63.6332,53.228595],[63.6335,53.228595],[63.6341,53.228146],[63.635,53.227876],[63.6356,53.227427],[63.63635,53.227248],[63.638,53.226349],[63.6383,53.226349],[63.63875,53.22599],[63.63965,53.22572],[63.64025,53.225271],[63.64085,53.225181],[63.6413,53.224822],[63.6419,53.224642],[63.64355,53.22581],[63.6443,53.226709],[63.6455,53.227517],[63.64655,53.228685],[63.6479,53.229583],[63.6482,53.230032],[63.6491,53.230571],[63.6491,53.230751],[63.652849,53.232997],[63.654499,53.233536],[63.655549,53.234165],[63.655999,53.234165],[63.656449,53.233895],[63.656449,53.233715],[63.657499,53.233176],[63.657649,53.232817],[63.658549,53.232188],[63.659599,53.232278],[63.660199,53.232548],[63.660799,53.232548],[63.662749,53.233805],[63.663049,53.233805],[63.663799,53.234254],[63.663799,53.234434],[63.665449,53.235422],[63.665749,53.235422],[63.667099,53.236231],[63.669799,53.237848],[63.669799,53.238297],[63.668749,53.238836],[63.668749,53.239015],[63.667999,53.239375],[63.667999,53.239554],[63.666049,53.240722],[63.665749,53.241261],[63.664549,53.24198],[63.664249,53.242519],[63.663349,53.243058],[63.662899,53.243058],[63.662749,53.243238],[63.660499,53.243866],[63.659599,53.244315],[63.658849,53.244405],[63.657499,53.245034],[63.656149,53.245304],[63.655849,53.245573],[63.6491,53.245573],[63.64835,53.246112],[63.64625,53.246741],[63.64565,53.246741],[63.64475,53.24728],[63.64475,53.24746],[63.64295,53.248448],[63.64295,53.248627],[63.6413,53.249526],[63.64145,53.249705]]]]}},{"type":"Feature","properties":{"slug":"narimanovka","name":"Наримановка","palette":6},"geometry":{"type":"MultiPolygon","coordinates":[[[[63.64955,53.207844],[63.6491,53.208203],[63.64805,53.208473],[63.64715,53.209102],[63.64685,53.209102],[63.6464,53.209461],[63.64535,53.20982],[63.6428,53.211347],[63.64235,53.211347],[63.6404,53.212515],[63.6401,53.212515],[63.6392,53.211976],[63.6392,53.211797],[63.63785,53.211078],[63.63785,53.210898],[63.63695,53.210449],[63.63695,53.210269],[63.63575,53.209641],[63.63575,53.209461],[63.635,53.209102],[63.635,53.208922],[63.6332,53.207934],[63.6332,53.207754],[63.63245,53.207305],[63.6317,53.207485],[63.62945,53.208742],[63.6284,53.209102],[63.6269,53.21009],[63.62615,53.210269],[63.6239,53.211617],[63.62345,53.211617],[63.62225,53.210898],[63.62225,53.210719],[63.6212,53.21018],[63.6212,53.21],[63.6203,53.209551],[63.6194,53.208563],[63.61925,53.208114],[63.6182,53.207575],[63.6182,53.207395],[63.61685,53.206586],[63.61685,53.206407],[63.6152,53.205508],[63.6152,53.205329],[63.614,53.2047],[63.614,53.20452],[63.61235,53.203622],[63.61235,53.203442],[63.61085,53.202634],[63.61085,53.202454],[63.6092,53.201466],[63.6086,53.196705],[63.60845,53.192932],[63.608,53.190956],[63.60785,53.186464],[63.60815,53.186105],[63.6077,53.185746],[63.608,53.185386],[63.60695,53.184218],[63.6077,53.183859],[63.6086,53.183769],[63.6089,53.1835],[63.6095,53.1835],[63.61235,53.182602],[63.6128,53.182602],[63.61355,53.18314],[63.61415,53.184398],[63.6146,53.184937],[63.6149,53.185027],[63.6155,53.186195],[63.6173,53.188351],[63.61775,53.189608],[63.61775,53.190417],[63.6182,53.190686],[63.6206,53.190776],[63.6212,53.190596],[63.62195,53.190057],[63.62705,53.189968],[63.6284,53.189249],[63.62855,53.1888],[63.62885,53.18871],[63.62885,53.187452],[63.6296,53.187093],[63.6296,53.186824],[63.63065,53.186285],[63.63335,53.186285],[63.63395,53.185925],[63.6335,53.185566],[63.6359,53.185386],[63.6359,53.185207],[63.6365,53.185207],[63.6365,53.185027],[63.6374,53.184847],[63.6377,53.184488],[63.6386,53.184308],[63.63875,53.184129],[63.63995,53.184039],[63.6404,53.184218],[63.63995,53.184308],[63.6398,53.184668],[63.6443,53.187273],[63.6443,53.189339],[63.64325,53.190057],[63.64265,53.190956],[63.6419,53.190956],[63.6422,53.191135],[63.64205,53.192573],[63.64235,53.192842],[63.64265,53.193741],[63.6434,53.19419],[63.6434,53.194369],[63.6446,53.194729],[63.64535,53.195178],[63.64535,53.195358],[63.64625,53.195807],[63.64625,53.195986],[63.64685,53.196256],[63.6473,53.197064],[63.6479,53.197424],[63.6479,53.197873],[63.64835,53.198052],[63.64865,53.198502],[63.64865,53.19922],[63.6491,53.199759],[63.64925,53.200927],[63.64895,53.201466],[63.64835,53.201915],[63.6485,53.202814],[63.64805,53.206137],[63.64835,53.206137],[63.6488,53.206407],[63.64925,53.206407],[63.64925,53.206676],[63.64835,53.206766],[63.64835,53.207036],[63.6488,53.207305],[63.6488,53.207485],[63.64925,53.207575],[63.64955,53.207844]],[[63.63275,53.193112],[63.6341,53.193022],[63.6347,53.192842],[63.6344,53.192483],[63.6344,53.192303],[63.63485,53.192393],[63.63455,53.192034],[63.63455,53.191585],[63.63395,53.191495],[63.6335,53.191854],[63.63275,53.191854],[63.6335,53.191405],[63.6326,53.191405],[63.63245,53.191046],[63.632,53.190776],[63.63155,53.190776],[63.63155,53.190417],[63.63095,53.190327],[63.63095,53.190686],[63.63185,53.191135],[63.632,53.192034],[63.6323,53.192213],[63.6323,53.192393],[63.63155,53.192932],[63.63275,53.193112]]]]}},{"type":"Feature","properties":{"slug":"zapadny","name":"Западный","palette":2},"geometry":{"type":"MultiPolygon","coordinates":[[[[63.6011,53.212695],[63.6008,53.212695],[63.59855,53.211437],[63.59765,53.211258],[63.5972,53.210988],[63.5972,53.210629],[63.59315,53.208293],[63.5915,53.208293],[63.59105,53.208473],[63.59045,53.208473],[63.5903,53.208653],[63.58925,53.208832],[63.588651,53.209102],[63.588201,53.209102],[63.587601,53.209371],[63.587151,53.209371],[63.586851,53.209551],[63.586251,53.209461],[63.584901,53.21009],[63.584901,53.210359],[63.584301,53.210629],[63.584151,53.210898],[63.580851,53.210808],[63.580551,53.211078],[63.578601,53.211078],[63.577551,53.211707],[63.575301,53.211707],[63.573651,53.210719],[63.575151,53.20982],[63.575151,53.209641],[63.571851,53.207664],[63.580251,53.202634],[63.580251,53.202454],[63.578751,53.201646],[63.578601,53.201197],[63.579051,53.201017],[63.578901,53.200478],[63.580701,53.19949],[63.580701,53.19931],[63.578751,53.198142],[63.578751,53.197424],[63.579201,53.197244],[63.579051,53.196436],[63.579801,53.195986],[63.578301,53.195178],[63.578001,53.19428],[63.582651,53.191585],[63.582801,53.190237],[63.582201,53.189878],[63.582651,53.189608],[63.585951,53.189608],[63.586401,53.189339],[63.586101,53.187812],[63.586551,53.187542],[63.5927,53.187183],[63.593,53.187003],[63.5972,53.186824],[63.60635,53.185386],[63.6071,53.185566],[63.6074,53.185835],[63.6077,53.185746],[63.60815,53.186105],[63.60785,53.186464],[63.608,53.190956],[63.60845,53.192932],[63.6086,53.196705],[63.6092,53.201466],[63.61085,53.202454],[63.61085,53.202634],[63.61235,53.203442],[63.61235,53.203622],[63.614,53.20452],[63.614,53.2047],[63.6152,53.205329],[63.6152,53.205508],[63.61445,53.205958],[63.6137,53.206137],[63.6119,53.207305],[63.611,53.207575],[63.61025,53.208114],[63.60995,53.208114],[63.60875,53.208922],[63.6083,53.208922],[63.6074,53.209551],[63.60635,53.20991],[63.60245,53.212156],[63.6017,53.212336],[63.6011,53.212695]]]]}},{"type":"Feature","properties":{"slug":"kzhbi","name":"КЖБИ","palette":7},"geometry":{"type":"MultiPolygon","coordinates":[[[[63.582201,53.189878],[63.579801,53.18853],[63.579501,53.187093],[63.578601,53.186644],[63.578301,53.186015],[63.578751,53.185386],[63.572151,53.181524],[63.572301,53.180535],[63.569151,53.178739],[63.569151,53.178379],[63.569601,53.177571],[63.576801,53.173349],[63.576951,53.172361],[63.575901,53.171822],[63.575901,53.171373],[63.575451,53.171193],[63.575601,53.170115],[63.584151,53.165084],[63.584001,53.164905],[63.584601,53.164635],[63.585351,53.164995],[63.585351,53.165534],[63.585651,53.165623],[63.585651,53.166342],[63.586101,53.166612],[63.59165,53.166612],[63.5918,53.166432],[63.5924,53.166342],[63.59345,53.167151],[63.59375,53.167151],[63.5939,53.166971],[63.5945,53.166971],[63.59465,53.166791],[63.59525,53.166701],[63.5957,53.166342],[63.59645,53.166252],[63.59765,53.165803],[63.60155,53.165264],[63.61025,53.165264],[63.6107,53.165623],[63.61055,53.165803],[63.61025,53.165803],[63.6101,53.166252],[63.6113,53.16724],[63.61145,53.168139],[63.61205,53.168498],[63.6122,53.169037],[63.61265,53.169217],[63.61295,53.169935],[63.61445,53.169935],[63.61445,53.171642],[63.61625,53.17281],[63.6167,53.17281],[63.6182,53.172361],[63.61865,53.171642],[63.61775,53.170295],[63.61715,53.170474],[63.6176,53.170744],[63.6176,53.171103],[63.6173,53.171283],[63.61655,53.171193],[63.6164,53.170923],[63.61595,53.170834],[63.61625,53.170295],[63.6167,53.170205],[63.6164,53.169935],[63.61655,53.169307],[63.61565,53.169037],[63.61565,53.168768],[63.61595,53.168768],[63.61595,53.168139],[63.61535,53.168049],[63.61505,53.16769],[63.6158,53.16769],[63.61595,53.168049],[63.6167,53.168229],[63.61685,53.167959],[63.61745,53.167869],[63.6176,53.16724],[63.6182,53.16724],[63.61895,53.1676],[63.61895,53.167779],[63.61925,53.167869],[63.6194,53.168229],[63.62,53.168678],[63.62,53.168857],[63.61955,53.169037],[63.6191,53.169845],[63.6194,53.171193],[63.62015,53.172181],[63.62,53.172451],[63.6203,53.17254],[63.6203,53.1729],[63.6212,53.173439],[63.6215,53.174068],[63.62195,53.174337],[63.62225,53.174876],[63.62225,53.175505],[63.62255,53.175774],[63.62255,53.176223],[63.62225,53.176403],[63.62225,53.177301],[63.62255,53.177301],[63.62255,53.177481],[63.62225,53.177751],[63.62195,53.177751],[63.6218,53.17811],[63.62105,53.178469],[63.62135,53.178559],[63.62135,53.179547],[63.62165,53.179637],[63.6221,53.180446],[63.62285,53.180805],[63.62345,53.181434],[63.6245,53.181793],[63.6245,53.181973],[63.6248,53.181973],[63.62495,53.182152],[63.62525,53.182152],[63.6254,53.182422],[63.6266,53.183051],[63.6269,53.1835],[63.6266,53.18359],[63.6269,53.183679],[63.6269,53.184039],[63.6272,53.184039],[63.62735,53.184398],[63.6287,53.184668],[63.62885,53.185027],[63.63005,53.185117],[63.63125,53.185566],[63.6335,53.185566],[63.63395,53.185925],[63.63335,53.186285],[63.63065,53.186285],[63.6296,53.186824],[63.6296,53.187093],[63.62885,53.187452],[63.62885,53.18871],[63.62855,53.1888],[63.6284,53.189249],[63.62705,53.189968],[63.62195,53.190057],[63.6212,53.190596],[63.6206,53.190776],[63.6182,53.190686],[63.61775,53.190417],[63.61775,53.189608],[63.6173,53.188351],[63.6155,53.186195],[63.6149,53.185027],[63.6146,53.184937],[63.61415,53.184398],[63.61355,53.18314],[63.6128,53.182602],[63.61235,53.182602],[63.6095,53.1835],[63.6089,53.1835],[63.6086,53.183769],[63.6077,53.183859],[63.60695,53.184218],[63.608,53.185386],[63.6077,53.185746],[63.6074,53.185835],[63.6071,53.185566],[63.60635,53.185386],[63.5972,53.186824],[63.593,53.187003],[63.5927,53.187183],[63.586551,53.187542],[63.586101,53.187812],[63.586401,53.189339],[63.585951,53.189608],[63.582651,53.189608],[63.582201,53.189878]]]]}},{"type":"Feature","properties":{"slug":"khimik","name":"Химик","palette":11},"geometry":{"type":"MultiPolygon","coordinates":[[[[63.6107,53.165623],[63.61025,53.165264],[63.60155,53.165264],[63.59765,53.165803],[63.59645,53.166252],[63.5957,53.166342],[63.59525,53.166701],[63.59465,53.166791],[63.5945,53.166971],[63.5939,53.166971],[63.59375,53.167151],[63.59345,53.167151],[63.5924,53.166342],[63.5918,53.166432],[63.59165,53.166612],[63.586101,53.166612],[63.585651,53.166342],[63.585651,53.165623],[63.585351,53.165534],[63.585351,53.164995],[63.584601,53.164635],[63.584001,53.164905],[63.573651,53.158706],[63.572001,53.158706],[63.570351,53.15673],[63.570351,53.15655],[63.576801,53.152778],[63.577251,53.153047],[63.580701,53.153047],[63.582351,53.153945],[63.582801,53.154574],[63.583401,53.154934],[63.587301,53.154934],[63.5903,53.155113],[63.59075,53.155113],[63.59105,53.154934],[63.59435,53.155023],[63.59675,53.155562],[63.59975,53.157359],[63.6014,53.157449],[63.6017,53.157628],[63.60365,53.157628],[63.60545,53.157449],[63.60605,53.158078],[63.6065,53.158167],[63.6068,53.157628],[63.60755,53.157359],[63.6077,53.15691],[63.6071,53.156101],[63.6074,53.156281],[63.6077,53.156101],[63.6107,53.156101],[63.61115,53.155742],[63.6161,53.157808],[63.61625,53.159425],[63.6152,53.160683],[63.61445,53.161132],[63.61415,53.161132],[63.61355,53.161581],[63.61295,53.161581],[63.6125,53.16212],[63.6122,53.16221],[63.6119,53.163108],[63.61205,53.164096],[63.6131,53.164725],[63.61325,53.165354],[63.61235,53.165264],[63.6107,53.165623]]]]}},{"type":"Feature","properties":{"slug":"amangeldy","name":"Амангельды","palette":1},"geometry":{"type":"MultiPolygon","coordinates":[[[[63.60545,53.157449],[63.60365,53.157628],[63.6017,53.157628],[63.6014,53.157449],[63.59975,53.157359],[63.59675,53.155562],[63.59435,53.155023],[63.59105,53.154934],[63.59075,53.155113],[63.5903,53.155113],[63.587301,53.154934],[63.583401,53.154934],[63.582801,53.154574],[63.582351,53.153945],[63.580701,53.153047],[63.577251,53.153047],[63.576801,53.152778],[63.578001,53.152059],[63.578001,53.151879],[63.571401,53.148017],[63.573651,53.146669],[63.572901,53.14622],[63.573201,53.145861],[63.568701,53.143255],[63.569451,53.142716],[63.568101,53.141639],[63.568101,53.141459],[63.567801,53.141369],[63.567651,53.14101],[63.566751,53.140381],[63.566751,53.140201],[63.566451,53.140111],[63.565551,53.138854],[63.565251,53.138764],[63.564351,53.137686],[63.564201,53.136518],[63.564351,53.136338],[63.582801,53.136338],[63.583101,53.136788],[63.583851,53.137237],[63.583851,53.137686],[63.584751,53.138764],[63.585051,53.138854],[63.585951,53.140111],[63.587151,53.14101],[63.587301,53.141369],[63.587601,53.141459],[63.587601,53.141639],[63.587901,53.141728],[63.587901,53.141908],[63.588201,53.141998],[63.588201,53.142178],[63.588501,53.142267],[63.588501,53.142447],[63.588801,53.142537],[63.588801,53.142716],[63.589101,53.142806],[63.589101,53.142986],[63.5894,53.143076],[63.5894,53.143255],[63.5897,53.143345],[63.59045,53.144244],[63.59075,53.144333],[63.59075,53.144513],[63.59105,53.144603],[63.59105,53.144783],[63.59195,53.145501],[63.59225,53.145501],[63.593,53.14595],[63.5936,53.14595],[63.59435,53.14622],[63.59945,53.14613],[63.60095,53.145771],[63.60185,53.145771],[63.60395,53.14622],[63.60455,53.146579],[63.60515,53.148017],[63.6053,53.149723],[63.60575,53.149993],[63.6059,53.150352],[63.60785,53.15134],[63.6083,53.152508],[63.60965,53.153945],[63.6098,53.154664],[63.61025,53.155023],[63.61025,53.155293],[63.61115,53.155742],[63.6107,53.156101],[63.6077,53.156101],[63.6074,53.156281],[63.6071,53.156101],[63.60665,53.155562],[63.60635,53.155473],[63.6068,53.157089],[63.60575,53.157089],[63.60545,53.157449]]]]}},{"type":"Feature","properties":{"slug":"dostyk","name":"Достык","palette":2},"geometry":{"type":"MultiPolygon","coordinates":[[[[63.545451,53.162839],[63.544101,53.16194],[63.542751,53.161671],[63.536001,53.160862],[63.532101,53.160862],[63.530751,53.160054],[63.530451,53.158886],[63.529701,53.158527],[63.530301,53.158167],[63.530301,53.15682],[63.529851,53.155473],[63.529851,53.154395],[63.527302,53.152867],[63.528651,53.152059],[63.529401,53.152059],[63.530601,53.151789],[63.531351,53.151789],[63.533151,53.15143],[63.533901,53.15143],[63.535101,53.151161],[63.535851,53.151161],[63.537651,53.150801],[63.541401,53.150352],[63.549201,53.145681],[63.549951,53.14613],[63.550251,53.14613],[63.552051,53.145861],[63.552801,53.145322],[63.553251,53.145591],[63.553701,53.145591],[63.554001,53.145411],[63.555951,53.146669],[63.556551,53.146669],[63.557301,53.1464],[63.558651,53.147208],[63.557301,53.148017],[63.557151,53.149005],[63.554001,53.150801],[63.556251,53.152239],[63.555801,53.152508],[63.555051,53.153586],[63.554151,53.154215],[63.552651,53.156101],[63.552351,53.156191],[63.547401,53.16221],[63.546501,53.16221],[63.545451,53.162839]]]]}},{"type":"Feature","properties":{"slug":"kostanay-2","name":"Костанай-2","palette":8},"geometry":{"type":"MultiPolygon","coordinates":[[[[63.6215,53.247819],[63.6164,53.244765],[63.6158,53.244765],[63.6155,53.244944],[63.6143,53.245124],[63.6053,53.250514],[63.6053,53.250693],[63.6065,53.251322],[63.6065,53.251502],[63.60605,53.252041],[63.60185,53.254466],[63.6029,53.255095],[63.6032,53.255544],[63.6026,53.255724],[63.6023,53.255994],[63.602,53.255814],[63.60125,53.255994],[63.5999,53.255095],[63.5996,53.255095],[63.599,53.255455],[63.59105,53.250604],[63.5903,53.250873],[63.5897,53.250424],[63.5894,53.250424],[63.586551,53.251951],[63.585651,53.251412],[63.585651,53.251232],[63.583851,53.250244],[63.583851,53.250065],[63.582501,53.249346],[63.582501,53.249166],[63.572601,53.243238],[63.572301,53.243238],[63.566001,53.2471],[63.565101,53.246831],[63.564651,53.24701],[63.563751,53.246471],[63.562101,53.246112],[63.560601,53.245304],[63.560301,53.245304],[63.560001,53.245034],[63.559101,53.244765],[63.558651,53.244405],[63.558351,53.244405],[63.558051,53.244136],[63.557601,53.244136],[63.555351,53.245573],[63.555051,53.245573],[63.554151,53.246112],[63.553251,53.245483],[63.555951,53.243777],[63.555951,53.243597],[63.557001,53.243058],[63.557001,53.242878],[63.558051,53.242339],[63.558051,53.24216],[63.559101,53.241621],[63.559101,53.241351],[63.558651,53.241082],[63.563901,53.237848],[63.563901,53.237668],[63.561051,53.235961],[63.567051,53.232458],[63.567201,53.232188],[63.566601,53.231919],[63.566601,53.231739],[63.567201,53.23102],[63.568401,53.230392],[63.568401,53.230212],[63.565551,53.228595],[63.565551,53.228415],[63.564201,53.227517],[63.564201,53.227337],[63.563901,53.227248],[63.564051,53.227068],[63.563601,53.226798],[63.566301,53.225181],[63.566301,53.225002],[63.567501,53.224283],[63.567801,53.224283],[63.569151,53.223475],[63.569151,53.223295],[63.571251,53.222127],[63.571251,53.221948],[63.572451,53.221319],[63.572451,53.221139],[63.572901,53.22087],[63.572901,53.2206],[63.573351,53.220331],[63.575751,53.22042],[63.576351,53.2206],[63.581301,53.2206],[63.581751,53.220331],[63.581751,53.220061],[63.580851,53.218893],[63.581151,53.217995],[63.581601,53.217636],[63.583851,53.217546],[63.584151,53.217276],[63.585951,53.216827],[63.587751,53.215659],[63.588351,53.215659],[63.588801,53.215929],[63.588801,53.217456],[63.58955,53.217815],[63.58955,53.217995],[63.59225,53.219612],[63.59255,53.219612],[63.5945,53.22087],[63.5948,53.22087],[63.5966,53.221948],[63.5966,53.222127],[63.59705,53.222397],[63.59735,53.222397],[63.6005,53.224373],[63.6008,53.224373],[63.6089,53.229224],[63.6092,53.229224],[63.6104,53.230032],[63.6113,53.230212],[63.61295,53.23129],[63.61325,53.23129],[63.614,53.231739],[63.614,53.232009],[63.61475,53.232368],[63.6152,53.232997],[63.6158,53.233266],[63.6164,53.233985],[63.617,53.234254],[63.6179,53.235243],[63.61835,53.235422],[63.61835,53.235602],[63.6191,53.235961],[63.6194,53.23641],[63.62015,53.23686],[63.62015,53.237039],[63.6206,53.237219],[63.62135,53.238027],[63.6221,53.238476],[63.6221,53.238656],[63.6239,53.239914],[63.6239,53.240093],[63.6245,53.240363],[63.6245,53.240543],[63.62585,53.241351],[63.62585,53.242429],[63.62615,53.242519],[63.62615,53.243238],[63.6266,53.243507],[63.6284,53.243507],[63.62915,53.244046],[63.62735,53.245124],[63.62675,53.245124],[63.6257,53.245843],[63.6242,53.246202],[63.6215,53.247819]]]]}},{"type":"Feature","properties":{"slug":"aeroport","name":"Аэропорт","palette":9},"geometry":{"type":"MultiPolygon","coordinates":[[[[63.563601,53.226798],[63.562551,53.226259],[63.562401,53.2259],[63.560301,53.224732],[63.560301,53.224553],[63.561351,53.224014],[63.561351,53.223834],[63.558801,53.222307],[63.560151,53.221319],[63.561201,53.221948],[63.561501,53.221948],[63.562551,53.221229],[63.563151,53.221588],[63.563901,53.221678],[63.564201,53.221319],[63.565101,53.221588],[63.565551,53.221229],[63.566001,53.221139],[63.566001,53.22069],[63.566301,53.22069],[63.566301,53.220331],[63.565851,53.219792],[63.565251,53.219612],[63.570951,53.216288],[63.569151,53.21512],[63.569151,53.214851],[63.569601,53.214671],[63.569601,53.214222],[63.569301,53.213953],[63.569601,53.213054],[63.573651,53.210719],[63.575301,53.211707],[63.577551,53.211707],[63.578601,53.211078],[63.580551,53.211078],[63.580851,53.210808],[63.584151,53.210898],[63.584451,53.211168],[63.584151,53.211437],[63.583851,53.212425],[63.582951,53.213054],[63.582651,53.213054],[63.581751,53.213503],[63.581751,53.214492],[63.581451,53.214581],[63.581151,53.21521],[63.580851,53.21539],[63.580851,53.216648],[63.581151,53.217276],[63.581601,53.217456],[63.581601,53.217636],[63.581151,53.217995],[63.580851,53.218893],[63.581751,53.220061],[63.581751,53.220331],[63.581301,53.2206],[63.576351,53.2206],[63.575751,53.22042],[63.573351,53.220331],[63.572901,53.2206],[63.572901,53.22087],[63.572451,53.221139],[63.572451,53.221319],[63.571251,53.221948],[63.571251,53.222127],[63.569151,53.223295],[63.569151,53.223475],[63.567801,53.224283],[63.567501,53.224283],[63.566301,53.225002],[63.566301,53.225181],[63.563601,53.226798]]]]}},{"type":"Feature","properties":{"slug":"perevalovka","name":"Переваловка","palette":10},"geometry":{"type":"MultiPolygon","coordinates":[[[[63.667099,53.236231],[63.665749,53.235422],[63.665449,53.235422],[63.663799,53.234434],[63.663799,53.234254],[63.663049,53.233805],[63.662749,53.233805],[63.660799,53.232548],[63.660199,53.232548],[63.659599,53.232278],[63.658549,53.232188],[63.657649,53.232817],[63.657499,53.233176],[63.656449,53.233715],[63.656449,53.233895],[63.655999,53.234165],[63.655549,53.234165],[63.654499,53.233536],[63.652849,53.232997],[63.6491,53.230751],[63.6491,53.230571],[63.6482,53.230032],[63.6479,53.229583],[63.64655,53.228685],[63.6455,53.227517],[63.6443,53.226709],[63.64355,53.22581],[63.6419,53.224642],[63.64385,53.223654],[63.64415,53.223654],[63.6446,53.223295],[63.6449,53.223295],[63.6455,53.222846],[63.6464,53.222576],[63.64685,53.222217],[63.64715,53.222217],[63.64805,53.221678],[63.6488,53.221498],[63.64955,53.220959],[63.64985,53.220959],[63.6503,53.2206],[63.6506,53.2206],[63.651049,53.220241],[63.651349,53.220241],[63.651799,53.219881],[63.653149,53.219432],[63.654049,53.218893],[63.654349,53.218893],[63.654799,53.219163],[63.654799,53.219342],[63.656299,53.22051],[63.657349,53.22051],[63.657799,53.220241],[63.661999,53.220331],[63.662749,53.219971],[63.675199,53.219971],[63.675649,53.220241],[63.675949,53.221229],[63.674899,53.221588],[63.674449,53.221948],[63.673999,53.222576],[63.673999,53.223205],[63.674899,53.223744],[63.674899,53.223924],[63.675349,53.224103],[63.675649,53.224463],[63.676099,53.224463],[63.676399,53.224642],[63.678949,53.224373],[63.679399,53.224642],[63.679399,53.224822],[63.679099,53.224912],[63.679099,53.225541],[63.678799,53.225631],[63.678649,53.227248],[63.678199,53.228775],[63.678199,53.230571],[63.677749,53.230841],[63.676699,53.230931],[63.676399,53.23111],[63.674899,53.23111],[63.673699,53.23147],[63.672199,53.232368],[63.671749,53.232907],[63.671299,53.233087],[63.671299,53.233266],[63.670849,53.233446],[63.670849,53.233626],[63.669799,53.234165],[63.669499,53.234614],[63.667099,53.236231]]]]}},{"type":"Feature","properties":{"slug":"ksk","name":"КСК","palette":4},"geometry":{"type":"MultiPolygon","coordinates":[[[[63.666649,53.259946],[63.665599,53.259317],[63.665299,53.259317],[63.663949,53.258419],[63.663649,53.258419],[63.662149,53.257431],[63.661549,53.257431],[63.661099,53.257161],[63.660049,53.256982],[63.656749,53.255005],[63.654499,53.255005],[63.651349,53.253209],[63.65075,53.253119],[63.6506,53.252939],[63.6488,53.2524],[63.64865,53.252221],[63.6464,53.251502],[63.6458,53.251143],[63.64325,53.250334],[63.6425,53.249885],[63.64175,53.249885],[63.64145,53.249705],[63.6413,53.249526],[63.64295,53.248627],[63.64295,53.248448],[63.64475,53.24746],[63.64475,53.24728],[63.64565,53.246741],[63.64625,53.246741],[63.64835,53.246112],[63.6491,53.245573],[63.655849,53.245573],[63.656149,53.245304],[63.657499,53.245034],[63.658849,53.244405],[63.659599,53.244315],[63.660499,53.243866],[63.662749,53.243238],[63.662899,53.243058],[63.663349,53.243058],[63.664249,53.242519],[63.664549,53.24198],[63.665749,53.241261],[63.666049,53.240722],[63.667999,53.239554],[63.667999,53.239375],[63.668749,53.239015],[63.668749,53.238836],[63.669799,53.238297],[63.669799,53.237848],[63.667099,53.236231],[63.669499,53.234614],[63.669799,53.234165],[63.670849,53.233626],[63.670849,53.233446],[63.671299,53.233266],[63.671299,53.233087],[63.671749,53.232907],[63.672199,53.232368],[63.673699,53.23147],[63.674899,53.23111],[63.676399,53.23111],[63.676699,53.230931],[63.677749,53.230841],[63.678199,53.230571],[63.678199,53.228775],[63.678649,53.227248],[63.678799,53.225631],[63.679099,53.225541],[63.679099,53.224912],[63.679399,53.224822],[63.679399,53.224642],[63.678949,53.224373],[63.679399,53.223924],[63.679999,53.223924],[63.681049,53.224463],[63.681499,53.224463],[63.682099,53.225271],[63.682399,53.226259],[63.682699,53.226439],[63.682999,53.227787],[63.684799,53.228595],[63.686449,53.230481],[63.686449,53.230751],[63.685999,53.230931],[63.685849,53.231919],[63.686899,53.232637],[63.688849,53.232727],[63.690799,53.233446],[63.691849,53.233356],[63.692599,53.232727],[63.693349,53.232727],[63.693949,53.233087],[63.694849,53.233176],[63.695449,53.233446],[63.697549,53.233356],[63.697999,53.232907],[63.697999,53.230931],[63.697699,53.230751],[63.697399,53.229853],[63.697099,53.229583],[63.697099,53.229044],[63.697249,53.228505],[63.698149,53.227966],[63.698599,53.227966],[63.700549,53.229134],[63.699949,53.229763],[63.700249,53.230392],[63.701299,53.230751],[63.701749,53.23111],[63.702349,53.23111],[63.702499,53.23129],[63.702799,53.23129],[63.703249,53.231559],[63.703249,53.231739],[63.703849,53.232009],[63.705499,53.232188],[63.705949,53.232458],[63.706099,53.233266],[63.705349,53.234165],[63.705349,53.234793],[63.704749,53.235063],[63.704599,53.235512],[63.703549,53.236141],[63.702649,53.236321],[63.702199,53.23686],[63.702199,53.237758],[63.703099,53.238297],[63.703099,53.238836],[63.702499,53.239375],[63.702499,53.239824],[63.703249,53.240273],[63.703549,53.241171],[63.704299,53.241621],[63.705199,53.242699],[63.705349,53.243327],[63.705649,53.243507],[63.706549,53.243417],[63.706699,53.243777],[63.707299,53.244046],[63.709699,53.244136],[63.709399,53.246112],[63.710149,53.246651],[63.710449,53.24737],[63.710749,53.247549],[63.711949,53.247639],[63.712548,53.248268],[63.712548,53.248538],[63.712848,53.248538],[63.712998,53.248717],[63.714498,53.248717],[63.715098,53.248448],[63.715548,53.248448],[63.715548,53.248627],[63.715098,53.248627],[63.714798,53.248897],[63.714948,53.249256],[63.715248,53.249256],[63.715398,53.249436],[63.715998,53.249436],[63.716748,53.249975],[63.716748,53.250244],[63.716148,53.250424],[63.715998,53.250783],[63.715548,53.250514],[63.689899,53.250514],[63.687949,53.251502],[63.687649,53.251502],[63.687199,53.251861],[63.686899,53.251861],[63.686599,53.252131],[63.686299,53.252131],[63.685849,53.25249],[63.684949,53.25276],[63.684499,53.253119],[63.683599,53.253388],[63.683149,53.253748],[63.682849,53.253748],[63.682399,53.254107],[63.681499,53.254377],[63.681049,53.254736],[63.680149,53.255005],[63.678499,53.255904],[63.677149,53.255185],[63.675499,53.256263],[63.673099,53.255544],[63.672649,53.255814],[63.671749,53.255994],[63.671599,53.256173],[63.670699,53.256353],[63.669499,53.257161],[63.668599,53.257431],[63.668299,53.2577],[63.667999,53.2577],[63.667099,53.258239],[63.667099,53.259677],[63.666649,53.259946]]]]}},{"type":"Feature","properties":{"slug":"zelenstroy","name":"Зеленстрой","palette":12},"geometry":{"type":"MultiPolygon","coordinates":[[[[63.675499,53.264348],[63.670699,53.261563],[63.670399,53.261563],[63.669949,53.261204],[63.668599,53.261204],[63.666649,53.259946],[63.667099,53.259677],[63.667099,53.258239],[63.667999,53.2577],[63.668299,53.2577],[63.668599,53.257431],[63.669499,53.257161],[63.670699,53.256353],[63.671599,53.256173],[63.671749,53.255994],[63.672649,53.255814],[63.673099,53.255544],[63.675499,53.256263],[63.677149,53.255185],[63.678499,53.255904],[63.680149,53.255005],[63.681049,53.254736],[63.681499,53.254377],[63.682399,53.254107],[63.682849,53.253748],[63.683149,53.253748],[63.683599,53.253388],[63.684499,53.253119],[63.684949,53.25276],[63.685849,53.25249],[63.686299,53.252131],[63.686599,53.252131],[63.686899,53.251861],[63.687199,53.251861],[63.687649,53.251502],[63.687949,53.251502],[63.689899,53.250514],[63.715548,53.250514],[63.715998,53.250783],[63.715848,53.251053],[63.716148,53.251232],[63.716298,53.251682],[63.716898,53.251771],[63.717198,53.252041],[63.716898,53.253299],[63.716448,53.253658],[63.716448,53.254287],[63.716748,53.254466],[63.717198,53.255365],[63.718098,53.255814],[63.718248,53.256173],[63.718548,53.256263],[63.718698,53.256622],[63.719148,53.256802],[63.719298,53.257072],[63.719148,53.25806],[63.718698,53.258419],[63.718698,53.258688],[63.717048,53.258778],[63.717048,53.259227],[63.717648,53.260036],[63.717498,53.261024],[63.718098,53.261473],[63.718548,53.261473],[63.719598,53.262102],[63.719598,53.262372],[63.720198,53.26309],[63.720198,53.264168],[63.719298,53.264438],[63.719148,53.264617],[63.718698,53.264617],[63.718248,53.264887],[63.718248,53.265156],[63.717798,53.265516],[63.717648,53.266773],[63.716748,53.267492],[63.716898,53.268031],[63.717648,53.26848],[63.717948,53.269109],[63.718548,53.269378],[63.719148,53.269378],[63.719448,53.269558],[63.720198,53.269648],[63.721098,53.269378],[63.721698,53.269378],[63.721848,53.270007],[63.721548,53.270187],[63.720648,53.270097],[63.720048,53.270456],[63.720048,53.271534],[63.720498,53.271624],[63.721848,53.272433],[63.722748,53.272253],[63.722898,53.271804],[63.723648,53.271355],[63.723498,53.270726],[63.723948,53.270367],[63.724398,53.270367],[63.724998,53.270636],[63.725298,53.271355],[63.725598,53.271355],[63.725748,53.271534],[63.727848,53.271534],[63.727998,53.271894],[63.727248,53.272253],[63.726648,53.272343],[63.726348,53.272612],[63.726498,53.272972],[63.726948,53.273061],[63.727248,53.273331],[63.726948,53.27405],[63.726948,53.274858],[63.727398,53.275128],[63.731148,53.275397],[63.731898,53.275846],[63.732048,53.276565],[63.732798,53.276924],[63.733698,53.277014],[63.727998,53.278811],[63.727398,53.278811],[63.727098,53.27899],[63.725898,53.27917],[63.722598,53.27926],[63.721848,53.27908],[63.720948,53.27908],[63.720648,53.2789],[63.719898,53.278811],[63.721248,53.280428],[63.721248,53.280697],[63.721848,53.281236],[63.721848,53.281506],[63.722598,53.282224],[63.722598,53.282494],[63.723198,53.283033],[63.723198,53.283302],[63.723948,53.284021],[63.723948,53.28429],[63.724548,53.284829],[63.724548,53.285099],[63.722748,53.284021],[63.721848,53.284111],[63.720498,53.283302],[63.720198,53.283302],[63.707149,53.275397],[63.703549,53.274678],[63.702949,53.274678],[63.701899,53.275397],[63.700399,53.275487],[63.698749,53.275038],[63.697849,53.274948],[63.695749,53.2736],[63.693649,53.273241],[63.691399,53.271894],[63.691399,53.271714],[63.696349,53.26875],[63.687349,53.26336],[63.682399,53.262372],[63.680449,53.261743],[63.679849,53.261743],[63.675499,53.264348]]]]}},{"type":"Feature","properties":{"slug":"uzkaya-koleya","name":"Узкая Колея","palette":5},"geometry":{"type":"MultiPolygon","coordinates":[[[[63.675499,53.264348],[63.670699,53.267312],[63.679099,53.272253],[63.676549,53.27378],[63.676549,53.27405],[63.678049,53.274858],[63.677749,53.275487],[63.676849,53.275397],[63.676399,53.275128],[63.675199,53.275846],[63.671899,53.274858],[63.670099,53.275936],[63.666649,53.27378],[63.666349,53.27378],[63.665749,53.274229],[63.665449,53.274229],[63.663499,53.272972],[63.663199,53.272972],[63.655249,53.277822],[63.654949,53.277822],[63.653299,53.276745],[63.660499,53.272433],[63.653899,53.26857],[63.654649,53.268121],[63.654649,53.267941],[63.64355,53.261294],[63.64325,53.261294],[63.6356,53.265965],[63.63515,53.265785],[63.6326,53.267402],[63.63215,53.267312],[63.63095,53.268121],[63.6302,53.267761],[63.62855,53.268839],[63.62765,53.26857],[63.6239,53.266234],[63.623,53.266055],[63.62165,53.265426],[63.6212,53.265516],[63.6206,53.265066],[63.6203,53.265156],[63.61925,53.264438],[63.61895,53.264438],[63.61805,53.263899],[63.61985,53.262821],[63.61985,53.262641],[63.6233,53.260665],[63.6233,53.260485],[63.6329,53.254826],[63.6329,53.254646],[63.6215,53.247819],[63.6242,53.246202],[63.6257,53.245843],[63.62675,53.245124],[63.62735,53.245124],[63.62915,53.244046],[63.62975,53.244046],[63.63155,53.244585],[63.6341,53.246202],[63.6347,53.246292],[63.63605,53.246921],[63.6371,53.24719],[63.63845,53.247999],[63.6386,53.248358],[63.63905,53.248538],[63.63905,53.248807],[63.6398,53.249256],[63.6401,53.249256],[63.64085,53.249795],[63.64145,53.249705],[63.64175,53.249885],[63.6425,53.249885],[63.64325,53.250334],[63.6458,53.251143],[63.6464,53.251502],[63.64865,53.252221],[63.6488,53.2524],[63.6506,53.252939],[63.65075,53.253119],[63.651349,53.253209],[63.654499,53.255005],[63.656749,53.255005],[63.660049,53.256982],[63.661099,53.257161],[63.661549,53.257431],[63.662149,53.257431],[63.663649,53.258419],[63.663949,53.258419],[63.665299,53.259317],[63.665599,53.259317],[63.666649,53.259946],[63.668599,53.261204],[63.669949,53.261204],[63.670399,53.261563],[63.670699,53.261563],[63.675499,53.264348]]]]}}],"attribution":"© OpenStreetMap contributors (ODbL)"}