{"type":"FeatureCollection","attribution":"© OpenStreetMap contributors (ODbL)","features":[{"type":"Feature","properties":{"kind":"river","name":"Тобол"},"geometry":{"type":"LineString","coordinates":[[63.73396,53.27693],[63.73423,53.27703],[63.73442,53.27718],[63.73502,53.27745],[63.73527,53.27759],[63.73538,53.27778],[63.73526,53.27799],[63.73537,53.27815],[63.73596,53.27845],[63.73645,53.279],[63.73637,53.27921],[63.73621,53.27937],[63.7358,53.27948],[63.73574,53.27956],[63.73576,53.27965],[63.73609,53.28002],[63.7365,53.28039],[63.73703,53.28057],[63.73747,53.28065],[63.73757,53.28069],[63.73766,53.28083],[63.7377,53.28096],[63.73767,53.28125],[63.73736,53.28172],[63.73718,53.28194],[63.73715,53.28218],[63.73744,53.28253],[63.73785,53.28285],[63.73821,53.28299],[63.73863,53.28303],[63.73896,53.28296],[63.73928,53.28285],[63.73939,53.28286],[63.74165,53.28355],[63.74186,53.28372],[63.742,53.28394],[63.74199,53.28419],[63.7419,53.28444],[63.74171,53.28474],[63.7415,53.28504],[63.74132,53.28534],[63.74127,53.28566],[63.74129,53.286],[63.74124,53.28637],[63.74103,53.28667],[63.74089,53.28683],[63.74089,53.287],[63.74102,53.28716],[63.74131,53.28731],[63.74195,53.28758],[63.74412,53.28812],[63.74641,53.28853],[63.74722,53.28886],[63.748,53.28923],[63.74935,53.29004],[63.7502,53.29066],[63.75063,53.29128],[63.75089,53.29146],[63.7513,53.29149],[63.75194,53.29191],[63.75199,53.29212],[63.75194,53.29232],[63.75145,53.29272],[63.75102,53.29283],[63.75067,53.29283],[63.75031,53.29265],[63.74992,53.29267],[63.74942,53.29309],[63.74917,53.29365],[63.74904,53.2939],[63.74872,53.29402],[63.74849,53.29407],[63.74824,53.294],[63.7477,53.29405],[63.74734,53.29423],[63.74685,53.29522],[63.74687,53.29561],[63.74717,53.29583],[63.74729,53.29655],[63.74721,53.29749],[63.74692,53.29792],[63.74683,53.29815],[63.747,53.29835],[63.74781,53.29904],[63.75013,53.30181]]}},{"type":"Feature","properties":{"kind":"river","name":"Тобол"},"geometry":{"type":"LineString","coordinates":[[63.67476,53.222],[63.67435,53.22242],[63.67423,53.22266],[63.67425,53.22306],[63.67475,53.2235],[63.67585,53.22435],[63.67654,53.2245],[63.67694,53.22447],[63.67749,53.22435],[63.67843,53.22437],[63.67875,53.22427],[63.67912,53.2239],[63.67935,53.22379],[63.68021,53.22385],[63.68128,53.22429],[63.68154,53.22444],[63.68218,53.22511],[63.6826,53.2262],[63.68293,53.22661],[63.68303,53.22703],[63.68303,53.2274],[63.68325,53.22775],[63.68377,53.22793],[63.68473,53.22837],[63.6852,53.22869],[63.68566,53.22917],[63.6864,53.23026],[63.68671,53.23059],[63.68666,53.23079],[63.68625,53.2311],[63.68622,53.23153],[63.68611,53.23179],[63.6863,53.23207],[63.68717,53.23252],[63.68758,53.23259],[63.68829,53.23258],[63.68895,53.23267],[63.69095,53.23327],[63.69139,53.23328],[63.6917,53.23321],[63.69202,53.23282],[63.69241,53.23266],[63.69297,53.23262],[63.69357,53.23269],[63.6941,53.23294],[63.69558,53.23329],[63.69683,53.23334],[63.69735,53.2332],[63.69768,53.23304],[63.69775,53.2328],[63.6976,53.2325],[63.69758,53.23226],[63.69784,53.23184],[63.6978,53.23106],[63.6975,53.23066],[63.69691,53.22943],[63.69701,53.22861],[63.69715,53.22834],[63.69756,53.2281],[63.69812,53.2278],[63.69851,53.22779],[63.69902,53.22786],[63.69939,53.22832],[63.7002,53.22863],[63.70071,53.22892],[63.70083,53.22926],[63.70069,53.22946],[63.70034,53.22961],[63.70019,53.22992],[63.70032,53.23017],[63.70165,53.23078],[63.70191,53.23098],[63.70266,53.23116],[63.70321,53.23134],[63.70367,53.23166],[63.7041,53.23185],[63.70569,53.23213],[63.70601,53.23233],[63.70625,53.23261],[63.70636,53.23288],[63.70632,53.23315],[63.70613,53.23329],[63.70569,53.23399],[63.70563,53.2342],[63.70561,53.23462],[63.7054,53.23493],[63.70503,53.23524],[63.70471,53.23566],[63.70396,53.23609],[63.7031,53.23641],[63.70262,53.23669],[63.70238,53.237],[63.70237,53.23737],[63.70247,53.23762],[63.70291,53.23789],[63.70319,53.23818],[63.7033,53.2385],[63.70311,53.23907],[63.70275,53.23951],[63.70277,53.2397],[63.70314,53.24001],[63.70346,53.24022],[63.70346,53.24063],[63.70373,53.241],[63.70431,53.24145],[63.70469,53.24192],[63.70521,53.24256],[63.7054,53.2429],[63.70556,53.24322],[63.70584,53.24336],[63.70624,53.24336],[63.70659,53.24332],[63.70684,53.24343],[63.70692,53.24361],[63.70711,53.24377],[63.70759,53.24395],[63.70877,53.24391],[63.70985,53.24408],[63.70999,53.24422],[63.70984,53.24438],[63.70986,53.24457],[63.70992,53.2448],[63.70983,53.24503],[63.70961,53.2455],[63.70961,53.24574],[63.70967,53.24598],[63.71023,53.24655],[63.71039,53.24688],[63.71063,53.2472],[63.71078,53.24734],[63.71102,53.24744],[63.71169,53.24749],[63.71199,53.24755],[63.71226,53.24766],[63.71254,53.24797],[63.71256,53.24821],[63.7128,53.24842],[63.71322,53.24855],[63.71366,53.24861],[63.71445,53.24859],[63.71509,53.24839],[63.71562,53.24831],[63.71582,53.24842]]}},{"type":"Feature","properties":{"kind":"river","name":"Тобыл"},"geometry":{"type":"LineString","coordinates":[[63.57079,53.10647],[63.57044,53.10681],[63.57035,53.10856],[63.57056,53.10901],[63.57114,53.10946]]}},{"type":"Feature","properties":{"kind":"water"},"geometry":{"type":"Polygon","coordinates":[[[63.56106,53.22075],[63.56218,53.22103],[63.56324,53.22155],[63.56352,53.2216],[63.56376,53.22161],[63.5639,53.22153],[63.56408,53.22136],[63.56427,53.22131],[63.56451,53.22138],[63.56469,53.22148],[63.56485,53.22153],[63.56497,53.22151],[63.56501,53.2215],[63.56519,53.22144],[63.56533,53.22138],[63.5654,53.22127],[63.56543,53.22126],[63.56551,53.22122],[63.5656,53.2212],[63.56579,53.22116],[63.56593,53.22111],[63.56592,53.22101],[63.56588,53.22082],[63.56592,53.22072],[63.56608,53.22066],[63.56623,53.22062],[63.56625,53.22053],[63.5661,53.2201],[63.5657,53.21976],[63.56541,53.21973],[63.56517,53.21978],[63.56476,53.21983],[63.56446,53.21982],[63.56413,53.21978],[63.56372,53.21971],[63.5635,53.21973],[63.5634,53.21978],[63.56329,53.21984],[63.56287,53.21997],[63.56234,53.22009],[63.56195,53.22008],[63.56115,53.2204],[63.561,53.22052],[63.56096,53.22063],[63.56106,53.22075]]]}},{"type":"Feature","properties":{"kind":"water"},"geometry":{"type":"Polygon","coordinates":[[[63.64257,53.18474],[63.64376,53.18616],[63.64453,53.18775],[63.64437,53.18933],[63.64339,53.19013],[63.64304,53.19063],[63.64228,53.1917],[63.6421,53.1924],[63.64271,53.19362],[63.64275,53.19365],[63.64381,53.19447],[63.6447,53.19477],[63.64598,53.19563],[63.64653,53.196],[63.64662,53.19602],[63.64669,53.19599],[63.64672,53.19601],[63.64665,53.19604],[63.64664,53.1961],[63.64704,53.19645],[63.64704,53.19663],[63.64741,53.19699],[63.64792,53.19751],[63.64804,53.19779],[63.64825,53.19802],[63.64855,53.19835],[63.64868,53.19863],[63.64873,53.19888],[63.64874,53.19916],[63.64901,53.19949],[63.64919,53.2],[63.64924,53.20037],[63.64928,53.20059],[63.64926,53.20081],[63.64916,53.20101],[63.649,53.20133],[63.64883,53.20152],[63.64862,53.20174],[63.6485,53.20194],[63.64845,53.20212],[63.64852,53.20253],[63.64847,53.20313],[63.64822,53.20536],[63.64807,53.20585],[63.64815,53.20607],[63.64894,53.20633],[63.64912,53.20632],[63.6493,53.20637],[63.64938,53.20647],[63.64928,53.20659],[63.64845,53.20678],[63.6484,53.20698],[63.64908,53.20756],[63.64921,53.20753],[63.64972,53.20789],[63.65026,53.2087],[63.65175,53.21009],[63.65286,53.21088],[63.65377,53.21114],[63.65649,53.21115],[63.65795,53.21168],[63.65893,53.21263],[63.65959,53.213],[63.66033,53.21306],[63.66145,53.21301],[63.66157,53.21277],[63.66159,53.21246],[63.66187,53.21246],[63.66187,53.21231],[63.66187,53.21217],[63.66158,53.21218],[63.6615,53.21183],[63.66124,53.21159],[63.66092,53.21152],[63.66024,53.21157],[63.65959,53.2115],[63.65861,53.21118],[63.65741,53.21064],[63.65596,53.21034],[63.6546,53.20974],[63.65326,53.20886],[63.65311,53.20867],[63.65306,53.2085],[63.65309,53.20827],[63.65284,53.20793],[63.65195,53.207],[63.65197,53.20653],[63.65197,53.206],[63.65231,53.20554],[63.65234,53.20544],[63.65222,53.20542],[63.65138,53.20585],[63.6504,53.2062],[63.65022,53.20617],[63.65008,53.20602],[63.65011,53.20594],[63.65142,53.20538],[63.65171,53.20521],[63.65177,53.2051],[63.65171,53.20492],[63.65172,53.20476],[63.65155,53.20464],[63.65101,53.2045],[63.65099,53.20426],[63.65115,53.20419],[63.65128,53.2042],[63.65193,53.2038],[63.65203,53.20339],[63.65209,53.20328],[63.65201,53.20259],[63.65186,53.20234],[63.65182,53.20221],[63.65184,53.202],[63.65189,53.20187],[63.65198,53.20141],[63.65198,53.20138],[63.65202,53.20065],[63.65196,53.2001],[63.65207,53.19995],[63.65221,53.19974],[63.65196,53.19958],[63.65197,53.19952],[63.65168,53.19939],[63.65109,53.19857],[63.64925,53.19641],[63.64771,53.19541],[63.64626,53.19466],[63.64534,53.19417],[63.64408,53.19343],[63.64345,53.19306],[63.64315,53.19263],[63.64299,53.19189],[63.64331,53.19118],[63.64391,53.19035],[63.64482,53.18966],[63.64521,53.18908],[63.64538,53.18756],[63.64433,53.18596],[63.64334,53.18479],[63.64267,53.18445],[63.64257,53.18474]]]}},{"type":"Feature","properties":{"kind":"water"},"geometry":{"type":"Polygon","coordinates":[[[63.61879,53.21981],[63.61911,53.21965],[63.61886,53.21946],[63.61853,53.21963],[63.61879,53.21981]]]}},{"type":"Feature","properties":{"kind":"water"},"geometry":{"type":"Polygon","coordinates":[[[63.56975,53.23642],[63.56995,53.23648],[63.57031,53.23644],[63.5706,53.23624],[63.57085,53.23611],[63.57113,53.23577],[63.57116,53.23562],[63.57097,53.23553],[63.57089,53.23552],[63.56978,53.23632],[63.56975,53.23642]]]}},{"type":"Feature","properties":{"kind":"water"},"geometry":{"type":"Polygon","coordinates":[[[63.66296,53.25576],[63.66309,53.25575],[63.66331,53.2556],[63.66332,53.25544],[63.66234,53.25482],[63.66222,53.25482],[63.66202,53.25498],[63.66201,53.25514],[63.66213,53.25527],[63.66283,53.25571],[63.66296,53.25576]]]}},{"type":"Feature","properties":{"kind":"water"},"geometry":{"type":"Polygon","coordinates":[[[63.64487,53.15843],[63.64535,53.15844],[63.6455,53.15827],[63.64561,53.15776],[63.64553,53.15768],[63.64508,53.15765],[63.64488,53.15803],[63.6448,53.15839],[63.64487,53.15843]]]}},{"type":"Feature","properties":{"kind":"water"},"geometry":{"type":"Polygon","coordinates":[[[63.62715,53.1616],[63.62736,53.16146],[63.62732,53.16135],[63.62713,53.16129],[63.62584,53.1614],[63.62535,53.16151],[63.62484,53.16158],[63.62469,53.16178],[63.62443,53.16181],[63.62428,53.16203],[63.62386,53.16224],[63.62382,53.16232],[63.62356,53.16233],[63.62323,53.16268],[63.62295,53.16272],[63.62272,53.16262],[63.62253,53.16269],[63.62251,53.1628],[63.62232,53.16287],[63.62167,53.16285],[63.6214,53.16279],[63.62143,53.16266],[63.62206,53.16263],[63.62242,53.16245],[63.62254,53.16225],[63.62238,53.16208],[63.62198,53.16203],[63.61958,53.16281],[63.61925,53.16319],[63.61881,53.16342],[63.61832,53.16353],[63.61776,53.16359],[63.61698,53.16382],[63.61668,53.16407],[63.61622,53.16422],[63.61592,53.16414],[63.61331,53.16495],[63.61327,53.16509],[63.61337,53.16532],[63.61368,53.1655],[63.61423,53.16552],[63.61468,53.16522],[63.61511,53.16525],[63.61619,53.16488],[63.61673,53.16442],[63.6169,53.16413],[63.618,53.16369],[63.61886,53.1636],[63.61939,53.16346],[63.62005,53.16344],[63.62028,53.16335],[63.62003,53.16305],[63.62011,53.16293],[63.62056,53.16283],[63.62047,53.16275],[63.62054,53.1627],[63.62083,53.16273],[63.62072,53.16288],[63.62089,53.16312],[63.6207,53.16335],[63.62075,53.16347],[63.62122,53.16359],[63.62156,53.16355],[63.62166,53.16346],[63.62188,53.16349],[63.62205,53.16366],[63.62191,53.16395],[63.62208,53.16428],[63.62191,53.16444],[63.62194,53.16458],[63.6224,53.16451],[63.62233,53.16414],[63.62254,53.16348],[63.62275,53.16308],[63.62291,53.16303],[63.62308,53.16302],[63.62347,53.1627],[63.62441,53.16235],[63.62463,53.16209],[63.62481,53.16201],[63.62484,53.16192],[63.62474,53.16188],[63.6248,53.16179],[63.62495,53.16179],[63.62507,53.16187],[63.62526,53.16185],[63.62557,53.16171],[63.62582,53.1617],[63.62628,53.16196],[63.62649,53.16195],[63.62691,53.16163],[63.62715,53.1616]]]}},{"type":"Feature","properties":{"kind":"water"},"geometry":{"type":"Polygon","coordinates":[[[63.646,53.169],[63.64636,53.16894],[63.64642,53.16887],[63.64648,53.16807],[63.64617,53.16786],[63.64569,53.16788],[63.64554,53.16815],[63.64511,53.16815],[63.64483,53.16828],[63.64477,53.16855],[63.64501,53.16874],[63.64518,53.16871],[63.64522,53.1686],[63.64534,53.16855],[63.64577,53.16858],[63.64587,53.16866],[63.64589,53.16895],[63.646,53.169]]]}},{"type":"Feature","properties":{"kind":"water"},"geometry":{"type":"Polygon","coordinates":[[[63.51645,53.21351],[63.51767,53.21354],[63.51995,53.21327],[63.52268,53.21235],[63.5241,53.21113],[63.52555,53.20916],[63.52611,53.20749],[63.52603,53.20643],[63.52522,53.20508],[63.52367,53.20369],[63.52134,53.20275],[63.51954,53.20242],[63.51617,53.2025],[63.51214,53.20398],[63.50984,53.2055],[63.50961,53.20829],[63.5107,53.21015],[63.51212,53.21144],[63.51473,53.21309],[63.51645,53.21351]]]}},{"type":"Feature","properties":{"kind":"water"},"geometry":{"type":"Polygon","coordinates":[[[63.61342,53.24892],[63.61354,53.24896],[63.61372,53.24893],[63.61383,53.24894],[63.61388,53.24894],[63.61393,53.24888],[63.61432,53.24881],[63.61435,53.24876],[63.61418,53.2486],[63.61405,53.24858],[63.61359,53.24863],[63.61337,53.24871],[63.61334,53.24878],[63.61342,53.24892]]]}},{"type":"Feature","properties":{"kind":"water"},"geometry":{"type":"Polygon","coordinates":[[[63.59784,53.25685],[63.59813,53.25684],[63.59897,53.25667],[63.59979,53.25625],[63.59964,53.25611],[63.59857,53.25629],[63.59767,53.25635],[63.59677,53.2563],[63.59626,53.25627],[63.59617,53.25638],[63.59682,53.25666],[63.59784,53.25685]]]}},{"type":"Feature","properties":{"kind":"water"},"geometry":{"type":"Polygon","coordinates":[[[63.69418,53.1712],[63.69438,53.17174],[63.69719,53.17361],[63.69848,53.17413],[63.69951,53.17373],[63.70007,53.17212],[63.69989,53.16935],[63.69619,53.16741],[63.69449,53.16755],[63.69409,53.16827],[63.69481,53.17029],[63.69418,53.1712]]]}},{"type":"Feature","properties":{"kind":"water"},"geometry":{"type":"Polygon","coordinates":[[[63.7165,53.18653],[63.71851,53.18618],[63.71865,53.18576],[63.71738,53.18546],[63.71645,53.18647],[63.7165,53.18653]]]}},{"type":"Feature","properties":{"kind":"water"},"geometry":{"type":"Polygon","coordinates":[[[63.71991,53.18615],[63.72075,53.18624],[63.7222,53.18587],[63.72193,53.18532],[63.72062,53.18532],[63.72048,53.18546],[63.7199,53.18558],[63.71991,53.18615]]]}},{"type":"Feature","properties":{"kind":"water"},"geometry":{"type":"Polygon","coordinates":[[[63.62078,53.17053],[63.62113,53.17053],[63.62201,53.17031],[63.62248,53.17049],[63.62341,53.17035],[63.62413,53.16987],[63.6242,53.16968],[63.62403,53.16959],[63.62379,53.16957],[63.62375,53.1694],[63.624,53.16928],[63.62462,53.16935],[63.62489,53.16924],[63.62498,53.16902],[63.62521,53.16891],[63.62529,53.16878],[63.62512,53.16848],[63.62553,53.16752],[63.62554,53.16718],[63.62536,53.16692],[63.62521,53.1669],[63.62486,53.16706],[63.62447,53.16737],[63.6241,53.16742],[63.62385,53.16733],[63.62363,53.1674],[63.6232,53.16735],[63.6231,53.16713],[63.62311,53.16685],[63.62345,53.16669],[63.62394,53.16664],[63.62413,53.16651],[63.6241,53.16633],[63.62426,53.16623],[63.62447,53.16622],[63.62418,53.16603],[63.62403,53.1658],[63.6238,53.16539],[63.62329,53.16508],[63.62284,53.16524],[63.62255,53.16541],[63.62235,53.16539],[63.62239,53.16551],[63.62188,53.16582],[63.6215,53.16579],[63.62137,53.16576],[63.62115,53.16581],[63.62069,53.16569],[63.62053,53.16556],[63.62044,53.1653],[63.62054,53.16509],[63.62079,53.16503],[63.62097,53.16515],[63.62158,53.16515],[63.62176,53.16504],[63.62174,53.16494],[63.62162,53.16483],[63.62133,53.16488],[63.62097,53.16478],[63.62084,53.16487],[63.62055,53.16487],[63.62018,53.16478],[63.61953,53.16494],[63.61932,53.16504],[63.61879,53.16515],[63.61817,53.16529],[63.61824,53.16545],[63.61863,53.16546],[63.61884,53.16554],[63.61918,53.1655],[63.6193,53.16576],[63.61941,53.1659],[63.61964,53.16583],[63.6199,53.16604],[63.62015,53.16611],[63.62065,53.16609],[63.62101,53.16601],[63.62139,53.16603],[63.6218,53.16615],[63.62197,53.16656],[63.62223,53.16679],[63.62222,53.16697],[63.6225,53.16695],[63.62256,53.16716],[63.62287,53.16725],[63.62285,53.16755],[63.62299,53.16768],[63.62289,53.16781],[63.62168,53.16811],[63.62174,53.16855],[63.62146,53.16872],[63.62138,53.16901],[63.62173,53.16931],[63.62201,53.1693],[63.62207,53.1694],[63.62229,53.16939],[63.62223,53.16959],[63.62186,53.16956],[63.62155,53.16969],[63.62125,53.16981],[63.62087,53.16983],[63.62065,53.17001],[63.62078,53.17053]]]}},{"type":"Feature","properties":{"kind":"water"},"geometry":{"type":"Polygon","coordinates":[[[63.61014,53.16605],[63.61014,53.16622],[63.61085,53.16674],[63.61095,53.16692],[63.61118,53.16708],[63.6112,53.1672],[63.61138,53.16735],[63.61142,53.16773],[63.61173,53.16824],[63.61201,53.16834],[63.61228,53.16899],[63.61273,53.16929],[63.61284,53.16974],[63.61309,53.16989],[63.61366,53.16992],[63.61395,53.16986],[63.61412,53.16979],[63.61428,53.16981],[63.61443,53.1699],[63.61457,53.17005],[63.61456,53.17023],[63.6147,53.17044],[63.61469,53.1706],[63.61455,53.17082],[63.61443,53.17121],[63.61457,53.17157],[63.61508,53.172],[63.61555,53.17233],[63.61576,53.17247],[63.61593,53.17256],[63.61634,53.17273],[63.61669,53.17273],[63.61727,53.1726],[63.61755,53.17254],[63.61789,53.17239],[63.61816,53.17229],[63.61828,53.17217],[63.61838,53.17204],[63.61848,53.17189],[63.61851,53.17169],[63.61837,53.17153],[63.61815,53.17109],[63.61804,53.17059],[63.61769,53.17032],[63.61743,53.17042],[63.61718,53.17051],[63.6173,53.1706],[63.61748,53.17072],[63.6176,53.17082],[63.61767,53.17094],[63.61766,53.17106],[63.61753,53.17119],[63.61716,53.17129],[63.61688,53.17125],[63.61653,53.17111],[63.61636,53.17095],[63.6158,53.17078],[63.61585,53.17071],[63.61597,53.17064],[63.61612,53.17036],[63.61656,53.17012],[63.61637,53.16982],[63.6165,53.16953],[63.61642,53.16936],[63.61593,53.16914],[63.61581,53.16918],[63.61583,53.16907],[63.61559,53.16902],[63.61562,53.16884],[63.61581,53.16871],[63.61574,53.16843],[63.61583,53.1683],[63.61581,53.16819],[63.61553,53.16811],[63.61534,53.16796],[63.61524,53.16795],[63.61504,53.16774],[63.6151,53.16764],[63.61531,53.16759],[63.61589,53.16774],[63.6163,53.16775],[63.61624,53.16786],[63.61606,53.16784],[63.61606,53.168],[63.61641,53.16817],[63.61662,53.16818],[63.61677,53.16797],[63.61736,53.16778],[63.61745,53.16759],[63.61738,53.16743],[63.61756,53.16723],[63.61786,53.16716],[63.61822,53.16723],[63.61852,53.16715],[63.61885,53.16699],[63.61859,53.16667],[63.61836,53.16662],[63.61854,53.16649],[63.61893,53.16642],[63.61909,53.16613],[63.61902,53.16589],[63.61875,53.16581],[63.61838,53.16592],[63.61825,53.16591],[63.61802,53.16606],[63.61742,53.16613],[63.61674,53.1663],[63.61648,53.16624],[63.61624,53.16605],[63.61583,53.16625],[63.61563,53.16628],[63.61528,53.16628],[63.6149,53.16642],[63.61453,53.16636],[63.61409,53.16616],[63.61361,53.1656],[63.61299,53.16533],[63.61237,53.16533],[63.61148,53.16553],[63.6111,53.16557],[63.61025,53.16588],[63.61014,53.16605]]]}},{"type":"Feature","properties":{"kind":"water"},"geometry":{"type":"Polygon","coordinates":[[[63.64701,53.20321],[63.64718,53.20321],[63.64737,53.20314],[63.64749,53.20306],[63.64754,53.20295],[63.64756,53.20286],[63.64752,53.20273],[63.64741,53.20265],[63.64725,53.20262],[63.64708,53.20263],[63.647,53.20262],[63.64695,53.20256],[63.64686,53.2024],[63.64664,53.20219],[63.64639,53.20202],[63.64627,53.20201],[63.64621,53.20206],[63.6462,53.2021],[63.6462,53.20218],[63.64629,53.2023],[63.64655,53.20259],[63.64679,53.20282],[63.64681,53.20291],[63.64673,53.20301],[63.64671,53.20307],[63.64674,53.20314],[63.64685,53.20319],[63.64701,53.20321]]]}},{"type":"Feature","properties":{"kind":"water"},"geometry":{"type":"Polygon","coordinates":[[[63.6318,53.19295],[63.6328,53.19303],[63.63407,53.19295],[63.63458,53.19277],[63.63436,53.19239],[63.63412,53.19212],[63.63418,53.19201],[63.63437,53.19205],[63.63466,53.19238],[63.63474,53.19234],[63.63441,53.19192],[63.63452,53.1917],[63.63441,53.1916],[63.63414,53.19151],[63.63395,53.19155],[63.63369,53.19176],[63.63329,53.19187],[63.63286,53.19192],[63.63272,53.19188],[63.6328,53.19169],[63.63341,53.19145],[63.63296,53.19139],[63.63278,53.19147],[63.63264,53.19146],[63.6323,53.19108],[63.63188,53.19085],[63.63152,53.19073],[63.63154,53.19048],[63.63098,53.1904],[63.631,53.19063],[63.63189,53.19122],[63.6321,53.19191],[63.6323,53.19237],[63.63211,53.19254],[63.63187,53.19268],[63.63169,53.19285],[63.6318,53.19295]]]}},{"type":"Feature","properties":{"kind":"water"},"geometry":{"type":"Polygon","coordinates":[[[63.65047,53.18249],[63.65046,53.18261],[63.65083,53.18319],[63.65081,53.1835],[63.6507,53.18379],[63.6507,53.1842],[63.65099,53.18465],[63.65141,53.18514],[63.65205,53.18547],[63.65272,53.18574],[63.65339,53.18592],[63.65431,53.1861],[63.65498,53.18627],[63.65544,53.18638],[63.65591,53.18636],[63.65645,53.18633],[63.65709,53.18628],[63.65744,53.18623],[63.65765,53.18615],[63.65775,53.186],[63.65761,53.18591],[63.65732,53.18591],[63.65682,53.18586],[63.65626,53.18577],[63.65592,53.18569],[63.65542,53.18562],[63.65443,53.18552],[63.65351,53.18528],[63.6533,53.18515],[63.6529,53.18506],[63.65248,53.18478],[63.65231,53.18454],[63.6522,53.18435],[63.65224,53.18421],[63.65201,53.18417],[63.65177,53.18389],[63.65156,53.18319],[63.65128,53.18277],[63.65106,53.18247],[63.65073,53.18241],[63.65047,53.18249]]]}},{"type":"Feature","properties":{"kind":"water"},"geometry":{"type":"Polygon","coordinates":[[[63.70397,53.21469],[63.70418,53.21473],[63.70488,53.21437],[63.70498,53.2141],[63.70496,53.2135],[63.70465,53.21347],[63.70425,53.21363],[63.70395,53.21344],[63.70412,53.21309],[63.7036,53.21254],[63.70302,53.21212],[63.7029,53.21179],[63.70216,53.21131],[63.70149,53.21123],[63.7009,53.21138],[63.70067,53.21176],[63.70397,53.21469]]]}},{"type":"Feature","properties":{"kind":"water"},"geometry":{"type":"Polygon","coordinates":[[[63.6819,53.21822],[63.68221,53.21838],[63.6827,53.21834],[63.68303,53.21817],[63.68306,53.21799],[63.68243,53.21738],[63.6822,53.21701],[63.68217,53.21662],[63.68202,53.21652],[63.68177,53.21655],[63.68141,53.21687],[63.68129,53.21724],[63.68147,53.21776],[63.6819,53.21822]]]}},{"type":"Feature","properties":{"kind":"water"},"geometry":{"type":"Polygon","coordinates":[[[63.71485,53.23597],[63.7148,53.23594],[63.71467,53.23566],[63.71461,53.23562],[63.71454,53.23566],[63.7145,53.23597],[63.71454,53.23599],[63.71459,53.2364],[63.71446,53.23658],[63.71446,53.23689],[63.71454,53.2371],[63.71469,53.23719],[63.7148,53.23715],[63.71493,53.23699],[63.71502,53.23676],[63.71502,53.23648],[63.71493,53.23638],[63.71497,53.23617],[63.71489,53.23612],[63.71485,53.23597]]]}},{"type":"Feature","properties":{"kind":"water"},"geometry":{"type":"Polygon","coordinates":[[[63.67869,53.20171],[63.67837,53.20201],[63.67841,53.20212],[63.68022,53.20242],[63.68134,53.20292],[63.68244,53.20374],[63.68336,53.20454],[63.68432,53.20406],[63.68257,53.20224],[63.68218,53.20153],[63.68165,53.20123],[63.68168,53.20092],[63.68088,53.20053],[63.6795,53.20055],[63.67906,53.20043],[63.67831,53.19995],[63.67794,53.1995],[63.67752,53.1992],[63.6773,53.19927],[63.67801,53.20014],[63.67901,53.20091],[63.67902,53.2012],[63.67869,53.20171]]]}},{"type":"Feature","properties":{"kind":"water"},"geometry":{"type":"Polygon","coordinates":[[[63.68344,53.21052],[63.68387,53.21051],[63.68404,53.21034],[63.6852,53.20887],[63.6856,53.2082],[63.68583,53.20738],[63.68568,53.20714],[63.68569,53.20679],[63.68584,53.20664],[63.68583,53.20608],[63.68557,53.20581],[63.68529,53.20577],[63.6851,53.20584],[63.68486,53.20584],[63.68477,53.20575],[63.68455,53.20578],[63.68449,53.20592],[63.68473,53.20651],[63.6847,53.20733],[63.68453,53.20791],[63.6839,53.2086],[63.68352,53.20949],[63.68338,53.21005],[63.68327,53.21029],[63.68329,53.21047],[63.68344,53.21052]]]}},{"type":"Feature","properties":{"kind":"water"},"geometry":{"type":"Polygon","coordinates":[[[63.66208,53.21735],[63.66212,53.21735],[63.66238,53.21725],[63.6626,53.21728],[63.66328,53.2171],[63.66384,53.21717],[63.66414,53.21728],[63.66401,53.21715],[63.66363,53.21699],[63.6632,53.21699],[63.66281,53.21707],[63.66208,53.21707],[63.66195,53.21699],[63.66161,53.21697],[63.66109,53.21679],[63.66088,53.21679],[63.66019,53.21645],[63.65993,53.21645],[63.65955,53.21617],[63.65908,53.21607],[63.65884,53.21577],[63.65852,53.21555],[63.65845,53.21572],[63.65807,53.21585],[63.6583,53.21589],[63.65848,53.21581],[63.65867,53.2159],[63.65863,53.21621],[63.65869,53.21625],[63.65916,53.2163],[63.65918,53.21642],[63.66006,53.21684],[63.66045,53.21687],[63.66079,53.21702],[63.66208,53.21735]]]}},{"type":"Feature","properties":{"kind":"water"},"geometry":{"type":"Polygon","coordinates":[[[63.71412,53.23371],[63.71399,53.2336],[63.71399,53.2335],[63.71388,53.23344],[63.71362,53.23344],[63.71356,53.23348],[63.71351,53.23366],[63.71364,53.23373],[63.71364,53.23389],[63.71373,53.23407],[63.7139,53.23422],[63.71394,53.23466],[63.7139,53.23494],[63.71377,53.23512],[63.71377,53.2355],[63.71386,53.23561],[63.71377,53.23566],[63.71377,53.23576],[63.71405,53.23598],[63.7142,53.23594],[63.71407,53.23576],[63.71394,53.23568],[63.71394,53.23561],[63.71403,53.23545],[63.71412,53.2354],[63.7142,53.23514],[63.71429,53.23509],[63.71437,53.23486],[63.71446,53.23479],[63.71446,53.23463],[63.71454,53.23448],[63.7145,53.23425],[63.71442,53.23419],[63.71433,53.23404],[63.71433,53.23394],[63.71412,53.23371]]]}},{"type":"Feature","properties":{"kind":"water"},"geometry":{"type":"Polygon","coordinates":[[[63.69335,53.22171],[63.69375,53.22172],[63.69452,53.22157],[63.69483,53.22159],[63.69513,53.22154],[63.69543,53.22159],[63.69586,53.22146],[63.69605,53.22132],[63.69643,53.22116],[63.69594,53.2212],[63.69573,53.22134],[63.6956,53.22134],[63.69525,53.22123],[63.69513,53.22129],[63.69504,53.22126],[63.69495,53.22134],[63.69418,53.22134],[63.69349,53.22159],[63.69303,53.22146],[63.69317,53.22143],[63.69307,53.22136],[63.69286,53.22139],[63.69251,53.22116],[63.69218,53.22112],[63.69212,53.22108],[63.69186,53.22108],[63.69143,53.22093],[63.69088,53.2208],[63.69064,53.22068],[63.69051,53.22058],[63.69047,53.22048],[63.69021,53.22032],[63.69004,53.22006],[63.68973,53.21993],[63.68942,53.21979],[63.6892,53.21979],[63.68897,53.21999],[63.68903,53.22014],[63.6891,53.22032],[63.68931,53.22045],[63.68953,53.22068],[63.68948,53.22081],[63.68974,53.22091],[63.68978,53.22099],[63.69023,53.22126],[63.69058,53.22134],[63.69068,53.22143],[63.69051,53.22155],[63.69053,53.22162],[63.69088,53.2217],[63.69148,53.2217],[63.69178,53.22177],[63.69212,53.22175],[63.69225,53.2217],[63.69324,53.22175],[63.69335,53.22171]]]}},{"type":"Feature","properties":{"kind":"water"},"geometry":{"type":"Polygon","coordinates":[[[63.70156,53.22121],[63.70276,53.22121],[63.70332,53.22116],[63.70397,53.22118],[63.70435,53.22111],[63.70457,53.22113],[63.705,53.22095],[63.70517,53.22105],[63.70534,53.22098],[63.70551,53.22103],[63.70549,53.22096],[63.70564,53.22087],[63.70598,53.22075],[63.70628,53.22082],[63.70657,53.22081],[63.70684,53.22077],[63.70677,53.22068],[63.70611,53.22064],[63.70589,53.22068],[63.7056,53.22071],[63.70504,53.22067],[63.70495,53.22062],[63.70371,53.22062],[63.70358,53.22075],[63.70341,53.22077],[63.70315,53.22067],[63.70298,53.22072],[63.70285,53.22067],[63.70246,53.22067],[63.70204,53.22072],[63.70199,53.22064],[63.70173,53.22067],[63.70161,53.22057],[63.70148,53.22064],[63.70109,53.22057],[63.70083,53.22062],[63.70062,53.22051],[63.70055,53.22055],[63.70064,53.2206],[63.70062,53.22064],[63.70023,53.22057],[63.70015,53.22051],[63.69976,53.22051],[63.69963,53.22044],[63.6995,53.22051],[63.69916,53.22051],[63.69903,53.22046],[63.698,53.22046],[63.69779,53.22051],[63.69738,53.22073],[63.69749,53.22082],[63.69787,53.22072],[63.69809,53.22075],[63.6983,53.22085],[63.69869,53.2208],[63.69873,53.22085],[63.6989,53.22087],[63.69907,53.22082],[63.69955,53.2208],[63.6998,53.22087],[63.7001,53.22087],[63.70017,53.22109],[63.70028,53.22116],[63.70062,53.22118],[63.7007,53.22123],[63.70131,53.22123],[63.70156,53.22121]]]}},{"type":"Feature","properties":{"kind":"water"},"geometry":{"type":"Polygon","coordinates":[[[63.70848,53.22217],[63.70828,53.22215],[63.70814,53.22207],[63.70804,53.22198],[63.70786,53.22194],[63.7077,53.22188],[63.70752,53.22182],[63.70742,53.22181],[63.70741,53.22175],[63.70735,53.22171],[63.70736,53.22165],[63.70741,53.22161],[63.70757,53.22156],[63.70764,53.22152],[63.70771,53.22148],[63.70778,53.22145],[63.70787,53.22142],[63.70795,53.2214],[63.70804,53.22138],[63.70812,53.22136],[63.70829,53.22126],[63.70837,53.22123],[63.70846,53.22124],[63.70855,53.22124],[63.70858,53.22126],[63.7085,53.2213],[63.70845,53.22135],[63.70856,53.22135],[63.7086,53.22133],[63.70884,53.2216],[63.70878,53.22162],[63.70903,53.22187],[63.70904,53.22191],[63.70906,53.22197],[63.7091,53.22202],[63.70916,53.22206],[63.70925,53.22208],[63.70929,53.22211],[63.70927,53.22215],[63.70931,53.2222],[63.70933,53.22226],[63.70939,53.2223],[63.70948,53.22231],[63.70964,53.22238],[63.70991,53.22256],[63.71025,53.22316],[63.7104,53.22347],[63.71049,53.22358],[63.71055,53.22404],[63.71052,53.22436],[63.71047,53.22443],[63.71043,53.2245],[63.71043,53.22459],[63.7103,53.22473],[63.70992,53.2252],[63.70983,53.22527],[63.70974,53.22532],[63.70968,53.2254],[63.70967,53.22548],[63.70964,53.22551],[63.70959,53.22553],[63.70954,53.22553],[63.7095,53.22551],[63.70946,53.2255],[63.70941,53.22549],[63.70938,53.22547],[63.70937,53.22544],[63.70937,53.22536],[63.70941,53.22526],[63.70944,53.22521],[63.70944,53.22509],[63.70947,53.22505],[63.70952,53.22503],[63.70953,53.22495],[63.70956,53.22489],[63.70959,53.22486],[63.70963,53.22483],[63.70968,53.2248],[63.70971,53.22476],[63.70972,53.22473],[63.70983,53.22468],[63.71003,53.22456],[63.71005,53.22452],[63.71007,53.22448],[63.71011,53.22445],[63.71011,53.22441],[63.71012,53.22437],[63.7101,53.22433],[63.7101,53.22429],[63.71012,53.22425],[63.71012,53.22421],[63.7101,53.22417],[63.71005,53.22414],[63.71001,53.22411],[63.71002,53.22407],[63.71004,53.22403],[63.71005,53.22399],[63.71004,53.22387],[63.71,53.22373],[63.70988,53.22356],[63.7097,53.22335],[63.70966,53.22319],[63.70966,53.22302],[63.70962,53.22291],[63.70958,53.22287],[63.70951,53.22283],[63.70947,53.22277],[63.70946,53.22272],[63.70939,53.22261],[63.70914,53.22247],[63.70907,53.22242],[63.70864,53.22221],[63.70856,53.22217],[63.70848,53.22217]]]}},{"type":"Feature","properties":{"kind":"water"},"geometry":{"type":"Polygon","coordinates":[[[63.59797,53.12813],[63.59853,53.12797],[63.59846,53.1277],[63.59856,53.12746],[63.59837,53.12732],[63.59811,53.12732],[63.59759,53.12758],[63.59753,53.1277],[63.59759,53.12794],[63.59783,53.12811],[63.59797,53.12813]]]}},{"type":"Feature","properties":{"kind":"water"},"geometry":{"type":"Polygon","coordinates":[[[63.59418,53.1285],[63.59456,53.12859],[63.59469,53.12857],[63.5951,53.12838],[63.59511,53.12829],[63.59427,53.12711],[63.59391,53.12681],[63.59375,53.12694],[63.59387,53.12724],[63.59396,53.1276],[63.59415,53.12789],[63.59412,53.12844],[63.59418,53.1285]]]}},{"type":"Feature","properties":{"kind":"water"},"geometry":{"type":"Polygon","coordinates":[[[63.6623,53.18512],[63.66267,53.18519],[63.66312,53.18525],[63.6636,53.18539],[63.66374,53.1855],[63.66372,53.18566],[63.66353,53.18574],[63.66333,53.18574],[63.66311,53.18575],[63.66261,53.18565],[63.66241,53.1856],[63.66221,53.18555],[63.66205,53.1855],[63.66198,53.18539],[63.66204,53.18529],[63.66218,53.18516],[63.6623,53.18512]]]}},{"type":"Feature","properties":{"kind":"water"},"geometry":{"type":"Polygon","coordinates":[[[63.52436,53.15909],[63.52526,53.15841],[63.52529,53.15795],[63.52081,53.15467],[63.51923,53.15432],[63.51926,53.15467],[63.52036,53.15516],[63.52232,53.15625],[63.52421,53.15783],[63.52427,53.15835],[63.52394,53.15894],[63.52436,53.15909]]]}},{"type":"Feature","properties":{"kind":"water"},"geometry":{"type":"Polygon","coordinates":[[[63.69005,53.22306],[63.69016,53.22309],[63.69017,53.22311],[63.69022,53.22311],[63.69027,53.22311],[63.6903,53.22312],[63.69032,53.22313],[63.69034,53.22313],[63.69037,53.22312],[63.69041,53.22312],[63.69045,53.22312],[63.69048,53.22312],[63.6905,53.2231],[63.6905,53.22308],[63.69051,53.22306],[63.69057,53.22305],[63.69056,53.22303],[63.69054,53.22299],[63.69051,53.22297],[63.69046,53.22295],[63.69047,53.22293],[63.69047,53.22291],[63.69045,53.2229],[63.69042,53.22288],[63.69037,53.22286],[63.69032,53.22284],[63.69029,53.22282],[63.69023,53.2228],[63.69017,53.22278],[63.69007,53.22277],[63.68998,53.22277],[63.68993,53.22279],[63.68986,53.22283],[63.68984,53.22284],[63.68983,53.22287],[63.68979,53.2229],[63.68977,53.22293],[63.68976,53.22297],[63.6898,53.223],[63.68986,53.22302],[63.68992,53.22304],[63.69,53.22305],[63.69005,53.22306]]]}},{"type":"Feature","properties":{"kind":"water"},"geometry":{"type":"Polygon","coordinates":[[[63.66469,53.2105],[63.66489,53.21041],[63.66548,53.21033],[63.66681,53.20998],[63.66753,53.21],[63.66829,53.20983],[63.66913,53.20988],[63.66985,53.20988],[63.6703,53.20996],[63.67073,53.20995],[63.67095,53.21005],[63.67135,53.21047],[63.67187,53.21072],[63.67225,53.21102],[63.67221,53.21127],[63.67228,53.21144],[63.67272,53.21177],[63.67286,53.21219],[63.67283,53.21241],[63.67251,53.21289],[63.67256,53.21311],[63.67306,53.21374],[63.67343,53.21402],[63.67442,53.21442],[63.67464,53.21481],[63.67455,53.21484],[63.67452,53.21496],[63.67439,53.21488],[63.67435,53.215],[63.67397,53.21511],[63.67392,53.21526],[63.67402,53.21536],[63.67403,53.2156],[63.67449,53.21606],[63.67481,53.21625],[63.67493,53.21642],[63.67491,53.21676],[63.6745,53.21714],[63.67438,53.21732],[63.67449,53.21749],[63.67472,53.21749],[63.67467,53.21724],[63.67479,53.21705],[63.67499,53.21698],[63.6751,53.21668],[63.67518,53.21656],[63.67494,53.21602],[63.67452,53.21575],[63.67453,53.21571],[63.67475,53.21576],[63.67481,53.21573],[63.67464,53.21551],[63.67452,53.21549],[63.67449,53.21569],[63.67437,53.21571],[63.67411,53.21542],[63.67412,53.21527],[63.67426,53.21511],[63.67464,53.2151],[63.67492,53.21503],[63.67503,53.21474],[63.67446,53.21431],[63.67345,53.21393],[63.67298,53.21351],[63.67274,53.21305],[63.67285,53.21254],[63.67301,53.21241],[63.67292,53.21176],[63.67269,53.21153],[63.67273,53.21148],[63.67242,53.21135],[63.67249,53.21113],[63.67242,53.211],[63.6722,53.21087],[63.67199,53.21067],[63.67162,53.2105],[63.67143,53.21032],[63.67145,53.21022],[63.67126,53.21018],[63.67103,53.20987],[63.67074,53.20976],[63.67022,53.20983],[63.67014,53.20974],[63.66959,53.20974],[63.66922,53.20964],[63.66904,53.20965],[63.6691,53.20969],[63.66901,53.20973],[63.6687,53.20974],[63.66866,53.20967],[63.66844,53.20969],[63.66828,53.20975],[63.66814,53.20974],[63.66729,53.20987],[63.66681,53.20988],[63.6665,53.20992],[63.66552,53.21018],[63.66521,53.21023],[63.66479,53.21035],[63.66451,53.21049],[63.66396,53.21093],[63.66397,53.21104],[63.66425,53.21132],[63.6643,53.21148],[63.66417,53.21167],[63.66352,53.21193],[63.66305,53.21198],[63.66275,53.2121],[63.66262,53.21205],[63.66278,53.21194],[63.66282,53.21178],[63.6628,53.21172],[63.66264,53.21172],[63.66267,53.21183],[63.66264,53.21191],[63.66223,53.21194],[63.66205,53.21198],[63.66192,53.21206],[63.66192,53.21262],[63.66253,53.21252],[63.66298,53.21252],[63.66336,53.21237],[63.66382,53.21196],[63.66417,53.21195],[63.6643,53.21189],[63.66453,53.21158],[63.66452,53.21121],[63.66426,53.21103],[63.66424,53.21093],[63.66469,53.2105]]]}},{"type":"Feature","properties":{"kind":"water"},"geometry":{"type":"Polygon","coordinates":[[[63.56971,53.22633],[63.57066,53.22608],[63.57079,53.22589],[63.57073,53.22577],[63.57054,53.22572],[63.56994,53.2259],[63.56965,53.22613],[63.56964,53.22628],[63.56971,53.22633]]]}},{"type":"Feature","properties":{"kind":"water"},"geometry":{"type":"Polygon","coordinates":[[[63.60553,53.15753],[63.6059,53.15717],[63.60677,53.15717],[63.60692,53.15704],[63.60677,53.15618],[63.60636,53.15555],[63.60671,53.15583],[63.60749,53.15669],[63.60759,53.15714],[63.60731,53.15738],[63.6069,53.15757],[63.60646,53.15808],[63.60626,53.15812],[63.60553,53.15753]]]}},{"type":"Feature","properties":{"kind":"water"},"geometry":{"type":"Polygon","coordinates":[[[63.62974,53.17636],[63.62986,53.17626],[63.62949,53.17584],[63.63003,53.17592],[63.63112,53.17703],[63.63254,53.17817],[63.63292,53.17867],[63.63344,53.17931],[63.63412,53.17948],[63.63496,53.17941],[63.63612,53.17923],[63.63657,53.17908],[63.63629,53.17895],[63.63647,53.17888],[63.63773,53.17888],[63.63852,53.17911],[63.63871,53.17932],[63.63853,53.17943],[63.63839,53.1795],[63.63809,53.1796],[63.63724,53.17948],[63.63655,53.17931],[63.63488,53.1797],[63.63408,53.17979],[63.63293,53.17957],[63.63215,53.17926],[63.63147,53.17865],[63.63132,53.17846],[63.6316,53.17851],[63.63121,53.1781],[63.63036,53.17718],[63.62974,53.17636]]]}},{"type":"Feature","properties":{"kind":"water"},"geometry":{"type":"Polygon","coordinates":[[[63.64065,53.18152],[63.64007,53.18127],[63.64007,53.18099],[63.64078,53.18027],[63.64022,53.18022],[63.63938,53.18013],[63.63951,53.18002],[63.63882,53.17997],[63.63784,53.17991],[63.63784,53.17982],[63.6396,53.17986],[63.63853,53.17943],[63.63871,53.17932],[63.64041,53.1798],[63.64096,53.17978],[63.64135,53.17984],[63.64172,53.18002],[63.6421,53.18038],[63.64226,53.18101],[63.64193,53.18156],[63.64176,53.18152],[63.64203,53.18087],[63.6418,53.18045],[63.64125,53.18048],[63.64127,53.18084],[63.64127,53.18126],[63.64097,53.18152],[63.64065,53.18152]]]}},{"type":"Feature","properties":{"kind":"water"},"geometry":{"type":"Polygon","coordinates":[[[63.61794,53.14631],[63.61768,53.14587],[63.61652,53.14473],[63.61441,53.14304],[63.61179,53.14192],[63.61005,53.14173],[63.6073,53.14125],[63.60642,53.14058],[63.60642,53.13998],[63.60609,53.13993],[63.6057,53.14062],[63.60748,53.14203],[63.61043,53.14235],[63.61158,53.14241],[63.6127,53.14321],[63.61444,53.14407],[63.61724,53.14639],[63.6177,53.14651],[63.61794,53.14631]]]}},{"type":"Feature","properties":{"kind":"water"},"geometry":{"type":"Polygon","coordinates":[[[63.60114,53.1447],[63.60081,53.14446],[63.60019,53.14428],[63.59957,53.14372],[63.59905,53.14296],[63.59895,53.14244],[63.59934,53.14167],[63.60028,53.1408],[63.60059,53.13998],[63.60113,53.1398],[63.60086,53.13898],[63.60031,53.13879],[63.59984,53.13869],[63.59799,53.13776],[63.59521,53.13705],[63.59365,53.13647],[63.59182,53.13604],[63.59147,53.13635],[63.59514,53.13724],[63.59831,53.13827],[63.59957,53.13889],[63.60054,53.1392],[63.60063,53.13946],[63.59998,53.13995],[63.59959,53.14077],[63.59921,53.14117],[63.59907,53.1415],[63.59862,53.14197],[63.59847,53.14259],[63.59856,53.14319],[63.59905,53.14401],[63.59997,53.14461],[63.60085,53.14484],[63.60095,53.14505],[63.60144,53.14484],[63.60114,53.1447]]]}},{"type":"Feature","properties":{"kind":"river","name":"Тобыл"},"geometry":{"type":"LineString","coordinates":[[63.6195,53.17037],[63.61965,53.17085],[63.62072,53.17285],[63.62128,53.17329],[63.62234,53.17463],[63.62278,53.17592],[63.62268,53.17708],[63.6228,53.17754],[63.6225,53.1778],[63.6216,53.17847],[63.62148,53.17902],[63.62185,53.17964],[63.62231,53.1802],[63.62361,53.18109],[63.62586,53.18229],[63.62692,53.18299],[63.62731,53.18392],[63.62791,53.18438],[63.62919,53.1846],[63.63202,53.18541],[63.63401,53.18541],[63.63626,53.18493],[63.63878,53.18402],[63.63963,53.18386],[63.64257,53.18454],[63.64336,53.18511],[63.64508,53.18762],[63.64486,53.1892],[63.64356,53.19032],[63.6427,53.19162],[63.64287,53.19294],[63.64393,53.194],[63.64625,53.19514],[63.64868,53.1967],[63.65055,53.20001],[63.64976,53.20301],[63.64971,53.20616],[63.65029,53.20689],[63.65066,53.2076]]}},{"type":"Feature","properties":{"kind":"river","name":"Тобыл"},"geometry":{"type":"LineString","coordinates":[[63.61398,53.1651],[63.61463,53.16503],[63.61574,53.16471],[63.6163,53.16445],[63.61685,53.16406],[63.61765,53.16369],[63.61903,53.16342],[63.61966,53.16311],[63.62018,53.16274],[63.62098,53.1626],[63.62126,53.16293],[63.62205,53.16318],[63.6222,53.16358],[63.62221,53.16444],[63.62332,53.16521]]}},{"type":"Feature","properties":{"kind":"water"},"geometry":{"type":"Polygon","coordinates":[[[63.63105,53.20544],[63.63093,53.20542],[63.63094,53.20538],[63.63099,53.20532],[63.63113,53.20521],[63.63141,53.20502],[63.63175,53.20487],[63.63182,53.20491],[63.63182,53.20496],[63.63178,53.20506],[63.63158,53.20515],[63.63105,53.20544]]]}},{"type":"Feature","properties":{"kind":"water"},"geometry":{"type":"Polygon","coordinates":[[[63.71318,53.17891],[63.71298,53.17912],[63.71304,53.17924],[63.71337,53.17934],[63.71383,53.17935],[63.71357,53.17924],[63.71361,53.17915],[63.71381,53.17912],[63.71409,53.17914],[63.71433,53.1791],[63.71454,53.17913],[63.71429,53.17905],[63.71401,53.17903],[63.71381,53.17904],[63.71353,53.17896],[63.71318,53.17891]]]}},{"type":"Feature","properties":{"kind":"water"},"geometry":{"type":"Polygon","coordinates":[[[63.70951,53.17791],[63.70933,53.1782],[63.7094,53.17828],[63.70972,53.17839],[63.71107,53.17847],[63.71135,53.17841],[63.71196,53.17843],[63.71229,53.1785],[63.71202,53.17837],[63.71176,53.17835],[63.71137,53.17829],[63.71104,53.17828],[63.71078,53.17833],[63.71042,53.17822],[63.71031,53.17815],[63.71035,53.17807],[63.71037,53.17801],[63.71027,53.17793],[63.7099,53.17789],[63.70962,53.17787],[63.70951,53.17791]]]}},{"type":"Feature","properties":{"kind":"water"},"geometry":{"type":"Polygon","coordinates":[[[63.64267,53.18445],[63.64229,53.18429],[63.64144,53.18398],[63.6406,53.18375],[63.6401,53.18364],[63.63958,53.18359],[63.63903,53.18364],[63.63844,53.18381],[63.63824,53.18397],[63.63767,53.18413],[63.63727,53.18427],[63.63671,53.18444],[63.63605,53.18471],[63.63567,53.18486],[63.63518,53.18502],[63.63509,53.18495],[63.63497,53.18492],[63.63485,53.18497],[63.63484,53.18503],[63.63493,53.18506],[63.63472,53.18513],[63.63432,53.18515],[63.63407,53.18515],[63.63378,53.18522],[63.63365,53.18524],[63.63341,53.18528],[63.63304,53.18527],[63.63262,53.18529],[63.63236,53.18532],[63.63206,53.18531],[63.63141,53.18522],[63.63023,53.18494],[63.62928,53.18455],[63.62905,53.18447],[63.62901,53.18453],[63.6288,53.18448],[63.62866,53.1844],[63.62849,53.18439],[63.62826,53.18419],[63.62813,53.18404],[63.62801,53.18394],[63.62817,53.18396],[63.62832,53.18406],[63.62827,53.18394],[63.62832,53.18384],[63.62823,53.18371],[63.62804,53.18355],[63.62781,53.18344],[63.62769,53.18341],[63.62768,53.18348],[63.62773,53.18355],[63.62768,53.18364],[63.62784,53.18376],[63.62791,53.18392],[63.62806,53.18409],[63.62824,53.18425],[63.62827,53.18435],[63.62816,53.18437],[63.62792,53.18431],[63.62774,53.1842],[63.62756,53.18402],[63.62752,53.18392],[63.62757,53.18385],[63.62715,53.18404],[63.62735,53.18419],[63.62746,53.18426],[63.6275,53.18439],[63.62779,53.18446],[63.62816,53.18453],[63.6287,53.18473],[63.62896,53.18485],[63.629,53.18491],[63.62896,53.18497],[63.62902,53.18498],[63.62909,53.18491],[63.62928,53.18497],[63.6301,53.18518],[63.63043,53.18526],[63.63058,53.1853],[63.63067,53.18537],[63.63103,53.18546],[63.63137,53.18548],[63.63168,53.18552],[63.63211,53.18557],[63.63256,53.18559],[63.63304,53.18555],[63.63371,53.18551],[63.63414,53.18545],[63.63429,53.18548],[63.63433,53.18553],[63.63444,53.18548],[63.63458,53.18545],[63.63468,53.18545],[63.63503,53.18543],[63.6352,53.18538],[63.63548,53.18534],[63.63575,53.18532],[63.63584,53.18526],[63.63608,53.18517],[63.63631,53.18512],[63.63642,53.18512],[63.63655,53.18499],[63.63667,53.18487],[63.63671,53.18484],[63.63676,53.18485],[63.63677,53.18487],[63.63669,53.18495],[63.63683,53.18493],[63.63708,53.18488],[63.63726,53.18482],[63.63739,53.18468],[63.63753,53.18463],[63.63768,53.18455],[63.63783,53.18446],[63.638,53.18439],[63.63809,53.18437],[63.63845,53.18421],[63.63891,53.18395],[63.63916,53.18391],[63.6396,53.18397],[63.63993,53.184],[63.64023,53.18405],[63.64059,53.18413],[63.64093,53.1842],[63.64106,53.18427],[63.64045,53.18432],[63.6401,53.18434],[63.64022,53.18442],[63.64045,53.18448],[63.64077,53.18446],[63.64105,53.18443],[63.64158,53.18449],[63.6421,53.18462],[63.64243,53.18472],[63.64257,53.18474],[63.64267,53.18445]]]}},{"type":"Feature","properties":{"kind":"water"},"geometry":{"type":"Polygon","coordinates":[[[63.61956,53.17033],[63.61964,53.1705],[63.61974,53.17083],[63.61998,53.17125],[63.62022,53.17162],[63.62037,53.17189],[63.62053,53.17228],[63.62072,53.17255],[63.62096,53.17289],[63.62124,53.17317],[63.62138,53.17332],[63.62164,53.17352],[63.6219,53.17384],[63.62233,53.1743],[63.62259,53.17477],[63.62276,53.17509],[63.62284,53.17541],[63.62286,53.17564],[63.62285,53.17585],[63.62295,53.17597],[63.62293,53.17608],[63.62292,53.17633],[63.62296,53.17659],[63.62282,53.1769],[63.62281,53.17714],[63.62296,53.17721],[63.623,53.17727],[63.62298,53.1774],[63.62293,53.17756],[63.62278,53.17774],[63.62271,53.17792],[63.62272,53.17808],[63.62267,53.17815],[63.6225,53.17814],[63.62232,53.17816],[63.62212,53.17834],[63.62208,53.17845],[63.62179,53.17853],[63.62167,53.17868],[63.62163,53.17885],[63.62177,53.17906],[63.6219,53.17906],[63.62186,53.17916],[63.62192,53.17937],[63.62197,53.17956],[63.62214,53.17987],[63.62237,53.18007],[63.62262,53.18026],[63.62284,53.18037],[63.62298,53.18038],[63.62323,53.18046],[63.62329,53.18053],[63.62323,53.18064],[63.62352,53.18087],[63.62375,53.18105],[63.62386,53.18115],[63.62396,53.18115],[63.62403,53.18108],[63.6242,53.18114],[63.62446,53.1812],[63.62467,53.18135],[63.62487,53.18143],[63.62495,53.18151],[63.62505,53.18149],[63.62508,53.18159],[63.62512,53.18176],[63.62544,53.18188],[63.62564,53.182],[63.62584,53.18217],[63.62628,53.18239],[63.62654,53.18256],[63.62678,53.18244],[63.62695,53.18248],[63.62701,53.18255],[63.62694,53.18265],[63.627,53.18281],[63.62714,53.1831],[63.62729,53.1832],[63.62748,53.18321],[63.62749,53.18333],[63.62752,53.18346],[63.62761,53.18356],[63.62773,53.18355],[63.62768,53.18364],[63.62752,53.18362],[63.62745,53.18368],[63.62747,53.18375],[63.62757,53.18385],[63.62715,53.18404],[63.62705,53.18396],[63.62698,53.1838],[63.62683,53.18366],[63.6267,53.18356],[63.62681,53.18354],[63.62691,53.18351],[63.62684,53.18335],[63.62668,53.18314],[63.62629,53.18284],[63.6261,53.18276],[63.62589,53.18261],[63.62552,53.18236],[63.62541,53.18232],[63.62531,53.1822],[63.62504,53.18212],[63.62484,53.18202],[63.6246,53.18194],[63.62451,53.18184],[63.6243,53.18173],[63.62414,53.18164],[63.62391,53.18155],[63.62373,53.18146],[63.62359,53.18137],[63.62332,53.18118],[63.62307,53.18102],[63.623,53.18092],[63.62288,53.18087],[63.62272,53.18078],[63.62267,53.18068],[63.62254,53.18061],[63.62238,53.18051],[63.62225,53.1804],[63.62203,53.18018],[63.62183,53.17997],[63.62172,53.17985],[63.62167,53.17971],[63.62154,53.17961],[63.62145,53.17949],[63.62145,53.17938],[63.62139,53.17928],[63.62127,53.17916],[63.62121,53.17901],[63.62133,53.1788],[63.62143,53.17858],[63.62141,53.17849],[63.62131,53.17847],[63.62119,53.17847],[63.62121,53.17845],[63.62139,53.17842],[63.62155,53.17836],[63.62175,53.17821],[63.62194,53.17798],[63.62206,53.17784],[63.62216,53.1778],[63.62222,53.17787],[63.6224,53.17771],[63.62259,53.17751],[63.62268,53.17744],[63.62263,53.17729],[63.62252,53.17718],[63.62236,53.1772],[63.62226,53.17724],[63.62237,53.17715],[63.62246,53.1771],[63.62248,53.17701],[63.62251,53.17684],[63.62248,53.17663],[63.62239,53.17651],[63.62235,53.17641],[63.62242,53.17639],[63.62253,53.17625],[63.62258,53.17606],[63.62257,53.17594],[63.62247,53.17576],[63.62245,53.17562],[63.62239,53.17535],[63.62228,53.17507],[63.62213,53.17478],[63.62197,53.17446],[63.62185,53.17426],[63.62165,53.17408],[63.62136,53.17381],[63.62124,53.17354],[63.62108,53.17336],[63.62094,53.17326],[63.62076,53.17321],[63.62067,53.1731],[63.62043,53.17286],[63.62032,53.17271],[63.62028,53.17249],[63.62014,53.17236],[63.62016,53.17225],[63.62006,53.17204],[63.61989,53.1718],[63.61983,53.17166],[63.61971,53.1714],[63.61955,53.17115],[63.61946,53.17089],[63.61938,53.17067],[63.61929,53.17036],[63.61923,53.17021],[63.61927,53.17003],[63.61937,53.16998],[63.61951,53.17012],[63.61956,53.17033]]]}},{"type":"Feature","properties":{"kind":"water"},"geometry":{"type":"Polygon","coordinates":[[[63.61951,53.17012],[63.61951,53.17011],[63.61953,53.17002],[63.61979,53.16964],[63.61986,53.16959],[63.61989,53.16951],[63.61991,53.16939],[63.62004,53.1692],[63.62014,53.16915],[63.62032,53.16907],[63.62044,53.169],[63.62058,53.16891],[63.62077,53.16878],[63.62083,53.16872],[63.62092,53.16869],[63.62095,53.16872],[63.62087,53.16878],[63.62082,53.16888],[63.62064,53.16894],[63.62069,53.16911],[63.62077,53.16922],[63.62089,53.16936],[63.62091,53.16944],[63.62098,53.16948],[63.62078,53.16953],[63.6208,53.16957],[63.62098,53.16955],[63.62111,53.16954],[63.62129,53.16967],[63.62139,53.16966],[63.62155,53.16969],[63.62186,53.16956],[63.62223,53.16959],[63.62229,53.16939],[63.62207,53.1694],[63.62201,53.1693],[63.62173,53.16931],[63.62138,53.16901],[63.62146,53.16872],[63.62174,53.16855],[63.62168,53.16811],[63.62149,53.16814],[63.62134,53.16821],[63.62118,53.16826],[63.6212,53.16831],[63.62117,53.16835],[63.62106,53.16839],[63.62091,53.16846],[63.62058,53.16866],[63.62047,53.16872],[63.62031,53.1686],[63.62017,53.16847],[63.62006,53.1683],[63.61994,53.16811],[63.61975,53.16793],[63.61953,53.16769],[63.61937,53.16754],[63.61923,53.16742],[63.61915,53.16736],[63.61906,53.16734],[63.61899,53.16724],[63.61903,53.16717],[63.61897,53.16709],[63.61894,53.16702],[63.61885,53.16699],[63.61852,53.16715],[63.61822,53.16723],[63.61825,53.16725],[63.61845,53.1673],[63.6186,53.16738],[63.61871,53.16744],[63.61889,53.16753],[63.61897,53.16759],[63.6191,53.1677],[63.61929,53.16791],[63.61953,53.16814],[63.61974,53.16839],[63.61994,53.16862],[63.62011,53.16882],[63.62011,53.1689],[63.62006,53.16899],[63.61993,53.16906],[63.61984,53.16912],[63.61975,53.16916],[63.61967,53.16922],[63.61958,53.16936],[63.61954,53.16948],[63.61949,53.16953],[63.61948,53.16963],[63.61939,53.16981],[63.61928,53.16991],[63.61925,53.16998],[63.61927,53.17003],[63.61937,53.16998],[63.61951,53.17012]]]}},{"type":"Feature","properties":{"kind":"water"},"geometry":{"type":"Polygon","coordinates":[[[63.64228,53.1917],[63.64231,53.19156],[63.64229,53.19146],[63.64222,53.19128],[63.6422,53.19117],[63.64209,53.19108],[63.64203,53.191],[63.64209,53.19095],[63.64217,53.19094],[63.64231,53.19103],[63.6426,53.19102],[63.64276,53.19084],[63.64288,53.19073],[63.64304,53.19063],[63.64228,53.1917]]]}},{"type":"Feature","properties":{"kind":"water"},"geometry":{"type":"Polygon","coordinates":[[[63.65025,53.19672],[63.65014,53.19669],[63.65006,53.1967],[63.64998,53.19667],[63.64983,53.19667],[63.64971,53.19659],[63.64963,53.19654],[63.6496,53.19644],[63.64953,53.19638],[63.64948,53.19627],[63.64936,53.1962],[63.64925,53.19611],[63.64922,53.19602],[63.64943,53.19602],[63.64951,53.19606],[63.64957,53.19607],[63.64954,53.19599],[63.64951,53.19579],[63.64952,53.19567],[63.64971,53.19564],[63.64975,53.19548],[63.6498,53.19537],[63.64986,53.1952],[63.64989,53.1951],[63.64981,53.19497],[63.64968,53.19492],[63.64947,53.19495],[63.64906,53.19479],[63.64862,53.19455],[63.64847,53.19437],[63.64848,53.19423],[63.64859,53.19411],[63.64863,53.19398],[63.64875,53.19385],[63.6489,53.19378],[63.64906,53.19371],[63.6492,53.19368],[63.64942,53.19374],[63.64976,53.19385],[63.65006,53.19395],[63.65038,53.19395],[63.65058,53.19393],[63.65082,53.1939],[63.6511,53.1939],[63.65113,53.19398],[63.65124,53.19409],[63.65133,53.19418],[63.65135,53.19429],[63.65119,53.19437],[63.65128,53.19448],[63.65123,53.19458],[63.65131,53.19465],[63.65139,53.19484],[63.65129,53.19507],[63.65125,53.19522],[63.65134,53.1953],[63.65131,53.19554],[63.65145,53.1957],[63.65143,53.19582],[63.65139,53.19592],[63.65134,53.19609],[63.65136,53.19621],[63.65126,53.19631],[63.65114,53.19643],[63.65115,53.19656],[63.65106,53.19662],[63.65093,53.19664],[63.65082,53.19661],[63.65065,53.19654],[63.65046,53.19654],[63.65038,53.1965],[63.65026,53.1964],[63.65014,53.19637],[63.65002,53.19639],[63.65002,53.1965],[63.65017,53.19657],[63.65032,53.19665],[63.65025,53.19672]]]}},{"type":"Feature","properties":{"kind":"water"},"geometry":{"type":"Polygon","coordinates":[[[63.69148,53.14994],[63.69766,53.15568],[63.69577,53.15651],[63.695,53.15551],[63.69641,53.15488],[63.69607,53.15462],[63.69551,53.15468],[63.69472,53.15425],[63.6948,53.15395],[63.69431,53.15363],[63.69058,53.15004],[63.69148,53.14994]]]}},{"type":"Feature","properties":{"kind":"river","name":"Тобыл"},"geometry":{"type":"LineString","coordinates":[[63.61574,53.16471],[63.61698,53.16639]]}},{"type":"Feature","properties":{"kind":"river","name":"Тобыл"},"geometry":{"type":"LineString","coordinates":[[63.65066,53.2076],[63.65118,53.2088],[63.65145,53.20913],[63.65202,53.20954],[63.65667,53.21076],[63.65779,53.21111],[63.6589,53.21162],[63.65947,53.21173],[63.66033,53.21191],[63.66139,53.21226],[63.66167,53.21229],[63.66187,53.21231],[63.66288,53.21226],[63.66418,53.21176],[63.66443,53.21152],[63.66437,53.21123],[63.66407,53.21098],[63.66459,53.21049],[63.66492,53.21035],[63.66582,53.21018],[63.66672,53.20994],[63.6683,53.2098],[63.66883,53.20977]]}},{"type":"Feature","properties":{"kind":"river","name":"Тобол"},"geometry":{"type":"LineString","coordinates":[[63.66883,53.20977],[63.66993,53.20982],[63.67032,53.20987],[63.67086,53.20987],[63.67142,53.21043],[63.67198,53.21074],[63.67239,53.21105],[63.67232,53.21136],[63.67281,53.21174],[63.67292,53.21215],[63.67291,53.21241],[63.67261,53.21289],[63.67272,53.21319],[63.67315,53.21374],[63.67351,53.21401],[63.67445,53.21436],[63.67474,53.21464],[63.67475,53.21497],[63.6741,53.21512],[63.67407,53.21544],[63.67429,53.21577],[63.67494,53.21624],[63.675,53.21675],[63.67456,53.2172],[63.67462,53.21756],[63.67485,53.21838],[63.67605,53.21922],[63.67614,53.21955],[63.67582,53.22013],[63.67591,53.22045],[63.67616,53.22103],[63.67597,53.22138],[63.67502,53.22185],[63.67476,53.222]]}},{"type":"Feature","properties":{"kind":"river","name":"Тобыл"},"geometry":{"type":"LineString","coordinates":[[63.61607,53.15756],[63.61647,53.15815],[63.61652,53.15853],[63.61645,53.1593],[63.61624,53.15986],[63.61564,53.16059],[63.61517,53.16092],[63.61391,53.1615],[63.61316,53.1617],[63.61284,53.16195],[63.61243,53.16232],[63.6122,53.16277],[63.61212,53.16336],[63.61233,53.16394],[63.6128,53.16432],[63.61398,53.1651]]}},{"type":"Feature","properties":{"kind":"river","name":"Тобыл"},"geometry":{"type":"LineString","coordinates":[[63.61545,53.15734],[63.61607,53.15756]]}},{"type":"Feature","properties":{"kind":"river","name":"Тобыл"},"geometry":{"type":"LineString","coordinates":[[63.62332,53.16521],[63.62328,53.16561],[63.62283,53.16665],[63.62285,53.16696],[63.62321,53.16751],[63.62327,53.16781],[63.62303,53.16796],[63.62137,53.16824],[63.61983,53.16918],[63.61937,53.16998],[63.6195,53.17037]]}},{"type":"Feature","properties":{"kind":"river","name":"Тобыл"},"geometry":{"type":"LineString","coordinates":[[63.57114,53.10946],[63.57147,53.10971],[63.57364,53.11097],[63.57539,53.11166],[63.57658,53.11247],[63.57941,53.1151],[63.58006,53.11586],[63.58036,53.11662],[63.58027,53.1174],[63.57986,53.11877],[63.57924,53.11984],[63.57922,53.12051],[63.57944,53.12126],[63.57971,53.12185],[63.58029,53.12261],[63.58077,53.12295],[63.58239,53.12359],[63.58362,53.12396],[63.58469,53.12412],[63.58975,53.12443],[63.59059,53.12476],[63.59124,53.12538],[63.59158,53.12624],[63.59161,53.12709],[63.59088,53.12935],[63.59036,53.13013],[63.58439,53.13548],[63.58404,53.13612],[63.58391,53.13684],[63.58403,53.13753]]}},{"type":"Feature","properties":{"kind":"river","name":"Тобыл"},"geometry":{"type":"LineString","coordinates":[[63.58403,53.13753],[63.58438,53.13803],[63.58598,53.13981],[63.59206,53.14524],[63.59327,53.14578],[63.5944,53.14609],[63.59632,53.14611],[63.59931,53.14601],[63.60092,53.14571],[63.60146,53.14568],[63.6042,53.14622],[63.60458,53.14645],[63.60532,53.14823],[63.60534,53.14904],[63.60554,53.14955],[63.6063,53.15033],[63.60791,53.15121],[63.60824,53.15163],[63.60869,53.15264],[63.60992,53.15401],[63.61009,53.15463],[63.61051,53.15519],[63.61094,53.1554],[63.61314,53.1564],[63.61545,53.15734]]}},{"type":"Feature","properties":{"kind":"river","name":"Тобол"},"geometry":{"type":"LineString","coordinates":[[63.71861,53.25888],[63.7183,53.25895],[63.71785,53.25889],[63.71749,53.25887],[63.71731,53.25896],[63.71725,53.2591],[63.71739,53.25935],[63.71767,53.25966],[63.71775,53.25986],[63.71782,53.26018],[63.71788,53.2605],[63.71779,53.26089],[63.71797,53.26117],[63.71836,53.26138],[63.71885,53.26151],[63.71922,53.26168],[63.71956,53.26192],[63.71981,53.26221],[63.72025,53.26298],[63.7204,53.26332],[63.72044,53.26352],[63.72047,53.26372],[63.72041,53.26402],[63.72021,53.26432],[63.71998,53.26443],[63.71951,53.26454],[63.71894,53.26479],[63.71847,53.26504],[63.71831,53.26517],[63.71811,53.26535],[63.7179,53.26603],[63.71781,53.26667],[63.71753,53.26705],[63.71705,53.26736],[63.71694,53.2675],[63.717,53.26771],[63.71716,53.26791],[63.71757,53.26829],[63.71819,53.26896],[63.71873,53.26922],[63.71946,53.26942],[63.72006,53.2695],[63.72075,53.26938],[63.72131,53.26929],[63.72172,53.26934],[63.72199,53.26954],[63.72206,53.26979],[63.72187,53.27011],[63.72161,53.27027],[63.72132,53.27032],[63.72093,53.27021],[63.72065,53.27027],[63.72044,53.27036],[63.72027,53.2705],[63.72026,53.27066],[63.72021,53.27121],[63.72031,53.27137],[63.72088,53.27166],[63.72134,53.27191],[63.72164,53.27216],[63.7221,53.27226],[63.72245,53.27219],[63.72259,53.27193],[63.72335,53.27124],[63.72345,53.271],[63.7233,53.2707],[63.72356,53.27039],[63.7239,53.27024],[63.72438,53.27024],[63.72479,53.27038],[63.72505,53.27054],[63.72557,53.27126],[63.72601,53.27143],[63.72661,53.27146],[63.72774,53.2714],[63.72801,53.27153]]}},{"type":"Feature","properties":{"kind":"river","name":"Тобол"},"geometry":{"type":"LineString","coordinates":[[63.72801,53.27153],[63.72817,53.27179],[63.72807,53.27202],[63.72671,53.27244],[63.72663,53.27269],[63.72683,53.2729],[63.72715,53.27304],[63.72744,53.27324],[63.72751,53.27351],[63.72715,53.27417],[63.72712,53.27445],[63.72721,53.27469],[63.72768,53.27495],[63.7282,53.27506],[63.7311,53.27525],[63.73154,53.27541],[63.73196,53.27575],[63.73216,53.27607],[63.73229,53.27642],[63.73255,53.27661],[63.73298,53.2768],[63.73396,53.27693]]}},{"type":"Feature","properties":{"kind":"river","name":"Тобол"},"geometry":{"type":"LineString","coordinates":[[63.71582,53.24842],[63.71582,53.24862],[63.71567,53.24873],[63.71523,53.24879],[63.71506,53.24893],[63.71511,53.24911],[63.71555,53.24928],[63.71631,53.24952],[63.71652,53.24957],[63.71668,53.24965],[63.7169,53.24992],[63.71694,53.25009],[63.7169,53.25026],[63.71676,53.25039],[63.71643,53.25052],[63.71621,53.25075],[63.71613,53.25104],[63.71636,53.25141],[63.71669,53.25163],[63.71705,53.25175],[63.71731,53.25202],[63.71746,53.25219],[63.71746,53.25239],[63.71717,53.2527],[63.71706,53.25314],[63.71679,53.25348],[63.71674,53.25383],[63.71674,53.25415],[63.71721,53.25502],[63.7176,53.25533],[63.71815,53.25572],[63.71914,53.25654],[63.71936,53.2569],[63.71948,53.25723],[63.71944,53.25769],[63.71936,53.25797],[63.71903,53.25824],[63.71887,53.25858],[63.71861,53.25888]]}},{"type":"Feature","properties":{"kind":"water"},"geometry":{"type":"Polygon","coordinates":[[[63.62365,53.15649],[63.623,53.15496],[63.62398,53.15457],[63.62463,53.15607],[63.62416,53.15644],[63.62389,53.15647],[63.62365,53.15649]]]}}]}